{
"type": "FeatureCollection",
"name": "manhattan_equity_p150",
"crs": { "type": "name", "properties": { "name": "urn:ogc:def:crs:OGC:1.3:CRS84" } },
"features": [
{ "type": "Feature", "properties": { "nkde_score": 0.84264503633885435 }, "geometry": { "type": "Point", "coordinates": [ -73.998456, 40.733931 ] } },
{ "type": "Feature", "properties": { "nkde_score": 0.61987456284932807 }, "geometry": { "type": "Point", "coordinates": [ -73.93341, 40.802694 ] } },
{ "type": "Feature", "properties": { "nkde_score": 0.84851525341639 }, "geometry": { "type": "Point", "coordinates": [ -73.967221, 40.79274 ] } },
{ "type": "Feature", "properties": { "nkde_score": 0.56579251162138033 }, "geometry": { "type": "Point", "coordinates": [ -73.95949, 40.820262 ] } },
{ "type": "Feature", "properties": { "nkde_score": 0.37848085951334171 }, "geometry": { "type": "Point", "coordinates": [ -73.939691, 40.8312 ] } },
{ "type": "Feature", "properties": { "nkde_score": 0.44905989287620113 }, "geometry": { "type": "Point", "coordinates": [ -73.970148, 40.746058 ] } },
{ "type": "Feature", "properties": { "nkde_score": 0.36794088104604616 }, "geometry": { "type": "Point", "coordinates": [ -73.93425, 40.817905 ] } },
{ "type": "Feature", "properties": { "nkde_score": 0.79629536314278593 }, "geometry": { "type": "Point", "coordinates": [ -74.016611, 40.708172 ] } },
{ "type": "Feature", "properties": { "nkde_score": 0.4752920709702616 }, "geometry": { "type": "Point", "coordinates": [ -73.94974, 40.817923 ] } },
{ "type": "Feature", "properties": { "nkde_score": 0.88383824935300936 }, "geometry": { "type": "Point", "coordinates": [ -73.953249, 40.767541 ] } },
{ "type": "Feature", "properties": { "nkde_score": 0.92686316345008002 }, "geometry": { "type": "Point", "coordinates": [ -73.986919, 40.739553 ] } },
{ "type": "Feature", "properties": { "nkde_score": 0.94759308312113411 }, "geometry": { "type": "Point", "coordinates": [ -73.985164, 40.755285 ] } },
{ "type": "Feature", "properties": { "nkde_score": 0.85773633902665325 }, "geometry": { "type": "Point", "coordinates": [ -73.986406, 40.759962 ] } },
{ "type": "Feature", "properties": { "nkde_score": 0.92947752956982188 }, "geometry": { "type": "Point", "coordinates": [ -73.982255, 40.764785 ] } },
{ "type": "Feature", "properties": { "nkde_score": 0.84987361470820233 }, "geometry": { "type": "Point", "coordinates": [ -73.999862, 40.721794 ] } },
{ "type": "Feature", "properties": { "nkde_score": 0.87239306517875082 }, "geometry": { "type": "Point", "coordinates": [ -73.977315, 40.789541 ] } },
{ "type": "Feature", "properties": { "nkde_score": 0.851208530936018 }, "geometry": { "type": "Point", "coordinates": [ -73.974564, 40.793305 ] } },
{ "type": "Feature", "properties": { "nkde_score": 0.83106418999499387 }, "geometry": { "type": "Point", "coordinates": [ -73.970822, 40.798426 ] } },
{ "type": "Feature", "properties": { "nkde_score": 0.81369431920726787 }, "geometry": { "type": "Point", "coordinates": [ -73.967906, 40.802252 ] } },
{ "type": "Feature", "properties": { "nkde_score": 0.89115720106693685 }, "geometry": { "type": "Point", "coordinates": [ -73.995336, 40.739994 ] } },
{ "type": "Feature", "properties": { "nkde_score": 0.87432762314098644 }, "geometry": { "type": "Point", "coordinates": [ -74.005119, 40.744118 ] } },
{ "type": "Feature", "properties": { "nkde_score": 0.67733713600388712 }, "geometry": { "type": "Point", "coordinates": [ -73.953687, 40.807062 ] } },
{ "type": "Feature", "properties": { "nkde_score": 0.86378709095936623 }, "geometry": { "type": "Point", "coordinates": [ -73.988979, 40.718874 ] } },
{ "type": "Feature", "properties": { "nkde_score": 0.9177526743672646 }, "geometry": { "type": "Point", "coordinates": [ -73.96789, 40.765384 ] } },
{ "type": "Feature", "properties": { "nkde_score": 0.90551944009035656 }, "geometry": { "type": "Point", "coordinates": [ -73.992231, 40.745953 ] } },
{ "type": "Feature", "properties": { "nkde_score": 0.94655061313776634 }, "geometry": { "type": "Point", "coordinates": [ -73.980328, 40.762304 ] } },
{ "type": "Feature", "properties": { "nkde_score": 0.69572622084657332 }, "geometry": { "type": "Point", "coordinates": [ -73.94655, 40.789001 ] } },
{ "type": "Feature", "properties": { "nkde_score": 0.62884466012881524 }, "geometry": { "type": "Point", "coordinates": [ -74.00248, 40.755125 ] } },
{ "type": "Feature", "properties": { "nkde_score": 0.51832834792818683 }, "geometry": { "type": "Point", "coordinates": [ -73.936966, 40.851707 ] } },
{ "type": "Feature", "properties": { "nkde_score": 0.41233993054658169 }, "geometry": { "type": "Point", "coordinates": [ -73.975329, 40.717759 ] } },
{ "type": "Feature", "properties": { "nkde_score": 0.91380368178540472 }, "geometry": { "type": "Point", "coordinates": [ -73.983217, 40.779281 ] } },
{ "type": "Feature", "properties": { "nkde_score": 0.88313915287330447 }, "geometry": { "type": "Point", "coordinates": [ -73.982434, 40.784884 ] } },
{ "type": "Feature", "properties": { "nkde_score": 0.76055193533587506 }, "geometry": { "type": "Point", "coordinates": [ -73.961047, 40.801859 ] } },
{ "type": "Feature", "properties": { "nkde_score": 0.66572448562921838 }, "geometry": { "type": "Point", "coordinates": [ -73.958234, 40.803102 ] } },
{ "type": "Feature", "properties": { "nkde_score": 0.90882739727344575 }, "geometry": { "type": "Point", "coordinates": [ -74.006668, 40.738763 ] } },
{ "type": "Feature", "properties": { "nkde_score": 0.81696850116895214 }, "geometry": { "type": "Point", "coordinates": [ -74.013819, 40.717619 ] } },
{ "type": "Feature", "properties": { "nkde_score": 0.78704613402154477 }, "geometry": { "type": "Point", "coordinates": [ -73.968904, 40.769901 ] } },
{ "type": "Feature", "properties": { "nkde_score": 0.87260225181891138 }, "geometry": { "type": "Point", "coordinates": [ -73.961209, 40.766655 ] } },
{ "type": "Feature", "properties": { "nkde_score": 0.73356356002979428 }, "geometry": { "type": "Point", "coordinates": [ -74.012977, 40.705026 ] } },
{ "type": "Feature", "properties": { "nkde_score": 0.87452260774455004 }, "geometry": { "type": "Point", "coordinates": [ -74.003485, 40.738129 ] } },
{ "type": "Feature", "properties": { "nkde_score": 0.91151715920741438 }, "geometry": { "type": "Point", "coordinates": [ -73.98138, 40.752816 ] } },
{ "type": "Feature", "properties": { "nkde_score": 0.86240669925300906 }, "geometry": { "type": "Point", "coordinates": [ -73.976731, 40.77744 ] } },
{ "type": "Feature", "properties": { "nkde_score": 0.41915588221455286 }, "geometry": { "type": "Point", "coordinates": [ -73.937831, 40.822806 ] } },
{ "type": "Feature", "properties": { "nkde_score": 0.41846155080420799 }, "geometry": { "type": "Point", "coordinates": [ -73.929783, 40.865997 ] } },
{ "type": "Feature", "properties": { "nkde_score": 0.92782499302890864 }, "geometry": { "type": "Point", "coordinates": [ -73.973974, 40.762972 ] } },
{ "type": "Feature", "properties": { "nkde_score": 0.86647065720344796 }, "geometry": { "type": "Point", "coordinates": [ -73.972811, 40.783382 ] } },
{ "type": "Feature", "properties": { "nkde_score": 0.55500550352800893 }, "geometry": { "type": "Point", "coordinates": [ -73.94423, 40.819674 ] } },
{ "type": "Feature", "properties": { "nkde_score": 0.90457956026724307 }, "geometry": { "type": "Point", "coordinates": [ -73.988654, 40.729022 ] } },
{ "type": "Feature", "properties": { "nkde_score": 0.8992926409161669 }, "geometry": { "type": "Point", "coordinates": [ -73.999338, 40.744785 ] } },
{ "type": "Feature", "properties": { "nkde_score": 0.64038518287009771 }, "geometry": { "type": "Point", "coordinates": [ -73.946384, 40.795632 ] } },
{ "type": "Feature", "properties": { "nkde_score": 0.55817348464373606 }, "geometry": { "type": "Point", "coordinates": [ -73.938302, 40.842851 ] } },
{ "type": "Feature", "properties": { "nkde_score": 0.7641813798667908 }, "geometry": { "type": "Point", "coordinates": [ -73.962377, 40.794859 ] } },
{ "type": "Feature", "properties": { "nkde_score": 0.89795626929944372 }, "geometry": { "type": "Point", "coordinates": [ -73.989996, 40.752418 ] } },
{ "type": "Feature", "properties": { "nkde_score": 0.53198296745247631 }, "geometry": { "type": "Point", "coordinates": [ -73.948419, 40.813938 ] } },
{ "type": "Feature", "properties": { "nkde_score": 0.75656111992635922 }, "geometry": { "type": "Point", "coordinates": [ -74.009424, 40.724103 ] } },
{ "type": "Feature", "properties": { "nkde_score": 0.41919739453951865 }, "geometry": { "type": "Point", "coordinates": [ -73.934888, 40.8569 ] } },
{ "type": "Feature", "properties": { "nkde_score": 0.835537569028444 }, "geometry": { "type": "Point", "coordinates": [ -73.966699, 40.772313 ] } },
{ "type": "Feature", "properties": { "nkde_score": 0.83271144170203937 }, "geometry": { "type": "Point", "coordinates": [ -74.005287, 40.728851 ] } },
{ "type": "Feature", "properties": { "nkde_score": 0.84211581441668071 }, "geometry": { "type": "Point", "coordinates": [ -73.968707, 40.786737 ] } },
{ "type": "Feature", "properties": { "nkde_score": 0.91585415698415151 }, "geometry": { "type": "Point", "coordinates": [ -73.958399, 40.775645 ] } },
{ "type": "Feature", "properties": { "nkde_score": 0.8061197706 }, "geometry": { "type": "Point", "coordinates": [ -73.953103, 40.790947 ] } },
{ "type": "Feature", "properties": { "nkde_score": 0.84230342456953433 }, "geometry": { "type": "Point", "coordinates": [ -73.990522, 40.764155 ] } },
{ "type": "Feature", "properties": { "nkde_score": 0.85838801613623417 }, "geometry": { "type": "Point", "coordinates": [ -73.980135, 40.736688 ] } },
{ "type": "Feature", "properties": { "nkde_score": 0.56908525170225222 }, "geometry": { "type": "Point", "coordinates": [ -74.002743, 40.70647 ] } },
{ "type": "Feature", "properties": { "nkde_score": 0.80519840801283704 }, "geometry": { "type": "Point", "coordinates": [ -73.996798, 40.728799 ] } },
{ "type": "Feature", "properties": { "nkde_score": 0.34475242804822381 }, "geometry": { "type": "Point", "coordinates": [ -73.961865, 40.814051 ] } },
{ "type": "Feature", "properties": { "nkde_score": 0.58557460757760482 }, "geometry": { "type": "Point", "coordinates": [ -73.956747, 40.821694 ] } },
{ "type": "Feature", "properties": { "nkde_score": 0.53824588718349253 }, "geometry": { "type": "Point", "coordinates": [ -73.950909, 40.828317 ] } },
{ "type": "Feature", "properties": { "nkde_score": 0.90151950446811957 }, "geometry": { "type": "Point", "coordinates": [ -73.982331, 40.773094 ] } },
{ "type": "Feature", "properties": { "nkde_score": 0.48615652248246927 }, "geometry": { "type": "Point", "coordinates": [ -73.93886, 40.837235 ] } },
{ "type": "Feature", "properties": { "nkde_score": 0.87619281548249117 }, "geometry": { "type": "Point", "coordinates": [ -73.976444, 40.741764 ] } },
{ "type": "Feature", "properties": { "nkde_score": 0.47415338877633745 }, "geometry": { "type": "Point", "coordinates": [ -73.993398, 40.709587 ] } },
{ "type": "Feature", "properties": { "nkde_score": 0.63303081935926864 }, "geometry": { "type": "Point", "coordinates": [ -73.937425, 40.80438 ] } },
{ "type": "Feature", "properties": { "nkde_score": 0.37487644493799877 }, "geometry": { "type": "Point", "coordinates": [ -73.92444, 40.862939 ] } },
{ "type": "Feature", "properties": { "nkde_score": 0.84102960095229917 }, "geometry": { "type": "Point", "coordinates": [ -73.982749, 40.733928 ] } },
{ "type": "Feature", "properties": { "nkde_score": 0.89116223760183333 }, "geometry": { "type": "Point", "coordinates": [ -73.960321, 40.773016 ] } },
{ "type": "Feature", "properties": { "nkde_score": 0.74570515602884824 }, "geometry": { "type": "Point", "coordinates": [ -73.975598, 40.724283 ] } },
{ "type": "Feature", "properties": { "nkde_score": 0.79410122258598781 }, "geometry": { "type": "Point", "coordinates": [ -73.960909, 40.78085 ] } },
{ "type": "Feature", "properties": { "nkde_score": 0.50391498456070882 }, "geometry": { "type": "Point", "coordinates": [ -73.934544, 40.850417 ] } },
{ "type": "Feature", "properties": { "nkde_score": 0.45717449736959254 }, "geometry": { "type": "Point", "coordinates": [ -73.942361, 40.845339 ] } },
{ "type": "Feature", "properties": { "nkde_score": 0.92786206811255356 }, "geometry": { "type": "Point", "coordinates": [ -73.978619, 40.745065 ] } },
{ "type": "Feature", "properties": { "nkde_score": 0.90981463922329631 }, "geometry": { "type": "Point", "coordinates": [ -73.965777, 40.760404 ] } },
{ "type": "Feature", "properties": { "nkde_score": 0.32784025836263131 }, "geometry": { "type": "Point", "coordinates": [ -73.928692, 40.853724 ] } },
{ "type": "Feature", "properties": { "nkde_score": 0.84110782961360486 }, "geometry": { "type": "Point", "coordinates": [ -74.002513, 40.727601 ] } },
{ "type": "Feature", "properties": { "nkde_score": 0.89723031181520141 }, "geometry": { "type": "Point", "coordinates": [ -73.948381, 40.77225 ] } },
{ "type": "Feature", "properties": { "nkde_score": 0.81933736459747886 }, "geometry": { "type": "Point", "coordinates": [ -73.944281, 40.77562 ] } },
{ "type": "Feature", "properties": { "nkde_score": 0.22020419884704542 }, "geometry": { "type": "Point", "coordinates": [ -73.932509, 40.846234 ] } },
{ "type": "Feature", "properties": { "nkde_score": 0.62567814548003475 }, "geometry": { "type": "Point", "coordinates": [ -73.946137, 40.802238 ] } },
{ "type": "Feature", "properties": { "nkde_score": 0.69505040226804904 }, "geometry": { "type": "Point", "coordinates": [ -74.00992, 40.733879 ] } },
{ "type": "Feature", "properties": { "nkde_score": 0.77982566613171045 }, "geometry": { "type": "Point", "coordinates": [ -74.006951, 40.704799 ] } },
{ "type": "Feature", "properties": { "nkde_score": 0.86868556415848563 }, "geometry": { "type": "Point", "coordinates": [ -73.953878, 40.784589 ] } },
{ "type": "Feature", "properties": { "nkde_score": 0.90795881036487003 }, "geometry": { "type": "Point", "coordinates": [ -73.983617, 40.749728 ] } },
{ "type": "Feature", "properties": { "nkde_score": 0.82698872452534344 }, "geometry": { "type": "Point", "coordinates": [ -74.00538, 40.718302 ] } },
{ "type": "Feature", "properties": { "nkde_score": 0.77311086995596046 }, "geometry": { "type": "Point", "coordinates": [ -73.964811, 40.753314 ] } },
{ "type": "Feature", "properties": { "nkde_score": 0.79695315533614774 }, "geometry": { "type": "Point", "coordinates": [ -73.978608, 40.722417 ] } },
{ "type": "Feature", "properties": { "nkde_score": 0.88874461425094664 }, "geometry": { "type": "Point", "coordinates": [ -73.983345, 40.724414 ] } },
{ "type": "Feature", "properties": { "nkde_score": 0.65045764463202216 }, "geometry": { "type": "Point", "coordinates": [ -73.945413, 40.807746 ] } },
{ "type": "Feature", "properties": { "nkde_score": 0.57190719565446335 }, "geometry": { "type": "Point", "coordinates": [ -73.940781, 40.814081 ] } },
{ "type": "Feature", "properties": { "nkde_score": 0.34818147755841977 }, "geometry": { "type": "Point", "coordinates": [ -73.92032, 40.869001 ] } },
{ "type": "Feature", "properties": { "nkde_score": 0.41355564050753402 }, "geometry": { "type": "Point", "coordinates": [ -73.930948, 40.857873 ] } },
{ "type": "Feature", "properties": { "nkde_score": 0.80072708589788977 }, "geometry": { "type": "Point", "coordinates": [ -74.005757, 40.750045 ] } },
{ "type": "Feature", "properties": { "nkde_score": 0.65530737161983055 }, "geometry": { "type": "Point", "coordinates": [ -73.957026, 40.814247 ] } },
{ "type": "Feature", "properties": { "nkde_score": 0.83738058575199603 }, "geometry": { "type": "Point", "coordinates": [ -74.010777, 40.711014 ] } },
{ "type": "Feature", "properties": { "nkde_score": 0.90081221537759371 }, "geometry": { "type": "Point", "coordinates": [ -73.950144, 40.778085 ] } },
{ "type": "Feature", "properties": { "nkde_score": 0.86968426308421842 }, "geometry": { "type": "Point", "coordinates": [ -73.993322, 40.733304 ] } },
{ "type": "Feature", "properties": { "nkde_score": 0.31383353711456685 }, "geometry": { "type": "Point", "coordinates": [ -73.920296, 40.862611 ] } },
{ "type": "Feature", "properties": { "nkde_score": 0.89320344118898631 }, "geometry": { "type": "Point", "coordinates": [ -73.986037, 40.768051 ] } },
{ "type": "Feature", "properties": { "nkde_score": 0.84806549297322553 }, "geometry": { "type": "Point", "coordinates": [ -73.957974, 40.762838 ] } },
{ "type": "Feature", "properties": { "nkde_score": 0.75113165936338133 }, "geometry": { "type": "Point", "coordinates": [ -73.971232, 40.749418 ] } },
{ "type": "Feature", "properties": { "nkde_score": 0.83152186283005847 }, "geometry": { "type": "Point", "coordinates": [ -73.961165, 40.758455 ] } },
{ "type": "Feature", "properties": { "nkde_score": 0.69642801265898469 }, "geometry": { "type": "Point", "coordinates": [ -73.936662, 40.796545 ] } },
{ "type": "Feature", "properties": { "nkde_score": 0.88305732801213088 }, "geometry": { "type": "Point", "coordinates": [ -73.993428, 40.724509 ] } },
{ "type": "Feature", "properties": { "nkde_score": 0.94524416232763175 }, "geometry": { "type": "Point", "coordinates": [ -73.975442, 40.755347 ] } },
{ "type": "Feature", "properties": { "nkde_score": 0.81598433782145485 }, "geometry": { "type": "Point", "coordinates": [ -73.988502, 40.777339 ] } },
{ "type": "Feature", "properties": { "nkde_score": 0.53187010821929481 }, "geometry": { "type": "Point", "coordinates": [ -73.944363, 40.841489 ] } },
{ "type": "Feature", "properties": { "nkde_score": 0.30377094323439402 }, "geometry": { "type": "Point", "coordinates": [ -73.919044, 40.796833 ] } },
{ "type": "Feature", "properties": { "nkde_score": 0.54736213471063722 }, "geometry": { "type": "Point", "coordinates": [ -73.999442, 40.70829 ] } },
{ "type": "Feature", "properties": { "nkde_score": 0.83504900837642082 }, "geometry": { "type": "Point", "coordinates": [ -73.998043, 40.751069 ] } },
{ "type": "Feature", "properties": { "nkde_score": 0.40453648500735917 }, "geometry": { "type": "Point", "coordinates": [ -73.982362, 40.710877 ] } },
{ "type": "Feature", "properties": { "nkde_score": 0.41688274605240933 }, "geometry": { "type": "Point", "coordinates": [ -73.937459, 40.789589 ] } },
{ "type": "Feature", "properties": { "nkde_score": 0.44994467262767307 }, "geometry": { "type": "Point", "coordinates": [ -73.931017, 40.796683 ] } },
{ "type": "Feature", "properties": { "nkde_score": 0.40537722490669048 }, "geometry": { "type": "Point", "coordinates": [ -73.935957, 40.808739 ] } },
{ "type": "Feature", "properties": { "nkde_score": 0.80850690930186564 }, "geometry": { "type": "Point", "coordinates": [ -73.963988, 40.808065 ] } },
{ "type": "Feature", "properties": { "nkde_score": 0.61911590669877881 }, "geometry": { "type": "Point", "coordinates": [ -73.98991, 40.71197 ] } },
{ "type": "Feature", "properties": { "nkde_score": 0.64760172246363656 }, "geometry": { "type": "Point", "coordinates": [ -73.951759, 40.824486 ] } },
{ "type": "Feature", "properties": { "nkde_score": 0.59660604236939041 }, "geometry": { "type": "Point", "coordinates": [ -73.94734, 40.826 ] } },
{ "type": "Feature", "properties": { "nkde_score": 0.57809863679588014 }, "geometry": { "type": "Point", "coordinates": [ -73.945249, 40.833403 ] } },
{ "type": "Feature", "properties": { "nkde_score": 0.65041010965002166 }, "geometry": { "type": "Point", "coordinates": [ -73.974657, 40.73615 ] } },
{ "type": "Feature", "properties": { "nkde_score": 0.71855163047780646 }, "geometry": { "type": "Point", "coordinates": [ -73.996209, 40.756844 ] } },
{ "type": "Feature", "properties": { "nkde_score": 0.94757409756342137 }, "geometry": { "type": "Point", "coordinates": [ -73.973155, 40.758485 ] } },
{ "type": "Feature", "properties": { "nkde_score": 0.42437574248712207 }, "geometry": { "type": "Point", "coordinates": [ -73.929277, 40.78612 ] } },
{ "type": "Feature", "properties": { "nkde_score": 0.82337500367615335 }, "geometry": { "type": "Point", "coordinates": [ -73.989661, 40.772096 ] } },
{ "type": "Feature", "properties": { "nkde_score": 0.40855773008273938 }, "geometry": { "type": "Point", "coordinates": [ -73.925412, 40.789206 ] } },
{ "type": "Feature", "properties": { "nkde_score": 0.76667849138014132 }, "geometry": { "type": "Point", "coordinates": [ -73.959212, 40.808575 ] } },
{ "type": "Feature", "properties": { "nkde_score": 0.31652411617915555 }, "geometry": { "type": "Point", "coordinates": [ -73.914686, 40.870767 ] } },
{ "type": "Feature", "properties": { "nkde_score": 0.66143510887920165 }, "geometry": { "type": "Point", "coordinates": [ -73.952687, 40.802856 ] } },
{ "type": "Feature", "properties": { "nkde_score": 0.27070880882516074 }, "geometry": { "type": "Point", "coordinates": [ -73.921218, 40.798827 ] } },
{ "type": "Feature", "properties": { "nkde_score": 0.37733121756289673 }, "geometry": { "type": "Point", "coordinates": [ -73.932782, 40.782891 ] } },
{ "type": "Feature", "properties": { "nkde_score": 0.70914136370934411 }, "geometry": { "type": "Point", "coordinates": [ -74.005197, 40.712158 ] } },
{ "type": "Feature", "properties": { "nkde_score": 0.6318786417953538 }, "geometry": { "type": "Point", "coordinates": [ -73.982697, 40.717101 ] } },
{ "type": "Feature", "properties": { "nkde_score": 0.92205630390697002 }, "geometry": { "type": "Point", "coordinates": [ -73.984596, 40.742743 ] } },
{ "type": "Feature", "properties": { "nkde_score": 0.74330209916668066 }, "geometry": { "type": "Point", "coordinates": [ -73.944039, 40.783035 ] } },
{ "type": "Feature", "properties": { "nkde_score": 0.60343437660871291 }, "geometry": { "type": "Point", "coordinates": [ -73.974461, 40.727927 ] } },
{ "type": "Feature", "properties": { "nkde_score": 0.3159659711710322 }, "geometry": { "type": "Point", "coordinates": [ -73.908386, 40.87579 ] } },
{ "type": "Feature", "properties": { "nkde_score": 0.77915747338084906 }, "geometry": { "type": "Point", "coordinates": [ -74.000832, 40.713078 ] } },
{ "type": "Feature", "properties": { "nkde_score": 0.85675901954910472 }, "geometry": { "type": "Point", "coordinates": [ -73.998242, 40.760808 ] } },
{ "type": "Feature", "properties": { "nkde_score": 0.71354662021595949 }, "geometry": { "type": "Point", "coordinates": [ -73.996681, 40.766747 ] } },
{ "type": "Feature", "properties": { "nkde_score": 0.79966992916531698 }, "geometry": { "type": "Point", "coordinates": [ -73.995849, 40.716608 ] } },
{ "type": "Feature", "properties": { "nkde_score": 0.30489404549314814 }, "geometry": { "type": "Point", "coordinates": [ -73.949618, 40.834379 ] } },
{ "type": "Feature", "properties": { "nkde_score": 0.36227371402038605 }, "geometry": { "type": "Point", "coordinates": [ -73.937074, 40.828196 ] } }
]
}
