{
"type": "FeatureCollection",
"name": "manhattan_equity_p100",
"crs": { "type": "name", "properties": { "name": "urn:ogc:def:crs:OGC:1.3:CRS84" } },
"features": [
{ "type": "Feature", "properties": { "nkde_score": 0.40450683548724675 }, "geometry": { "type": "Point", "coordinates": [ -73.931324, 40.859329 ] } },
{ "type": "Feature", "properties": { "nkde_score": 0.7644213280087292 }, "geometry": { "type": "Point", "coordinates": [ -73.979793, 40.787981 ] } },
{ "type": "Feature", "properties": { "nkde_score": 0.84264503633885435 }, "geometry": { "type": "Point", "coordinates": [ -73.998456, 40.733931 ] } },
{ "type": "Feature", "properties": { "nkde_score": 0.8923159521058307 }, "geometry": { "type": "Point", "coordinates": [ -73.997317, 40.742376 ] } },
{ "type": "Feature", "properties": { "nkde_score": 0.49486621167866079 }, "geometry": { "type": "Point", "coordinates": [ -73.948711, 40.818771 ] } },
{ "type": "Feature", "properties": { "nkde_score": 0.84775295468876155 }, "geometry": { "type": "Point", "coordinates": [ -73.959166, 40.761712 ] } },
{ "type": "Feature", "properties": { "nkde_score": 0.84159644816287871 }, "geometry": { "type": "Point", "coordinates": [ -73.947121, 40.775932 ] } },
{ "type": "Feature", "properties": { "nkde_score": 0.94759308312113411 }, "geometry": { "type": "Point", "coordinates": [ -73.985164, 40.755285 ] } },
{ "type": "Feature", "properties": { "nkde_score": 0.85773633902665325 }, "geometry": { "type": "Point", "coordinates": [ -73.986406, 40.759962 ] } },
{ "type": "Feature", "properties": { "nkde_score": 0.851208530936018 }, "geometry": { "type": "Point", "coordinates": [ -73.974564, 40.793305 ] } },
{ "type": "Feature", "properties": { "nkde_score": 0.52444711316049408 }, "geometry": { "type": "Point", "coordinates": [ -73.938865, 40.844689 ] } },
{ "type": "Feature", "properties": { "nkde_score": 0.43973815482010253 }, "geometry": { "type": "Point", "coordinates": [ -73.92252, 40.867231 ] } },
{ "type": "Feature", "properties": { "nkde_score": 0.87432762314098644 }, "geometry": { "type": "Point", "coordinates": [ -74.005119, 40.744118 ] } },
{ "type": "Feature", "properties": { "nkde_score": 0.89634887085152759 }, "geometry": { "type": "Point", "coordinates": [ -73.997793, 40.721595 ] } },
{ "type": "Feature", "properties": { "nkde_score": 0.99385659041066254 }, "geometry": { "type": "Point", "coordinates": [ -73.990753, 40.750196 ] } },
{ "type": "Feature", "properties": { "nkde_score": 0.56053830068438848 }, "geometry": { "type": "Point", "coordinates": [ -73.937362, 40.850652 ] } },
{ "type": "Feature", "properties": { "nkde_score": 0.84977620832261902 }, "geometry": { "type": "Point", "coordinates": [ -74.011513, 40.702966 ] } },
{ "type": "Feature", "properties": { "nkde_score": 0.8064165243847129 }, "geometry": { "type": "Point", "coordinates": [ -73.990381, 40.723208 ] } },
{ "type": "Feature", "properties": { "nkde_score": 0.41915588221455286 }, "geometry": { "type": "Point", "coordinates": [ -73.937831, 40.822806 ] } },
{ "type": "Feature", "properties": { "nkde_score": 0.92782499302890864 }, "geometry": { "type": "Point", "coordinates": [ -73.973974, 40.762972 ] } },
{ "type": "Feature", "properties": { "nkde_score": 0.70985819494751834 }, "geometry": { "type": "Point", "coordinates": [ -74.001041, 40.707461 ] } },
{ "type": "Feature", "properties": { "nkde_score": 0.90054714575664419 }, "geometry": { "type": "Point", "coordinates": [ -73.982469, 40.72561 ] } },
{ "type": "Feature", "properties": { "nkde_score": 0.91551048840931948 }, "geometry": { "type": "Point", "coordinates": [ -73.986968, 40.736473 ] } },
{ "type": "Feature", "properties": { "nkde_score": 0.8141946569678602 }, "geometry": { "type": "Point", "coordinates": [ -73.996648, 40.75522 ] } },
{ "type": "Feature", "properties": { "nkde_score": 0.86058442330740259 }, "geometry": { "type": "Point", "coordinates": [ -74.000082, 40.747634 ] } },
{ "type": "Feature", "properties": { "nkde_score": 0.95794346973015976 }, "geometry": { "type": "Point", "coordinates": [ -73.984136, 40.767247 ] } },
{ "type": "Feature", "properties": { "nkde_score": 0.75656111992635922 }, "geometry": { "type": "Point", "coordinates": [ -74.009424, 40.724103 ] } },
{ "type": "Feature", "properties": { "nkde_score": 0.33658825954334742 }, "geometry": { "type": "Point", "coordinates": [ -73.930868, 40.853008 ] } },
{ "type": "Feature", "properties": { "nkde_score": 0.60849225801299911 }, "geometry": { "type": "Point", "coordinates": [ -73.978938, 40.719597 ] } },
{ "type": "Feature", "properties": { "nkde_score": 0.48931347856196589 }, "geometry": { "type": "Point", "coordinates": [ -73.937086, 40.837356 ] } },
{ "type": "Feature", "properties": { "nkde_score": 0.84211581441668071 }, "geometry": { "type": "Point", "coordinates": [ -73.968707, 40.786737 ] } },
{ "type": "Feature", "properties": { "nkde_score": 0.84496703366231007 }, "geometry": { "type": "Point", "coordinates": [ -74.004778, 40.752056 ] } },
{ "type": "Feature", "properties": { "nkde_score": 0.80770011130513497 }, "geometry": { "type": "Point", "coordinates": [ -73.987432, 40.778525 ] } },
{ "type": "Feature", "properties": { "nkde_score": 0.5990353080587707 }, "geometry": { "type": "Point", "coordinates": [ -73.953579, 40.809482 ] } },
{ "type": "Feature", "properties": { "nkde_score": 0.6828971021470378 }, "geometry": { "type": "Point", "coordinates": [ -73.946999, 40.788386 ] } },
{ "type": "Feature", "properties": { "nkde_score": 0.82625132927068834 }, "geometry": { "type": "Point", "coordinates": [ -74.00678, 40.737557 ] } },
{ "type": "Feature", "properties": { "nkde_score": 0.91862231130947025 }, "geometry": { "type": "Point", "coordinates": [ -73.992809, 40.730075 ] } },
{ "type": "Feature", "properties": { "nkde_score": 0.67207249932769209 }, "geometry": { "type": "Point", "coordinates": [ -73.935557, 40.797775 ] } },
{ "type": "Feature", "properties": { "nkde_score": 0.90082884242031602 }, "geometry": { "type": "Point", "coordinates": [ -73.962781, 40.772387 ] } },
{ "type": "Feature", "properties": { "nkde_score": 0.45161925004956377 }, "geometry": { "type": "Point", "coordinates": [ -73.986586, 40.710494 ] } },
{ "type": "Feature", "properties": { "nkde_score": 0.75382269844152017 }, "geometry": { "type": "Point", "coordinates": [ -73.970658, 40.799176 ] } },
{ "type": "Feature", "properties": { "nkde_score": 0.80023031977177783 }, "geometry": { "type": "Point", "coordinates": [ -73.968013, 40.804723 ] } },
{ "type": "Feature", "properties": { "nkde_score": 0.57192370974232765 }, "geometry": { "type": "Point", "coordinates": [ -73.944341, 40.806404 ] } },
{ "type": "Feature", "properties": { "nkde_score": 0.89012505099150818 }, "geometry": { "type": "Point", "coordinates": [ -73.975801, 40.782088 ] } },
{ "type": "Feature", "properties": { "nkde_score": 0.60011021321393698 }, "geometry": { "type": "Point", "coordinates": [ -73.944547, 40.833929 ] } },
{ "type": "Feature", "properties": { "nkde_score": 0.91950229928112392 }, "geometry": { "type": "Point", "coordinates": [ -73.955069, 40.773354 ] } },
{ "type": "Feature", "properties": { "nkde_score": 0.85332255274820301 }, "geometry": { "type": "Point", "coordinates": [ -73.9683, 40.794082 ] } },
{ "type": "Feature", "properties": { "nkde_score": 0.73859172138713203 }, "geometry": { "type": "Point", "coordinates": [ -73.960663, 40.800018 ] } },
{ "type": "Feature", "properties": { "nkde_score": 0.24708900226403041 }, "geometry": { "type": "Point", "coordinates": [ -73.912967, 40.871579 ] } },
{ "type": "Feature", "properties": { "nkde_score": 0.88920667265754194 }, "geometry": { "type": "Point", "coordinates": [ -73.991016, 40.765176 ] } },
{ "type": "Feature", "properties": { "nkde_score": 0.90083948709277628 }, "geometry": { "type": "Point", "coordinates": [ -73.975202, 40.744502 ] } },
{ "type": "Feature", "properties": { "nkde_score": 0.43495709805355459 }, "geometry": { "type": "Point", "coordinates": [ -73.937314, 40.814306 ] } },
{ "type": "Feature", "properties": { "nkde_score": 0.81491275594081347 }, "geometry": { "type": "Point", "coordinates": [ -73.989217, 40.716582 ] } },
{ "type": "Feature", "properties": { "nkde_score": 0.89836556333297035 }, "geometry": { "type": "Point", "coordinates": [ -73.98157, 40.749665 ] } },
{ "type": "Feature", "properties": { "nkde_score": 0.87983822139715762 }, "geometry": { "type": "Point", "coordinates": [ -73.960236, 40.778908 ] } },
{ "type": "Feature", "properties": { "nkde_score": 0.68715284795626796 }, "geometry": { "type": "Point", "coordinates": [ -73.955744, 40.815428 ] } },
{ "type": "Feature", "properties": { "nkde_score": 0.89970620421154857 }, "geometry": { "type": "Point", "coordinates": [ -73.982756, 40.742775 ] } },
{ "type": "Feature", "properties": { "nkde_score": 0.88022352083764266 }, "geometry": { "type": "Point", "coordinates": [ -73.952808, 40.78331 ] } },
{ "type": "Feature", "properties": { "nkde_score": 0.88817481736495851 }, "geometry": { "type": "Point", "coordinates": [ -73.966522, 40.767262 ] } },
{ "type": "Feature", "properties": { "nkde_score": 0.79241999258032958 }, "geometry": { "type": "Point", "coordinates": [ -74.008779, 40.708923 ] } },
{ "type": "Feature", "properties": { "nkde_score": 0.50985705785513513 }, "geometry": { "type": "Point", "coordinates": [ -73.945732, 40.825325 ] } },
{ "type": "Feature", "properties": { "nkde_score": 0.72705921445688615 }, "geometry": { "type": "Point", "coordinates": [ -73.97766, 40.736522 ] } },
{ "type": "Feature", "properties": { "nkde_score": 0.82831032591977416 }, "geometry": { "type": "Point", "coordinates": [ -74.012933, 40.716423 ] } },
{ "type": "Feature", "properties": { "nkde_score": 0.31383353711456685 }, "geometry": { "type": "Point", "coordinates": [ -73.920613, 40.86312 ] } },
{ "type": "Feature", "properties": { "nkde_score": 0.82098395895140286 }, "geometry": { "type": "Point", "coordinates": [ -73.954814, 40.789204 ] } },
{ "type": "Feature", "properties": { "nkde_score": 0.73083161319140644 }, "geometry": { "type": "Point", "coordinates": [ -73.996276, 40.714134 ] } },
{ "type": "Feature", "properties": { "nkde_score": 0.8089374059482054 }, "geometry": { "type": "Point", "coordinates": [ -74.008943, 40.731164 ] } },
{ "type": "Feature", "properties": { "nkde_score": 0.75113165936338133 }, "geometry": { "type": "Point", "coordinates": [ -73.971232, 40.749418 ] } },
{ "type": "Feature", "properties": { "nkde_score": 0.85459680957471407 }, "geometry": { "type": "Point", "coordinates": [ -73.966136, 40.753865 ] } },
{ "type": "Feature", "properties": { "nkde_score": 0.94524416232763175 }, "geometry": { "type": "Point", "coordinates": [ -73.975442, 40.755347 ] } },
{ "type": "Feature", "properties": { "nkde_score": 0.53187010821929481 }, "geometry": { "type": "Point", "coordinates": [ -73.944363, 40.841489 ] } },
{ "type": "Feature", "properties": { "nkde_score": 0.77952392581529761 }, "geometry": { "type": "Point", "coordinates": [ -73.962228, 40.805615 ] } },
{ "type": "Feature", "properties": { "nkde_score": 0.63873603853371286 }, "geometry": { "type": "Point", "coordinates": [ -73.954693, 40.820817 ] } },
{ "type": "Feature", "properties": { "nkde_score": 0.76683983971726466 }, "geometry": { "type": "Point", "coordinates": [ -74.015779, 40.707746 ] } },
{ "type": "Feature", "properties": { "nkde_score": 0.40144233505349941 }, "geometry": { "type": "Point", "coordinates": [ -73.937057, 40.807551 ] } },
{ "type": "Feature", "properties": { "nkde_score": 0.60258155289092108 }, "geometry": { "type": "Point", "coordinates": [ -73.947075, 40.794289 ] } },
{ "type": "Feature", "properties": { "nkde_score": 0.60457075448446418 }, "geometry": { "type": "Point", "coordinates": [ -73.942872, 40.800038 ] } },
{ "type": "Feature", "properties": { "nkde_score": 0.84282645280883384 }, "geometry": { "type": "Point", "coordinates": [ -73.953124, 40.766599 ] } },
{ "type": "Feature", "properties": { "nkde_score": 0.42437574248712207 }, "geometry": { "type": "Point", "coordinates": [ -73.929277, 40.78612 ] } },
{ "type": "Feature", "properties": { "nkde_score": 0.82337500367615335 }, "geometry": { "type": "Point", "coordinates": [ -73.989661, 40.772096 ] } },
{ "type": "Feature", "properties": { "nkde_score": 0.77176471816991299 }, "geometry": { "type": "Point", "coordinates": [ -73.961964, 40.810499 ] } },
{ "type": "Feature", "properties": { "nkde_score": 0.66143510887920165 }, "geometry": { "type": "Point", "coordinates": [ -73.952687, 40.802856 ] } },
{ "type": "Feature", "properties": { "nkde_score": 0.90069248612739705 }, "geometry": { "type": "Point", "coordinates": [ -74.001444, 40.727617 ] } },
{ "type": "Feature", "properties": { "nkde_score": 0.47899618554479445 }, "geometry": { "type": "Point", "coordinates": [ -73.939131, 40.819152 ] } },
{ "type": "Feature", "properties": { "nkde_score": 0.52940222419976024 }, "geometry": { "type": "Point", "coordinates": [ -73.945322, 40.812673 ] } },
{ "type": "Feature", "properties": { "nkde_score": 0.42083947814574607 }, "geometry": { "type": "Point", "coordinates": [ -73.920702, 40.798153 ] } },
{ "type": "Feature", "properties": { "nkde_score": 0.82398713386397049 }, "geometry": { "type": "Point", "coordinates": [ -74.00527, 40.718255 ] } },
{ "type": "Feature", "properties": { "nkde_score": 0.70914136370934411 }, "geometry": { "type": "Point", "coordinates": [ -74.005197, 40.712158 ] } },
{ "type": "Feature", "properties": { "nkde_score": 0.6318786417953538 }, "geometry": { "type": "Point", "coordinates": [ -73.982697, 40.717101 ] } },
{ "type": "Feature", "properties": { "nkde_score": 0.74330209916668066 }, "geometry": { "type": "Point", "coordinates": [ -73.944039, 40.783035 ] } },
{ "type": "Feature", "properties": { "nkde_score": 0.60343437660871291 }, "geometry": { "type": "Point", "coordinates": [ -73.974461, 40.727927 ] } },
{ "type": "Feature", "properties": { "nkde_score": 0.92087871709139169 }, "geometry": { "type": "Point", "coordinates": [ -73.967454, 40.760224 ] } },
{ "type": "Feature", "properties": { "nkde_score": 0.64372712682556066 }, "geometry": { "type": "Point", "coordinates": [ -73.960416, 40.817951 ] } },
{ "type": "Feature", "properties": { "nkde_score": 0.8962676754320642 }, "geometry": { "type": "Point", "coordinates": [ -73.988577, 40.742797 ] } },
{ "type": "Feature", "properties": { "nkde_score": 0.86675835990364891 }, "geometry": { "type": "Point", "coordinates": [ -73.980819, 40.774099 ] } },
{ "type": "Feature", "properties": { "nkde_score": 0.60835080360434157 }, "geometry": { "type": "Point", "coordinates": [ -73.934337, 40.801371 ] } },
{ "type": "Feature", "properties": { "nkde_score": 0.85675901954910472 }, "geometry": { "type": "Point", "coordinates": [ -73.998242, 40.760808 ] } },
{ "type": "Feature", "properties": { "nkde_score": 0.8699477031104289 }, "geometry": { "type": "Point", "coordinates": [ -73.982683, 40.781608 ] } },
{ "type": "Feature", "properties": { "nkde_score": 0.53824588718349253 }, "geometry": { "type": "Point", "coordinates": [ -73.950822, 40.828281 ] } },
{ "type": "Feature", "properties": { "nkde_score": 0.36227371402038605 }, "geometry": { "type": "Point", "coordinates": [ -73.937074, 40.828196 ] } }
]
}
