{
"type": "FeatureCollection",
"name": "manhattan_base_p150",
"crs": { "type": "name", "properties": { "name": "urn:ogc:def:crs:OGC:1.3:CRS84" } },
"features": [
{ "type": "Feature", "properties": { "nkde_score": 0.61987456284932807 }, "geometry": { "type": "Point", "coordinates": [ -73.93341, 40.802694 ] } },
{ "type": "Feature", "properties": { "nkde_score": 0.55260633512052815 }, "geometry": { "type": "Point", "coordinates": [ -73.933073, 40.795023 ] } },
{ "type": "Feature", "properties": { "nkde_score": 0.84851525341639 }, "geometry": { "type": "Point", "coordinates": [ -73.967221, 40.79274 ] } },
{ "type": "Feature", "properties": { "nkde_score": 0.56579251162138033 }, "geometry": { "type": "Point", "coordinates": [ -73.95949, 40.820262 ] } },
{ "type": "Feature", "properties": { "nkde_score": 0.37848085951334171 }, "geometry": { "type": "Point", "coordinates": [ -73.939691, 40.8312 ] } },
{ "type": "Feature", "properties": { "nkde_score": 0.1468090356919253 }, "geometry": { "type": "Point", "coordinates": [ -73.935389, 40.832733 ] } },
{ "type": "Feature", "properties": { "nkde_score": 0.8923159521058307 }, "geometry": { "type": "Point", "coordinates": [ -73.997317, 40.742376 ] } },
{ "type": "Feature", "properties": { "nkde_score": 0.4752920709702616 }, "geometry": { "type": "Point", "coordinates": [ -73.94974, 40.817923 ] } },
{ "type": "Feature", "properties": { "nkde_score": 0.33787201107757692 }, "geometry": { "type": "Point", "coordinates": [ -73.90863, 40.875342 ] } },
{ "type": "Feature", "properties": { "nkde_score": 0.76292874393131505 }, "geometry": { "type": "Point", "coordinates": [ -73.951866, 40.769451 ] } },
{ "type": "Feature", "properties": { "nkde_score": 0.39357266956431891 }, "geometry": { "type": "Point", "coordinates": [ -73.9372, 40.856559 ] } },
{ "type": "Feature", "properties": { "nkde_score": 0.8962676754320642 }, "geometry": { "type": "Point", "coordinates": [ -73.989107, 40.742219 ] } },
{ "type": "Feature", "properties": { "nkde_score": 0.87429379890948955 }, "geometry": { "type": "Point", "coordinates": [ -73.987344, 40.752887 ] } },
{ "type": "Feature", "properties": { "nkde_score": 0.85773633902665325 }, "geometry": { "type": "Point", "coordinates": [ -73.986406, 40.759962 ] } },
{ "type": "Feature", "properties": { "nkde_score": 0.82504357281769791 }, "geometry": { "type": "Point", "coordinates": [ -74.001881, 40.719402 ] } },
{ "type": "Feature", "properties": { "nkde_score": 0.94529929752581909 }, "geometry": { "type": "Point", "coordinates": [ -73.990741, 40.734788 ] } },
{ "type": "Feature", "properties": { "nkde_score": 0.90348812883929108 }, "geometry": { "type": "Point", "coordinates": [ -73.98226, 40.771435 ] } },
{ "type": "Feature", "properties": { "nkde_score": 0.87239306517875082 }, "geometry": { "type": "Point", "coordinates": [ -73.977315, 40.789541 ] } },
{ "type": "Feature", "properties": { "nkde_score": 0.851208530936018 }, "geometry": { "type": "Point", "coordinates": [ -73.974564, 40.793305 ] } },
{ "type": "Feature", "properties": { "nkde_score": 0.83106418999499387 }, "geometry": { "type": "Point", "coordinates": [ -73.970822, 40.798426 ] } },
{ "type": "Feature", "properties": { "nkde_score": 0.81369431920726787 }, "geometry": { "type": "Point", "coordinates": [ -73.967906, 40.802252 ] } },
{ "type": "Feature", "properties": { "nkde_score": 0.6405439934053172 }, "geometry": { "type": "Point", "coordinates": [ -73.942461, 40.839872 ] } },
{ "type": "Feature", "properties": { "nkde_score": 0.53267241041103641 }, "geometry": { "type": "Point", "coordinates": [ -73.937062, 40.848952 ] } },
{ "type": "Feature", "properties": { "nkde_score": 0.86009375824934131 }, "geometry": { "type": "Point", "coordinates": [ -73.970848, 40.766623 ] } },
{ "type": "Feature", "properties": { "nkde_score": 0.99385659041066254 }, "geometry": { "type": "Point", "coordinates": [ -73.990753, 40.750196 ] } },
{ "type": "Feature", "properties": { "nkde_score": 0.94655061313776634 }, "geometry": { "type": "Point", "coordinates": [ -73.980328, 40.762304 ] } },
{ "type": "Feature", "properties": { "nkde_score": 0.69572622084657332 }, "geometry": { "type": "Point", "coordinates": [ -73.94655, 40.789001 ] } },
{ "type": "Feature", "properties": { "nkde_score": 0.7908949672810679 }, "geometry": { "type": "Point", "coordinates": [ -74.00382, 40.753277 ] } },
{ "type": "Feature", "properties": { "nkde_score": 0.62884466012881524 }, "geometry": { "type": "Point", "coordinates": [ -74.00248, 40.755125 ] } },
{ "type": "Feature", "properties": { "nkde_score": 0.79411368340963062 }, "geometry": { "type": "Point", "coordinates": [ -73.989354, 40.768574 ] } },
{ "type": "Feature", "properties": { "nkde_score": 0.52094617365439877 }, "geometry": { "type": "Point", "coordinates": [ -73.974116, 40.723214 ] } },
{ "type": "Feature", "properties": { "nkde_score": 0.41233993054658169 }, "geometry": { "type": "Point", "coordinates": [ -73.975329, 40.717759 ] } },
{ "type": "Feature", "properties": { "nkde_score": 0.86338530522735324 }, "geometry": { "type": "Point", "coordinates": [ -73.987714, 40.775373 ] } },
{ "type": "Feature", "properties": { "nkde_score": 0.87345841038960292 }, "geometry": { "type": "Point", "coordinates": [ -73.985445, 40.778477 ] } },
{ "type": "Feature", "properties": { "nkde_score": 0.88313915287330447 }, "geometry": { "type": "Point", "coordinates": [ -73.982434, 40.784884 ] } },
{ "type": "Feature", "properties": { "nkde_score": 0.76055193533587506 }, "geometry": { "type": "Point", "coordinates": [ -73.961047, 40.801859 ] } },
{ "type": "Feature", "properties": { "nkde_score": 0.60996797561506244 }, "geometry": { "type": "Point", "coordinates": [ -73.953773, 40.801221 ] } },
{ "type": "Feature", "properties": { "nkde_score": 0.86158478191527865 }, "geometry": { "type": "Point", "coordinates": [ -74.002973, 40.730873 ] } },
{ "type": "Feature", "properties": { "nkde_score": 0.81696850116895214 }, "geometry": { "type": "Point", "coordinates": [ -74.013819, 40.717619 ] } },
{ "type": "Feature", "properties": { "nkde_score": 0.86889875437434994 }, "geometry": { "type": "Point", "coordinates": [ -73.969465, 40.766861 ] } },
{ "type": "Feature", "properties": { "nkde_score": 0.89729336554170347 }, "geometry": { "type": "Point", "coordinates": [ -73.988291, 40.720212 ] } },
{ "type": "Feature", "properties": { "nkde_score": 0.88998343358560694 }, "geometry": { "type": "Point", "coordinates": [ -73.998247, 40.722347 ] } },
{ "type": "Feature", "properties": { "nkde_score": 0.94490929433805537 }, "geometry": { "type": "Point", "coordinates": [ -73.979779, 40.75214 ] } },
{ "type": "Feature", "properties": { "nkde_score": 0.41846155080420799 }, "geometry": { "type": "Point", "coordinates": [ -73.929783, 40.865997 ] } },
{ "type": "Feature", "properties": { "nkde_score": 0.86647065720344796 }, "geometry": { "type": "Point", "coordinates": [ -73.972811, 40.783382 ] } },
{ "type": "Feature", "properties": { "nkde_score": 0.55500550352800893 }, "geometry": { "type": "Point", "coordinates": [ -73.94423, 40.819674 ] } },
{ "type": "Feature", "properties": { "nkde_score": 0.8960308764964855 }, "geometry": { "type": "Point", "coordinates": [ -73.986406, 40.728068 ] } },
{ "type": "Feature", "properties": { "nkde_score": 0.83469544921763439 }, "geometry": { "type": "Point", "coordinates": [ -74.008247, 40.707088 ] } },
{ "type": "Feature", "properties": { "nkde_score": 0.87843902431579579 }, "geometry": { "type": "Point", "coordinates": [ -73.995071, 40.747157 ] } },
{ "type": "Feature", "properties": { "nkde_score": 0.40453648500735917 }, "geometry": { "type": "Point", "coordinates": [ -73.983304, 40.710815 ] } },
{ "type": "Feature", "properties": { "nkde_score": 0.85104600049684676 }, "geometry": { "type": "Point", "coordinates": [ -73.977068, 40.779239 ] } },
{ "type": "Feature", "properties": { "nkde_score": 0.7641813798667908 }, "geometry": { "type": "Point", "coordinates": [ -73.962377, 40.794859 ] } },
{ "type": "Feature", "properties": { "nkde_score": 0.86058442330740259 }, "geometry": { "type": "Point", "coordinates": [ -74.000082, 40.747634 ] } },
{ "type": "Feature", "properties": { "nkde_score": 0.63170800492347667 }, "geometry": { "type": "Point", "coordinates": [ -73.955221, 40.806885 ] } },
{ "type": "Feature", "properties": { "nkde_score": 0.53198296745247631 }, "geometry": { "type": "Point", "coordinates": [ -73.948419, 40.813938 ] } },
{ "type": "Feature", "properties": { "nkde_score": 0.45645304325885866 }, "geometry": { "type": "Point", "coordinates": [ -73.939149, 40.826626 ] } },
{ "type": "Feature", "properties": { "nkde_score": 0.84950215063846513 }, "geometry": { "type": "Point", "coordinates": [ -73.949218, 40.779342 ] } },
{ "type": "Feature", "properties": { "nkde_score": 0.83067542555271778 }, "geometry": { "type": "Point", "coordinates": [ -73.967809, 40.787995 ] } },
{ "type": "Feature", "properties": { "nkde_score": 0.42663785778953744 }, "geometry": { "type": "Point", "coordinates": [ -73.934678, 40.817277 ] } },
{ "type": "Feature", "properties": { "nkde_score": 0.66811219920723164 }, "geometry": { "type": "Point", "coordinates": [ -73.941147, 40.805063 ] } },
{ "type": "Feature", "properties": { "nkde_score": 0.89737391399181943 }, "geometry": { "type": "Point", "coordinates": [ -73.961366, 40.770967 ] } },
{ "type": "Feature", "properties": { "nkde_score": 0.56526995903126642 }, "geometry": { "type": "Point", "coordinates": [ -73.946367, 40.80644 ] } },
{ "type": "Feature", "properties": { "nkde_score": 0.56231707063088898 }, "geometry": { "type": "Point", "coordinates": [ -73.950619, 40.808231 ] } },
{ "type": "Feature", "properties": { "nkde_score": 0.58048836959017369 }, "geometry": { "type": "Point", "coordinates": [ -73.950448, 40.828947 ] } },
{ "type": "Feature", "properties": { "nkde_score": 0.91862231130947025 }, "geometry": { "type": "Point", "coordinates": [ -73.992809, 40.730075 ] } },
{ "type": "Feature", "properties": { "nkde_score": 0.84230342456953433 }, "geometry": { "type": "Point", "coordinates": [ -73.989259, 40.763623 ] } },
{ "type": "Feature", "properties": { "nkde_score": 0.56908525170225222 }, "geometry": { "type": "Point", "coordinates": [ -74.002743, 40.70647 ] } },
{ "type": "Feature", "properties": { "nkde_score": 0.34475242804822381 }, "geometry": { "type": "Point", "coordinates": [ -73.961865, 40.814051 ] } },
{ "type": "Feature", "properties": { "nkde_score": 0.58557460757760482 }, "geometry": { "type": "Point", "coordinates": [ -73.956747, 40.821694 ] } },
{ "type": "Feature", "properties": { "nkde_score": 0.41214708476500828 }, "geometry": { "type": "Point", "coordinates": [ -73.937591, 40.836708 ] } },
{ "type": "Feature", "properties": { "nkde_score": 0.53648844749989877 }, "geometry": { "type": "Point", "coordinates": [ -73.936672, 40.850459 ] } },
{ "type": "Feature", "properties": { "nkde_score": 0.47415338877633745 }, "geometry": { "type": "Point", "coordinates": [ -73.993398, 40.709587 ] } },
{ "type": "Feature", "properties": { "nkde_score": 0.62064549604349339 }, "geometry": { "type": "Point", "coordinates": [ -73.935971, 40.801236 ] } },
{ "type": "Feature", "properties": { "nkde_score": 0.92759200229338634 }, "geometry": { "type": "Point", "coordinates": [ -73.97847, 40.74589 ] } },
{ "type": "Feature", "properties": { "nkde_score": 0.75633684834505999 }, "geometry": { "type": "Point", "coordinates": [ -74.003284, 40.714513 ] } },
{ "type": "Feature", "properties": { "nkde_score": 0.37487644493799877 }, "geometry": { "type": "Point", "coordinates": [ -73.92444, 40.862939 ] } },
{ "type": "Feature", "properties": { "nkde_score": 0.90003423244018554 }, "geometry": { "type": "Point", "coordinates": [ -73.985609, 40.74639 ] } },
{ "type": "Feature", "properties": { "nkde_score": 0.63893661503726362 }, "geometry": { "type": "Point", "coordinates": [ -73.944841, 40.799978 ] } },
{ "type": "Feature", "properties": { "nkde_score": 0.85537526156910026 }, "geometry": { "type": "Point", "coordinates": [ -73.977414, 40.7403 ] } },
{ "type": "Feature", "properties": { "nkde_score": 0.90023207290902407 }, "geometry": { "type": "Point", "coordinates": [ -73.982913, 40.742036 ] } },
{ "type": "Feature", "properties": { "nkde_score": 0.60637261290435185 }, "geometry": { "type": "Point", "coordinates": [ -73.942226, 40.795548 ] } },
{ "type": "Feature", "properties": { "nkde_score": 0.62303680343032264 }, "geometry": { "type": "Point", "coordinates": [ -73.939189, 40.841626 ] } },
{ "type": "Feature", "properties": { "nkde_score": 0.85031953035989338 }, "geometry": { "type": "Point", "coordinates": [ -73.949933, 40.782098 ] } },
{ "type": "Feature", "properties": { "nkde_score": 0.86347398853372537 }, "geometry": { "type": "Point", "coordinates": [ -73.997592, 40.735105 ] } },
{ "type": "Feature", "properties": { "nkde_score": 0.92517250735683032 }, "geometry": { "type": "Point", "coordinates": [ -73.970776, 40.755833 ] } },
{ "type": "Feature", "properties": { "nkde_score": 0.90981463922329631 }, "geometry": { "type": "Point", "coordinates": [ -73.965777, 40.760404 ] } },
{ "type": "Feature", "properties": { "nkde_score": 0.32784025836263131 }, "geometry": { "type": "Point", "coordinates": [ -73.928692, 40.853724 ] } },
{ "type": "Feature", "properties": { "nkde_score": 0.7840902576097285 }, "geometry": { "type": "Point", "coordinates": [ -73.974601, 40.733123 ] } },
{ "type": "Feature", "properties": { "nkde_score": 0.84812445941086945 }, "geometry": { "type": "Point", "coordinates": [ -73.945268, 40.774252 ] } },
{ "type": "Feature", "properties": { "nkde_score": 0.22020419884704542 }, "geometry": { "type": "Point", "coordinates": [ -73.932509, 40.846234 ] } },
{ "type": "Feature", "properties": { "nkde_score": 0.90804476154911218 }, "geometry": { "type": "Point", "coordinates": [ -73.978557, 40.756659 ] } },
{ "type": "Feature", "properties": { "nkde_score": 0.83177437617122152 }, "geometry": { "type": "Point", "coordinates": [ -73.995682, 40.763868 ] } },
{ "type": "Feature", "properties": { "nkde_score": 0.83016414837173991 }, "geometry": { "type": "Point", "coordinates": [ -74.004569, 40.734678 ] } },
{ "type": "Feature", "properties": { "nkde_score": 0.69505040226804904 }, "geometry": { "type": "Point", "coordinates": [ -74.00992, 40.733879 ] } },
{ "type": "Feature", "properties": { "nkde_score": 0.89727490001077737 }, "geometry": { "type": "Point", "coordinates": [ -73.952983, 40.774194 ] } },
{ "type": "Feature", "properties": { "nkde_score": 0.77311086995596046 }, "geometry": { "type": "Point", "coordinates": [ -73.964811, 40.753314 ] } },
{ "type": "Feature", "properties": { "nkde_score": 0.79695315533614774 }, "geometry": { "type": "Point", "coordinates": [ -73.978608, 40.722417 ] } },
{ "type": "Feature", "properties": { "nkde_score": 0.57190719565446335 }, "geometry": { "type": "Point", "coordinates": [ -73.940781, 40.814081 ] } },
{ "type": "Feature", "properties": { "nkde_score": 0.34818147755841977 }, "geometry": { "type": "Point", "coordinates": [ -73.92032, 40.869001 ] } },
{ "type": "Feature", "properties": { "nkde_score": 0.41355564050753402 }, "geometry": { "type": "Point", "coordinates": [ -73.930948, 40.857873 ] } },
{ "type": "Feature", "properties": { "nkde_score": 0.65530737161983055 }, "geometry": { "type": "Point", "coordinates": [ -73.957026, 40.814247 ] } },
{ "type": "Feature", "properties": { "nkde_score": 0.84879679996189517 }, "geometry": { "type": "Point", "coordinates": [ -73.963878, 40.774513 ] } },
{ "type": "Feature", "properties": { "nkde_score": 0.31383353711456685 }, "geometry": { "type": "Point", "coordinates": [ -73.920296, 40.862611 ] } },
{ "type": "Feature", "properties": { "nkde_score": 0.85505116370411482 }, "geometry": { "type": "Point", "coordinates": [ -73.98157, 40.734957 ] } },
{ "type": "Feature", "properties": { "nkde_score": 0.77206257936119804 }, "geometry": { "type": "Point", "coordinates": [ -73.971309, 40.744542 ] } },
{ "type": "Feature", "properties": { "nkde_score": 0.83152186283005847 }, "geometry": { "type": "Point", "coordinates": [ -73.961165, 40.758455 ] } },
{ "type": "Feature", "properties": { "nkde_score": 0.93359194384198885 }, "geometry": { "type": "Point", "coordinates": [ -73.970173, 40.762252 ] } },
{ "type": "Feature", "properties": { "nkde_score": 0.14207008431502874 }, "geometry": { "type": "Point", "coordinates": [ -73.943024, 40.849158 ] } },
{ "type": "Feature", "properties": { "nkde_score": 0.64405565795478248 }, "geometry": { "type": "Point", "coordinates": [ -73.994214, 40.771533 ] } },
{ "type": "Feature", "properties": { "nkde_score": 0.73266736545265121 }, "geometry": { "type": "Point", "coordinates": [ -74.00767, 40.747959 ] } },
{ "type": "Feature", "properties": { "nkde_score": 0.85338020659985903 }, "geometry": { "type": "Point", "coordinates": [ -74.008134, 40.711988 ] } },
{ "type": "Feature", "properties": { "nkde_score": 0.30377094323439402 }, "geometry": { "type": "Point", "coordinates": [ -73.919044, 40.796833 ] } },
{ "type": "Feature", "properties": { "nkde_score": 0.54736213471063722 }, "geometry": { "type": "Point", "coordinates": [ -73.999442, 40.70829 ] } },
{ "type": "Feature", "properties": { "nkde_score": 0.80441311752800326 }, "geometry": { "type": "Point", "coordinates": [ -74.013783, 40.702407 ] } },
{ "type": "Feature", "properties": { "nkde_score": 0.41688274605240933 }, "geometry": { "type": "Point", "coordinates": [ -73.937459, 40.789589 ] } },
{ "type": "Feature", "properties": { "nkde_score": 0.80850690930186564 }, "geometry": { "type": "Point", "coordinates": [ -73.963988, 40.808065 ] } },
{ "type": "Feature", "properties": { "nkde_score": 0.61911590669877881 }, "geometry": { "type": "Point", "coordinates": [ -73.98991, 40.71197 ] } },
{ "type": "Feature", "properties": { "nkde_score": 0.65896165144013752 }, "geometry": { "type": "Point", "coordinates": [ -73.954067, 40.821358 ] } },
{ "type": "Feature", "properties": { "nkde_score": 0.59660604236939041 }, "geometry": { "type": "Point", "coordinates": [ -73.94734, 40.826 ] } },
{ "type": "Feature", "properties": { "nkde_score": 0.76683983971726466 }, "geometry": { "type": "Point", "coordinates": [ -74.015779, 40.707746 ] } },
{ "type": "Feature", "properties": { "nkde_score": 0.65041010965002166 }, "geometry": { "type": "Point", "coordinates": [ -73.974657, 40.73615 ] } },
{ "type": "Feature", "properties": { "nkde_score": 0.44947320790594658 }, "geometry": { "type": "Point", "coordinates": [ -73.936605, 40.808177 ] } },
{ "type": "Feature", "properties": { "nkde_score": 0.88318421534825053 }, "geometry": { "type": "Point", "coordinates": [ -73.959063, 40.780068 ] } },
{ "type": "Feature", "properties": { "nkde_score": 0.85784467722658952 }, "geometry": { "type": "Point", "coordinates": [ -73.954408, 40.786449 ] } },
{ "type": "Feature", "properties": { "nkde_score": 0.65402697250021269 }, "geometry": { "type": "Point", "coordinates": [ -73.949277, 40.793541 ] } },
{ "type": "Feature", "properties": { "nkde_score": 0.42437574248712207 }, "geometry": { "type": "Point", "coordinates": [ -73.929277, 40.78612 ] } },
{ "type": "Feature", "properties": { "nkde_score": 0.76667849138014132 }, "geometry": { "type": "Point", "coordinates": [ -73.957958, 40.808029 ] } },
{ "type": "Feature", "properties": { "nkde_score": 0.31652411617915555 }, "geometry": { "type": "Point", "coordinates": [ -73.914686, 40.870767 ] } },
{ "type": "Feature", "properties": { "nkde_score": 0.87733508155208917 }, "geometry": { "type": "Point", "coordinates": [ -73.993483, 40.721625 ] } },
{ "type": "Feature", "properties": { "nkde_score": 0.85833661765111202 }, "geometry": { "type": "Point", "coordinates": [ -73.999944, 40.725568 ] } },
{ "type": "Feature", "properties": { "nkde_score": 0.27070880882516074 }, "geometry": { "type": "Point", "coordinates": [ -73.921218, 40.798827 ] } },
{ "type": "Feature", "properties": { "nkde_score": 0.47544065455880125 }, "geometry": { "type": "Point", "coordinates": [ -73.937728, 40.821076 ] } },
{ "type": "Feature", "properties": { "nkde_score": 0.37733121756289673 }, "geometry": { "type": "Point", "coordinates": [ -73.932782, 40.782891 ] } },
{ "type": "Feature", "properties": { "nkde_score": 0.67345760005935762 }, "geometry": { "type": "Point", "coordinates": [ -73.942942, 40.784087 ] } },
{ "type": "Feature", "properties": { "nkde_score": 0.74176865432956718 }, "geometry": { "type": "Point", "coordinates": [ -74.00795, 40.723661 ] } },
{ "type": "Feature", "properties": { "nkde_score": 0.6318786417953538 }, "geometry": { "type": "Point", "coordinates": [ -73.982697, 40.717101 ] } },
{ "type": "Feature", "properties": { "nkde_score": 0.79966992916531698 }, "geometry": { "type": "Point", "coordinates": [ -73.99545, 40.716016 ] } },
{ "type": "Feature", "properties": { "nkde_score": 0.95227510179867259 }, "geometry": { "type": "Point", "coordinates": [ -73.980689, 40.764902 ] } },
{ "type": "Feature", "properties": { "nkde_score": 0.91154245970489933 }, "geometry": { "type": "Point", "coordinates": [ -74.005913, 40.740291 ] } },
{ "type": "Feature", "properties": { "nkde_score": 0.60343437660871291 }, "geometry": { "type": "Point", "coordinates": [ -73.974461, 40.727927 ] } },
{ "type": "Feature", "properties": { "nkde_score": 0.86777858320853596 }, "geometry": { "type": "Point", "coordinates": [ -73.961826, 40.765138 ] } },
{ "type": "Feature", "properties": { "nkde_score": 0.82381281394327333 }, "geometry": { "type": "Point", "coordinates": [ -74.010352, 40.718806 ] } },
{ "type": "Feature", "properties": { "nkde_score": 0.77915747338084906 }, "geometry": { "type": "Point", "coordinates": [ -74.000832, 40.713078 ] } },
{ "type": "Feature", "properties": { "nkde_score": 0.87405095928070586 }, "geometry": { "type": "Point", "coordinates": [ -73.980005, 40.772948 ] } },
{ "type": "Feature", "properties": { "nkde_score": 0.85675901954910472 }, "geometry": { "type": "Point", "coordinates": [ -73.998242, 40.760808 ] } },
{ "type": "Feature", "properties": { "nkde_score": 0.79828828001466134 }, "geometry": { "type": "Point", "coordinates": [ -73.994994, 40.755324 ] } },
{ "type": "Feature", "properties": { "nkde_score": 0.88534336381026124 }, "geometry": { "type": "Point", "coordinates": [ -73.954056, 40.76527 ] } },
{ "type": "Feature", "properties": { "nkde_score": 0.58385222414321658 }, "geometry": { "type": "Point", "coordinates": [ -73.945513, 40.835029 ] } },
{ "type": "Feature", "properties": { "nkde_score": 0.91375078040313129 }, "geometry": { "type": "Point", "coordinates": [ -73.972261, 40.751542 ] } },
{ "type": "Feature", "properties": { "nkde_score": 0.30489404549314814 }, "geometry": { "type": "Point", "coordinates": [ -73.949618, 40.834379 ] } }
]
}
