{
"type": "FeatureCollection",
"name": "manhattan_equity_p75",
"crs": { "type": "name", "properties": { "name": "urn:ogc:def:crs:OGC:1.3:CRS84" } },
"features": [
{ "type": "Feature", "properties": { "nkde_score": 0.7644213280087292 }, "geometry": { "type": "Point", "coordinates": [ -73.979793, 40.787981 ] } },
{ "type": "Feature", "properties": { "nkde_score": 0.84264503633885435 }, "geometry": { "type": "Point", "coordinates": [ -73.998456, 40.733931 ] } },
{ "type": "Feature", "properties": { "nkde_score": 0.8923159521058307 }, "geometry": { "type": "Point", "coordinates": [ -73.997317, 40.742376 ] } },
{ "type": "Feature", "properties": { "nkde_score": 0.72122838322075578 }, "geometry": { "type": "Point", "coordinates": [ -73.960073, 40.760446 ] } },
{ "type": "Feature", "properties": { "nkde_score": 0.92858200013470027 }, "geometry": { "type": "Point", "coordinates": [ -73.954244, 40.766183 ] } },
{ "type": "Feature", "properties": { "nkde_score": 0.86902850690138189 }, "geometry": { "type": "Point", "coordinates": [ -73.948549, 40.773975 ] } },
{ "type": "Feature", "properties": { "nkde_score": 0.85773633902665325 }, "geometry": { "type": "Point", "coordinates": [ -73.986406, 40.759962 ] } },
{ "type": "Feature", "properties": { "nkde_score": 0.91380368178540472 }, "geometry": { "type": "Point", "coordinates": [ -73.983313, 40.779322 ] } },
{ "type": "Feature", "properties": { "nkde_score": 0.851208530936018 }, "geometry": { "type": "Point", "coordinates": [ -73.974564, 40.793305 ] } },
{ "type": "Feature", "properties": { "nkde_score": 0.61340715449552963 }, "geometry": { "type": "Point", "coordinates": [ -73.956582, 40.818229 ] } },
{ "type": "Feature", "properties": { "nkde_score": 0.5324932125918016 }, "geometry": { "type": "Point", "coordinates": [ -73.938228, 40.846944 ] } },
{ "type": "Feature", "properties": { "nkde_score": 0.83271144170203937 }, "geometry": { "type": "Point", "coordinates": [ -74.003077, 40.728397 ] } },
{ "type": "Feature", "properties": { "nkde_score": 0.84319535746712981 }, "geometry": { "type": "Point", "coordinates": [ -74.009062, 40.704047 ] } },
{ "type": "Feature", "properties": { "nkde_score": 0.88998343358560694 }, "geometry": { "type": "Point", "coordinates": [ -73.998247, 40.722347 ] } },
{ "type": "Feature", "properties": { "nkde_score": 0.94389301726868569 }, "geometry": { "type": "Point", "coordinates": [ -73.970671, 40.761578 ] } },
{ "type": "Feature", "properties": { "nkde_score": 0.94726176903024595 }, "geometry": { "type": "Point", "coordinates": [ -73.977408, 40.755362 ] } },
{ "type": "Feature", "properties": { "nkde_score": 0.90054714575664419 }, "geometry": { "type": "Point", "coordinates": [ -73.982469, 40.72561 ] } },
{ "type": "Feature", "properties": { "nkde_score": 0.5216071200681569 }, "geometry": { "type": "Point", "coordinates": [ -73.945624, 40.827733 ] } },
{ "type": "Feature", "properties": { "nkde_score": 0.9039392145933024 }, "geometry": { "type": "Point", "coordinates": [ -73.987745, 40.744067 ] } },
{ "type": "Feature", "properties": { "nkde_score": 0.89795626929944372 }, "geometry": { "type": "Point", "coordinates": [ -73.989996, 40.752418 ] } },
{ "type": "Feature", "properties": { "nkde_score": 0.55485780009779373 }, "geometry": { "type": "Point", "coordinates": [ -73.944503, 40.81477 ] } },
{ "type": "Feature", "properties": { "nkde_score": 0.41884817385030698 }, "geometry": { "type": "Point", "coordinates": [ -73.938237, 40.827877 ] } },
{ "type": "Feature", "properties": { "nkde_score": 0.44728035372795705 }, "geometry": { "type": "Point", "coordinates": [ -73.932228, 40.853582 ] } },
{ "type": "Feature", "properties": { "nkde_score": 0.88414403963041843 }, "geometry": { "type": "Point", "coordinates": [ -74.00561, 40.73814 ] } },
{ "type": "Feature", "properties": { "nkde_score": 0.84696349997742382 }, "geometry": { "type": "Point", "coordinates": [ -73.966109, 40.805595 ] } },
{ "type": "Feature", "properties": { "nkde_score": 0.94435953553287777 }, "geometry": { "type": "Point", "coordinates": [ -73.988542, 40.737136 ] } },
{ "type": "Feature", "properties": { "nkde_score": 0.46959915013691284 }, "geometry": { "type": "Point", "coordinates": [ -73.988181, 40.711394 ] } },
{ "type": "Feature", "properties": { "nkde_score": 0.88965382359406109 }, "geometry": { "type": "Point", "coordinates": [ -74.000088, 40.745988 ] } },
{ "type": "Feature", "properties": { "nkde_score": 0.4103756857809806 }, "geometry": { "type": "Point", "coordinates": [ -73.922499, 40.866065 ] } },
{ "type": "Feature", "properties": { "nkde_score": 0.84211581441668071 }, "geometry": { "type": "Point", "coordinates": [ -73.968707, 40.786737 ] } },
{ "type": "Feature", "properties": { "nkde_score": 0.54573073524189353 }, "geometry": { "type": "Point", "coordinates": [ -73.939495, 40.810207 ] } },
{ "type": "Feature", "properties": { "nkde_score": 0.91862231130947025 }, "geometry": { "type": "Point", "coordinates": [ -73.992809, 40.730075 ] } },
{ "type": "Feature", "properties": { "nkde_score": 0.52523045654292366 }, "geometry": { "type": "Point", "coordinates": [ -73.945157, 40.820874 ] } },
{ "type": "Feature", "properties": { "nkde_score": 0.49154263589777958 }, "geometry": { "type": "Point", "coordinates": [ -73.938167, 40.817937 ] } },
{ "type": "Feature", "properties": { "nkde_score": 0.75382269844152017 }, "geometry": { "type": "Point", "coordinates": [ -73.970658, 40.799176 ] } },
{ "type": "Feature", "properties": { "nkde_score": 0.89012505099150818 }, "geometry": { "type": "Point", "coordinates": [ -73.975801, 40.782088 ] } },
{ "type": "Feature", "properties": { "nkde_score": 0.87715967739696166 }, "geometry": { "type": "Point", "coordinates": [ -73.980349, 40.740953 ] } },
{ "type": "Feature", "properties": { "nkde_score": 0.84555262607212067 }, "geometry": { "type": "Point", "coordinates": [ -73.945827, 40.783717 ] } },
{ "type": "Feature", "properties": { "nkde_score": 0.85332255274820301 }, "geometry": { "type": "Point", "coordinates": [ -73.9683, 40.794082 ] } },
{ "type": "Feature", "properties": { "nkde_score": 0.73859172138713203 }, "geometry": { "type": "Point", "coordinates": [ -73.960663, 40.800018 ] } },
{ "type": "Feature", "properties": { "nkde_score": 0.65831463521441913 }, "geometry": { "type": "Point", "coordinates": [ -73.935829, 40.803707 ] } },
{ "type": "Feature", "properties": { "nkde_score": 0.55008830754758187 }, "geometry": { "type": "Point", "coordinates": [ -73.973331, 40.743712 ] } },
{ "type": "Feature", "properties": { "nkde_score": 0.78367287511095307 }, "geometry": { "type": "Point", "coordinates": [ -74.015202, 40.708492 ] } },
{ "type": "Feature", "properties": { "nkde_score": 0.81566003122379072 }, "geometry": { "type": "Point", "coordinates": [ -73.999634, 40.753919 ] } },
{ "type": "Feature", "properties": { "nkde_score": 0.62375814995207124 }, "geometry": { "type": "Point", "coordinates": [ -73.954363, 40.803113 ] } },
{ "type": "Feature", "properties": { "nkde_score": 0.67620520165158915 }, "geometry": { "type": "Point", "coordinates": [ -73.948043, 40.792105 ] } },
{ "type": "Feature", "properties": { "nkde_score": 0.88817481736495851 }, "geometry": { "type": "Point", "coordinates": [ -73.966522, 40.767262 ] } },
{ "type": "Feature", "properties": { "nkde_score": 0.74467068546155935 }, "geometry": { "type": "Point", "coordinates": [ -73.975136, 40.735456 ] } },
{ "type": "Feature", "properties": { "nkde_score": 0.82831032591977416 }, "geometry": { "type": "Point", "coordinates": [ -74.012933, 40.716423 ] } },
{ "type": "Feature", "properties": { "nkde_score": 0.92517250735683032 }, "geometry": { "type": "Point", "coordinates": [ -73.969514, 40.7553 ] } },
{ "type": "Feature", "properties": { "nkde_score": 0.75113165936338133 }, "geometry": { "type": "Point", "coordinates": [ -73.971232, 40.749418 ] } },
{ "type": "Feature", "properties": { "nkde_score": 0.86787463521220876 }, "geometry": { "type": "Point", "coordinates": [ -73.952444, 40.786509 ] } },
{ "type": "Feature", "properties": { "nkde_score": 0.88773781785199857 }, "geometry": { "type": "Point", "coordinates": [ -73.980319, 40.748336 ] } },
{ "type": "Feature", "properties": { "nkde_score": 0.93268823446956051 }, "geometry": { "type": "Point", "coordinates": [ -73.957621, 40.779459 ] } },
{ "type": "Feature", "properties": { "nkde_score": 0.85848431413333504 }, "geometry": { "type": "Point", "coordinates": [ -73.987458, 40.718246 ] } },
{ "type": "Feature", "properties": { "nkde_score": 0.77176471816991299 }, "geometry": { "type": "Point", "coordinates": [ -73.961487, 40.811173 ] } },
{ "type": "Feature", "properties": { "nkde_score": 0.76927916552767484 }, "geometry": { "type": "Point", "coordinates": [ -73.980052, 40.720395 ] } },
{ "type": "Feature", "properties": { "nkde_score": 0.87815969466690813 }, "geometry": { "type": "Point", "coordinates": [ -73.962033, 40.773735 ] } },
{ "type": "Feature", "properties": { "nkde_score": 0.64273826340438511 }, "geometry": { "type": "Point", "coordinates": [ -73.943369, 40.799361 ] } },
{ "type": "Feature", "properties": { "nkde_score": 0.82337500367615335 }, "geometry": { "type": "Point", "coordinates": [ -73.989661, 40.772096 ] } },
{ "type": "Feature", "properties": { "nkde_score": 0.89121568966929188 }, "geometry": { "type": "Point", "coordinates": [ -73.991075, 40.723602 ] } },
{ "type": "Feature", "properties": { "nkde_score": 0.59837169139684998 }, "geometry": { "type": "Point", "coordinates": [ -73.946214, 40.807198 ] } },
{ "type": "Feature", "properties": { "nkde_score": 0.63124525787670449 }, "geometry": { "type": "Point", "coordinates": [ -73.940045, 40.838618 ] } },
{ "type": "Feature", "properties": { "nkde_score": 0.8402679911893981 }, "geometry": { "type": "Point", "coordinates": [ -74.007068, 40.711795 ] } },
{ "type": "Feature", "properties": { "nkde_score": 0.72168450273370843 }, "geometry": { "type": "Point", "coordinates": [ -74.001112, 40.710193 ] } },
{ "type": "Feature", "properties": { "nkde_score": 0.82398713386397049 }, "geometry": { "type": "Point", "coordinates": [ -74.00527, 40.718255 ] } },
{ "type": "Feature", "properties": { "nkde_score": 0.57385479344908741 }, "geometry": { "type": "Point", "coordinates": [ -73.945454, 40.834633 ] } },
{ "type": "Feature", "properties": { "nkde_score": 0.79966992916531698 }, "geometry": { "type": "Point", "coordinates": [ -73.99545, 40.716016 ] } },
{ "type": "Feature", "properties": { "nkde_score": 0.95227510179867259 }, "geometry": { "type": "Point", "coordinates": [ -73.981951, 40.765436 ] } },
{ "type": "Feature", "properties": { "nkde_score": 0.63345726002203218 }, "geometry": { "type": "Point", "coordinates": [ -73.951944, 40.811376 ] } },
{ "type": "Feature", "properties": { "nkde_score": 0.60343437660871291 }, "geometry": { "type": "Point", "coordinates": [ -73.974461, 40.727927 ] } },
{ "type": "Feature", "properties": { "nkde_score": 0.5732248409839571 }, "geometry": { "type": "Point", "coordinates": [ -73.95375, 40.825399 ] } },
{ "type": "Feature", "properties": { "nkde_score": 0.87405095928070586 }, "geometry": { "type": "Point", "coordinates": [ -73.98127, 40.773478 ] } },
{ "type": "Feature", "properties": { "nkde_score": 0.85675901954910472 }, "geometry": { "type": "Point", "coordinates": [ -73.998242, 40.760808 ] } },
{ "type": "Feature", "properties": { "nkde_score": 0.80225041677998621 }, "geometry": { "type": "Point", "coordinates": [ -74.008051, 40.723287 ] } }
]
}
