{
"type": "FeatureCollection",
"name": "manhattan_base_p125",
"crs": { "type": "name", "properties": { "name": "urn:ogc:def:crs:OGC:1.3:CRS84" } },
"features": [
{ "type": "Feature", "properties": { "nkde_score": 0.87362686814384372 }, "geometry": { "type": "Point", "coordinates": [ -73.979583, 40.784569 ] } },
{ "type": "Feature", "properties": { "nkde_score": 0.61987456284932807 }, "geometry": { "type": "Point", "coordinates": [ -73.93341, 40.802694 ] } },
{ "type": "Feature", "properties": { "nkde_score": 0.36794088104604616 }, "geometry": { "type": "Point", "coordinates": [ -73.93425, 40.817905 ] } },
{ "type": "Feature", "properties": { "nkde_score": 0.79629536314278593 }, "geometry": { "type": "Point", "coordinates": [ -74.016611, 40.708172 ] } },
{ "type": "Feature", "properties": { "nkde_score": 0.90386346081751279 }, "geometry": { "type": "Point", "coordinates": [ -73.955621, 40.764299 ] } },
{ "type": "Feature", "properties": { "nkde_score": 0.89835211994079212 }, "geometry": { "type": "Point", "coordinates": [ -73.95233, 40.768811 ] } },
{ "type": "Feature", "properties": { "nkde_score": 0.92686316345008002 }, "geometry": { "type": "Point", "coordinates": [ -73.986919, 40.739553 ] } },
{ "type": "Feature", "properties": { "nkde_score": 0.76232406245084816 }, "geometry": { "type": "Point", "coordinates": [ -74.011964, 40.707474 ] } },
{ "type": "Feature", "properties": { "nkde_score": 0.87239306517875082 }, "geometry": { "type": "Point", "coordinates": [ -73.977315, 40.789541 ] } },
{ "type": "Feature", "properties": { "nkde_score": 0.85715473847751722 }, "geometry": { "type": "Point", "coordinates": [ -73.973168, 40.795237 ] } },
{ "type": "Feature", "properties": { "nkde_score": 0.64947182393833192 }, "geometry": { "type": "Point", "coordinates": [ -73.95379, 40.822072 ] } },
{ "type": "Feature", "properties": { "nkde_score": 0.52451324041588054 }, "geometry": { "type": "Point", "coordinates": [ -73.939845, 40.846488 ] } },
{ "type": "Feature", "properties": { "nkde_score": 0.42847452276727582 }, "geometry": { "type": "Point", "coordinates": [ -73.933312, 40.855335 ] } },
{ "type": "Feature", "properties": { "nkde_score": 0.46300342167591213 }, "geometry": { "type": "Point", "coordinates": [ -73.928113, 40.865081 ] } },
{ "type": "Feature", "properties": { "nkde_score": 0.89477051597103074 }, "geometry": { "type": "Point", "coordinates": [ -73.950477, 40.777351 ] } },
{ "type": "Feature", "properties": { "nkde_score": 0.53198296745247631 }, "geometry": { "type": "Point", "coordinates": [ -73.94668, 40.814051 ] } },
{ "type": "Feature", "properties": { "nkde_score": 0.89115720106693685 }, "geometry": { "type": "Point", "coordinates": [ -73.995336, 40.739994 ] } },
{ "type": "Feature", "properties": { "nkde_score": 0.87432762314098644 }, "geometry": { "type": "Point", "coordinates": [ -74.005119, 40.744118 ] } },
{ "type": "Feature", "properties": { "nkde_score": 0.67733713600388712 }, "geometry": { "type": "Point", "coordinates": [ -73.954948, 40.807599 ] } },
{ "type": "Feature", "properties": { "nkde_score": 0.88637757778457549 }, "geometry": { "type": "Point", "coordinates": [ -74.000794, 40.736462 ] } },
{ "type": "Feature", "properties": { "nkde_score": 0.93944184149502952 }, "geometry": { "type": "Point", "coordinates": [ -73.974177, 40.763943 ] } },
{ "type": "Feature", "properties": { "nkde_score": 0.69572622084657332 }, "geometry": { "type": "Point", "coordinates": [ -73.94655, 40.789001 ] } },
{ "type": "Feature", "properties": { "nkde_score": 0.81534889982572201 }, "geometry": { "type": "Point", "coordinates": [ -74.001033, 40.757055 ] } },
{ "type": "Feature", "properties": { "nkde_score": 0.77237603710390201 }, "geometry": { "type": "Point", "coordinates": [ -73.998152, 40.763273 ] } },
{ "type": "Feature", "properties": { "nkde_score": 0.85840310552940757 }, "geometry": { "type": "Point", "coordinates": [ -73.990132, 40.769782 ] } },
{ "type": "Feature", "properties": { "nkde_score": 0.83761152489710555 }, "geometry": { "type": "Point", "coordinates": [ -73.989081, 40.773489 ] } },
{ "type": "Feature", "properties": { "nkde_score": 0.76055193533587506 }, "geometry": { "type": "Point", "coordinates": [ -73.961047, 40.801859 ] } },
{ "type": "Feature", "properties": { "nkde_score": 0.90882739727344575 }, "geometry": { "type": "Point", "coordinates": [ -74.006668, 40.738763 ] } },
{ "type": "Feature", "properties": { "nkde_score": 0.86889875437434994 }, "geometry": { "type": "Point", "coordinates": [ -73.969465, 40.766861 ] } },
{ "type": "Feature", "properties": { "nkde_score": 0.84977620832261902 }, "geometry": { "type": "Point", "coordinates": [ -74.011513, 40.702966 ] } },
{ "type": "Feature", "properties": { "nkde_score": 0.84443091973175544 }, "geometry": { "type": "Point", "coordinates": [ -73.992188, 40.721397 ] } },
{ "type": "Feature", "properties": { "nkde_score": 0.81607276338559931 }, "geometry": { "type": "Point", "coordinates": [ -74.001434, 40.721267 ] } },
{ "type": "Feature", "properties": { "nkde_score": 0.90444264105239147 }, "geometry": { "type": "Point", "coordinates": [ -73.978309, 40.778104 ] } },
{ "type": "Feature", "properties": { "nkde_score": 0.82637890436337291 }, "geometry": { "type": "Point", "coordinates": [ -73.993503, 40.764592 ] } },
{ "type": "Feature", "properties": { "nkde_score": 0.44870240673755107 }, "geometry": { "type": "Point", "coordinates": [ -73.932463, 40.848794 ] } },
{ "type": "Feature", "properties": { "nkde_score": 0.5129794760442582 }, "geometry": { "type": "Point", "coordinates": [ -73.952267, 40.817226 ] } },
{ "type": "Feature", "properties": { "nkde_score": 0.61340715449552963 }, "geometry": { "type": "Point", "coordinates": [ -73.958903, 40.820023 ] } },
{ "type": "Feature", "properties": { "nkde_score": 0.82380219920877851 }, "geometry": { "type": "Point", "coordinates": [ -73.977739, 40.72361 ] } },
{ "type": "Feature", "properties": { "nkde_score": 0.91597883999605423 }, "geometry": { "type": "Point", "coordinates": [ -73.992675, 40.758445 ] } },
{ "type": "Feature", "properties": { "nkde_score": 0.8492610664545347 }, "geometry": { "type": "Point", "coordinates": [ -74.004855, 40.751271 ] } },
{ "type": "Feature", "properties": { "nkde_score": 0.86455650917626004 }, "geometry": { "type": "Point", "coordinates": [ -73.970776, 40.783353 ] } },
{ "type": "Feature", "properties": { "nkde_score": 0.7641813798667908 }, "geometry": { "type": "Point", "coordinates": [ -73.962377, 40.794859 ] } },
{ "type": "Feature", "properties": { "nkde_score": 0.89795626929944372 }, "geometry": { "type": "Point", "coordinates": [ -73.989996, 40.752418 ] } },
{ "type": "Feature", "properties": { "nkde_score": 0.88920667265754194 }, "geometry": { "type": "Point", "coordinates": [ -73.986911, 40.763448 ] } },
{ "type": "Feature", "properties": { "nkde_score": 0.95794346973015976 }, "geometry": { "type": "Point", "coordinates": [ -73.984136, 40.767247 ] } },
{ "type": "Feature", "properties": { "nkde_score": 0.52910471720322239 }, "geometry": { "type": "Point", "coordinates": [ -73.9389, 40.822444 ] } },
{ "type": "Feature", "properties": { "nkde_score": 0.41884817385030698 }, "geometry": { "type": "Point", "coordinates": [ -73.938237, 40.827877 ] } },
{ "type": "Feature", "properties": { "nkde_score": 0.75656111992635922 }, "geometry": { "type": "Point", "coordinates": [ -74.009424, 40.724103 ] } },
{ "type": "Feature", "properties": { "nkde_score": 0.40261892989662734 }, "geometry": { "type": "Point", "coordinates": [ -73.937801, 40.855407 ] } },
{ "type": "Feature", "properties": { "nkde_score": 0.67219443438179294 }, "geometry": { "type": "Point", "coordinates": [ -73.948893, 40.795054 ] } },
{ "type": "Feature", "properties": { "nkde_score": 0.89960335329980967 }, "geometry": { "type": "Point", "coordinates": [ -73.964169, 40.755509 ] } },
{ "type": "Feature", "properties": { "nkde_score": 0.7560204624482878 }, "geometry": { "type": "Point", "coordinates": [ -74.009868, 40.732469 ] } },
{ "type": "Feature", "properties": { "nkde_score": 0.68419145063299158 }, "geometry": { "type": "Point", "coordinates": [ -73.967373, 40.806127 ] } },
{ "type": "Feature", "properties": { "nkde_score": 0.93574980778181405 }, "geometry": { "type": "Point", "coordinates": [ -73.979614, 40.752952 ] } },
{ "type": "Feature", "properties": { "nkde_score": 0.73952651610094555 }, "geometry": { "type": "Point", "coordinates": [ -73.996763, 40.715026 ] } },
{ "type": "Feature", "properties": { "nkde_score": 0.21321620150678541 }, "geometry": { "type": "Point", "coordinates": [ -73.910076, 40.87697 ] } },
{ "type": "Feature", "properties": { "nkde_score": 0.80674250213745147 }, "geometry": { "type": "Point", "coordinates": [ -73.966069, 40.773774 ] } },
{ "type": "Feature", "properties": { "nkde_score": 0.50320297426811533 }, "geometry": { "type": "Point", "coordinates": [ -73.946065, 40.819628 ] } },
{ "type": "Feature", "properties": { "nkde_score": 0.91149257880923074 }, "geometry": { "type": "Point", "coordinates": [ -73.991727, 40.744953 ] } },
{ "type": "Feature", "properties": { "nkde_score": 0.88241151680237118 }, "geometry": { "type": "Point", "coordinates": [ -73.996367, 40.727281 ] } },
{ "type": "Feature", "properties": { "nkde_score": 0.72566493820834466 }, "geometry": { "type": "Point", "coordinates": [ -73.990559, 40.715805 ] } },
{ "type": "Feature", "properties": { "nkde_score": 0.34475242804822381 }, "geometry": { "type": "Point", "coordinates": [ -73.961865, 40.814051 ] } },
{ "type": "Feature", "properties": { "nkde_score": 0.60011021321393698 }, "geometry": { "type": "Point", "coordinates": [ -73.942007, 40.832881 ] } },
{ "type": "Feature", "properties": { "nkde_score": 0.60011021321393698 }, "geometry": { "type": "Point", "coordinates": [ -73.944547, 40.833929 ] } },
{ "type": "Feature", "properties": { "nkde_score": 0.89439110439745162 }, "geometry": { "type": "Point", "coordinates": [ -73.961046, 40.767404 ] } },
{ "type": "Feature", "properties": { "nkde_score": 0.91950229928112392 }, "geometry": { "type": "Point", "coordinates": [ -73.956334, 40.773884 ] } },
{ "type": "Feature", "properties": { "nkde_score": 0.72626850384116648 }, "geometry": { "type": "Point", "coordinates": [ -73.955265, 40.788585 ] } },
{ "type": "Feature", "properties": { "nkde_score": 0.81529381041828308 }, "geometry": { "type": "Point", "coordinates": [ -73.969408, 40.790318 ] } },
{ "type": "Feature", "properties": { "nkde_score": 0.23583351991223597 }, "geometry": { "type": "Point", "coordinates": [ -73.927977, 40.859545 ] } },
{ "type": "Feature", "properties": { "nkde_score": 0.8181592356487033 }, "geometry": { "type": "Point", "coordinates": [ -74.003448, 40.70806 ] } },
{ "type": "Feature", "properties": { "nkde_score": 0.82471850444161643 }, "geometry": { "type": "Point", "coordinates": [ -73.97207, 40.743178 ] } },
{ "type": "Feature", "properties": { "nkde_score": 0.91994026719555222 }, "geometry": { "type": "Point", "coordinates": [ -73.983443, 40.747101 ] } },
{ "type": "Feature", "properties": { "nkde_score": 0.49960410094296381 }, "geometry": { "type": "Point", "coordinates": [ -73.937078, 40.808376 ] } },
{ "type": "Feature", "properties": { "nkde_score": 0.62375814995207124 }, "geometry": { "type": "Point", "coordinates": [ -73.954363, 40.803113 ] } },
{ "type": "Feature", "properties": { "nkde_score": 0.91347648770796064 }, "geometry": { "type": "Point", "coordinates": [ -73.984347, 40.734598 ] } },
{ "type": "Feature", "properties": { "nkde_score": 0.93898298124331669 }, "geometry": { "type": "Point", "coordinates": [ -73.972362, 40.756498 ] } },
{ "type": "Feature", "properties": { "nkde_score": 0.8557271694976325 }, "geometry": { "type": "Point", "coordinates": [ -73.951545, 40.782777 ] } },
{ "type": "Feature", "properties": { "nkde_score": 0.85889824315869479 }, "geometry": { "type": "Point", "coordinates": [ -73.946196, 40.772986 ] } },
{ "type": "Feature", "properties": { "nkde_score": 0.57995362071391299 }, "geometry": { "type": "Point", "coordinates": [ -73.932661, 40.795733 ] } },
{ "type": "Feature", "properties": { "nkde_score": 0.4975877192162787 }, "geometry": { "type": "Point", "coordinates": [ -73.945276, 40.825948 ] } },
{ "type": "Feature", "properties": { "nkde_score": 0.88939230596429564 }, "geometry": { "type": "Point", "coordinates": [ -73.986131, 40.728736 ] } },
{ "type": "Feature", "properties": { "nkde_score": 0.82831032591977416 }, "geometry": { "type": "Point", "coordinates": [ -74.012933, 40.716423 ] } },
{ "type": "Feature", "properties": { "nkde_score": 0.9076706039669904 }, "geometry": { "type": "Point", "coordinates": [ -73.980783, 40.744363 ] } },
{ "type": "Feature", "properties": { "nkde_score": 0.32784025836263131 }, "geometry": { "type": "Point", "coordinates": [ -73.928692, 40.853724 ] } },
{ "type": "Feature", "properties": { "nkde_score": 0.7840902576097285 }, "geometry": { "type": "Point", "coordinates": [ -73.974875, 40.734201 ] } },
{ "type": "Feature", "properties": { "nkde_score": 0.90804476154911218 }, "geometry": { "type": "Point", "coordinates": [ -73.981086, 40.757719 ] } },
{ "type": "Feature", "properties": { "nkde_score": 0.62567814548003475 }, "geometry": { "type": "Point", "coordinates": [ -73.946137, 40.802238 ] } },
{ "type": "Feature", "properties": { "nkde_score": 0.27851984386885181 }, "geometry": { "type": "Point", "coordinates": [ -73.919813, 40.869929 ] } },
{ "type": "Feature", "properties": { "nkde_score": 0.65530737161983055 }, "geometry": { "type": "Point", "coordinates": [ -73.957026, 40.814247 ] } },
{ "type": "Feature", "properties": { "nkde_score": 0.35484159366559676 }, "geometry": { "type": "Point", "coordinates": [ -73.974319, 40.745783 ] } },
{ "type": "Feature", "properties": { "nkde_score": 0.86968426308421842 }, "geometry": { "type": "Point", "coordinates": [ -73.993322, 40.733304 ] } },
{ "type": "Feature", "properties": { "nkde_score": 0.55333125587237975 }, "geometry": { "type": "Point", "coordinates": [ -73.938364, 40.840487 ] } },
{ "type": "Feature", "properties": { "nkde_score": 0.31383353711456685 }, "geometry": { "type": "Point", "coordinates": [ -73.920296, 40.862611 ] } },
{ "type": "Feature", "properties": { "nkde_score": 0.82712458248474574 }, "geometry": { "type": "Point", "coordinates": [ -73.978863, 40.738708 ] } },
{ "type": "Feature", "properties": { "nkde_score": 0.75113165936338133 }, "geometry": { "type": "Point", "coordinates": [ -73.971232, 40.749418 ] } },
{ "type": "Feature", "properties": { "nkde_score": 0.63070815562422611 }, "geometry": { "type": "Point", "coordinates": [ -73.975113, 40.718796 ] } },
{ "type": "Feature", "properties": { "nkde_score": 0.53187010821929481 }, "geometry": { "type": "Point", "coordinates": [ -73.944363, 40.841489 ] } },
{ "type": "Feature", "properties": { "nkde_score": 0.83504900837642082 }, "geometry": { "type": "Point", "coordinates": [ -73.998043, 40.751069 ] } },
{ "type": "Feature", "properties": { "nkde_score": 0.53041997564011445 }, "geometry": { "type": "Point", "coordinates": [ -73.994515, 40.709448 ] } },
{ "type": "Feature", "properties": { "nkde_score": 0.78100124977153473 }, "geometry": { "type": "Point", "coordinates": [ -73.986995, 40.780708 ] } },
{ "type": "Feature", "properties": { "nkde_score": 0.88318421534825053 }, "geometry": { "type": "Point", "coordinates": [ -73.959063, 40.780068 ] } },
{ "type": "Feature", "properties": { "nkde_score": 0.5824324164078859 }, "geometry": { "type": "Point", "coordinates": [ -73.94138, 40.804338 ] } },
{ "type": "Feature", "properties": { "nkde_score": 0.42437574248712207 }, "geometry": { "type": "Point", "coordinates": [ -73.929277, 40.78612 ] } },
{ "type": "Feature", "properties": { "nkde_score": 0.82352765429881947 }, "geometry": { "type": "Point", "coordinates": [ -73.968454, 40.79907 ] } },
{ "type": "Feature", "properties": { "nkde_score": 0.31652411617915555 }, "geometry": { "type": "Point", "coordinates": [ -73.914686, 40.870767 ] } },
{ "type": "Feature", "properties": { "nkde_score": 0.84926164317533448 }, "geometry": { "type": "Point", "coordinates": [ -73.961627, 40.760302 ] } },
{ "type": "Feature", "properties": { "nkde_score": 0.92035127873711575 }, "geometry": { "type": "Point", "coordinates": [ -73.98716, 40.722412 ] } },
{ "type": "Feature", "properties": { "nkde_score": 0.59837169139684998 }, "geometry": { "type": "Point", "coordinates": [ -73.948741, 40.808263 ] } },
{ "type": "Feature", "properties": { "nkde_score": 0.37733121756289673 }, "geometry": { "type": "Point", "coordinates": [ -73.932782, 40.782891 ] } },
{ "type": "Feature", "properties": { "nkde_score": 0.57190719565446335 }, "geometry": { "type": "Point", "coordinates": [ -73.940935, 40.814145 ] } },
{ "type": "Feature", "properties": { "nkde_score": 0.70561832870437025 }, "geometry": { "type": "Point", "coordinates": [ -73.958878, 40.809203 ] } },
{ "type": "Feature", "properties": { "nkde_score": 0.42083947814574607 }, "geometry": { "type": "Point", "coordinates": [ -73.920702, 40.798153 ] } },
{ "type": "Feature", "properties": { "nkde_score": 0.70914136370934411 }, "geometry": { "type": "Point", "coordinates": [ -74.005197, 40.712158 ] } },
{ "type": "Feature", "properties": { "nkde_score": 0.64627188364848487 }, "geometry": { "type": "Point", "coordinates": [ -73.939557, 40.796843 ] } },
{ "type": "Feature", "properties": { "nkde_score": 0.6318786417953538 }, "geometry": { "type": "Point", "coordinates": [ -73.982697, 40.717101 ] } },
{ "type": "Feature", "properties": { "nkde_score": 0.91329159724713216 }, "geometry": { "type": "Point", "coordinates": [ -74.002802, 40.72847 ] } },
{ "type": "Feature", "properties": { "nkde_score": 0.74330209916668066 }, "geometry": { "type": "Point", "coordinates": [ -73.944039, 40.783035 ] } },
{ "type": "Feature", "properties": { "nkde_score": 0.9288074582896394 }, "geometry": { "type": "Point", "coordinates": [ -73.970072, 40.759637 ] } },
{ "type": "Feature", "properties": { "nkde_score": 0.60343437660871291 }, "geometry": { "type": "Point", "coordinates": [ -73.974461, 40.727927 ] } },
{ "type": "Feature", "properties": { "nkde_score": 0.84496809664420314 }, "geometry": { "type": "Point", "coordinates": [ -74.005261, 40.717439 ] } },
{ "type": "Feature", "properties": { "nkde_score": 0.88522143683257259 }, "geometry": { "type": "Point", "coordinates": [ -74.000678, 40.744555 ] } },
{ "type": "Feature", "properties": { "nkde_score": 0.86675835990364891 }, "geometry": { "type": "Point", "coordinates": [ -73.980819, 40.774099 ] } },
{ "type": "Feature", "properties": { "nkde_score": 0.4618566562453762 }, "geometry": { "type": "Point", "coordinates": [ -73.984896, 40.711711 ] } },
{ "type": "Feature", "properties": { "nkde_score": 0.30489404549314814 }, "geometry": { "type": "Point", "coordinates": [ -73.949618, 40.834379 ] } },
{ "type": "Feature", "properties": { "nkde_score": 0.58048836959017369 }, "geometry": { "type": "Point", "coordinates": [ -73.950363, 40.828912 ] } }
]
}
