{
"type": "FeatureCollection",
"name": "manhattan_equity_p125",
"crs": { "type": "name", "properties": { "name": "urn:ogc:def:crs:OGC:1.3:CRS84" } },
"features": [
{ "type": "Feature", "properties": { "nkde_score": 0.87362686814384372 }, "geometry": { "type": "Point", "coordinates": [ -73.979583, 40.784569 ] } },
{ "type": "Feature", "properties": { "nkde_score": 0.40450683548724675 }, "geometry": { "type": "Point", "coordinates": [ -73.931324, 40.859329 ] } },
{ "type": "Feature", "properties": { "nkde_score": 0.84264503633885435 }, "geometry": { "type": "Point", "coordinates": [ -73.998456, 40.733931 ] } },
{ "type": "Feature", "properties": { "nkde_score": 0.82588269559179595 }, "geometry": { "type": "Point", "coordinates": [ -74.011658, 40.709667 ] } },
{ "type": "Feature", "properties": { "nkde_score": 0.61987456284932807 }, "geometry": { "type": "Point", "coordinates": [ -73.93341, 40.802694 ] } },
{ "type": "Feature", "properties": { "nkde_score": 0.53949044195099893 }, "geometry": { "type": "Point", "coordinates": [ -73.976819, 40.714658 ] } },
{ "type": "Feature", "properties": { "nkde_score": 0.37848085951334171 }, "geometry": { "type": "Point", "coordinates": [ -73.939691, 40.8312 ] } },
{ "type": "Feature", "properties": { "nkde_score": 0.79629536314278593 }, "geometry": { "type": "Point", "coordinates": [ -74.016611, 40.708172 ] } },
{ "type": "Feature", "properties": { "nkde_score": 0.4752920709702616 }, "geometry": { "type": "Point", "coordinates": [ -73.94974, 40.817923 ] } },
{ "type": "Feature", "properties": { "nkde_score": 0.49486621167866079 }, "geometry": { "type": "Point", "coordinates": [ -73.947684, 40.820689 ] } },
{ "type": "Feature", "properties": { "nkde_score": 0.90386346081751279 }, "geometry": { "type": "Point", "coordinates": [ -73.955621, 40.764299 ] } },
{ "type": "Feature", "properties": { "nkde_score": 0.89835211994079212 }, "geometry": { "type": "Point", "coordinates": [ -73.95233, 40.768811 ] } },
{ "type": "Feature", "properties": { "nkde_score": 0.39357266956431891 }, "geometry": { "type": "Point", "coordinates": [ -73.9372, 40.856559 ] } },
{ "type": "Feature", "properties": { "nkde_score": 0.85329374771172484 }, "geometry": { "type": "Point", "coordinates": [ -73.987489, 40.744758 ] } },
{ "type": "Feature", "properties": { "nkde_score": 0.94529929752581909 }, "geometry": { "type": "Point", "coordinates": [ -73.990741, 40.734788 ] } },
{ "type": "Feature", "properties": { "nkde_score": 0.87239306517875082 }, "geometry": { "type": "Point", "coordinates": [ -73.977315, 40.789541 ] } },
{ "type": "Feature", "properties": { "nkde_score": 0.85715473847751722 }, "geometry": { "type": "Point", "coordinates": [ -73.973168, 40.795237 ] } },
{ "type": "Feature", "properties": { "nkde_score": 0.5694805559594659 }, "geometry": { "type": "Point", "coordinates": [ -73.939177, 40.843223 ] } },
{ "type": "Feature", "properties": { "nkde_score": 0.4765019156205948 }, "geometry": { "type": "Point", "coordinates": [ -73.934776, 40.852058 ] } },
{ "type": "Feature", "properties": { "nkde_score": 0.89477051597103074 }, "geometry": { "type": "Point", "coordinates": [ -73.950477, 40.777351 ] } },
{ "type": "Feature", "properties": { "nkde_score": 0.90953210263021744 }, "geometry": { "type": "Point", "coordinates": [ -73.988167, 40.71863 ] } },
{ "type": "Feature", "properties": { "nkde_score": 0.89634887085152759 }, "geometry": { "type": "Point", "coordinates": [ -73.997793, 40.721595 ] } },
{ "type": "Feature", "properties": { "nkde_score": 0.89023174599720245 }, "geometry": { "type": "Point", "coordinates": [ -73.997117, 40.741508 ] } },
{ "type": "Feature", "properties": { "nkde_score": 0.94473945025953465 }, "geometry": { "type": "Point", "coordinates": [ -73.990271, 40.750866 ] } },
{ "type": "Feature", "properties": { "nkde_score": 0.94976637833748656 }, "geometry": { "type": "Point", "coordinates": [ -73.979404, 40.763574 ] } },
{ "type": "Feature", "properties": { "nkde_score": 0.81534889982572201 }, "geometry": { "type": "Point", "coordinates": [ -74.001033, 40.757055 ] } },
{ "type": "Feature", "properties": { "nkde_score": 0.85840310552940757 }, "geometry": { "type": "Point", "coordinates": [ -73.990132, 40.769782 ] } },
{ "type": "Feature", "properties": { "nkde_score": 0.83761152489710555 }, "geometry": { "type": "Point", "coordinates": [ -73.989081, 40.773489 ] } },
{ "type": "Feature", "properties": { "nkde_score": 0.76055193533587506 }, "geometry": { "type": "Point", "coordinates": [ -73.961047, 40.801859 ] } },
{ "type": "Feature", "properties": { "nkde_score": 0.94401859873656557 }, "geometry": { "type": "Point", "coordinates": [ -73.983695, 40.766164 ] } },
{ "type": "Feature", "properties": { "nkde_score": 0.84977620832261902 }, "geometry": { "type": "Point", "coordinates": [ -74.011513, 40.702966 ] } },
{ "type": "Feature", "properties": { "nkde_score": 0.90444264105239147 }, "geometry": { "type": "Point", "coordinates": [ -73.978309, 40.778104 ] } },
{ "type": "Feature", "properties": { "nkde_score": 0.64406864005526698 }, "geometry": { "type": "Point", "coordinates": [ -73.954, 40.804728 ] } },
{ "type": "Feature", "properties": { "nkde_score": 0.61340715449552963 }, "geometry": { "type": "Point", "coordinates": [ -73.958903, 40.820023 ] } },
{ "type": "Feature", "properties": { "nkde_score": 0.5216071200681569 }, "geometry": { "type": "Point", "coordinates": [ -73.948262, 40.828844 ] } },
{ "type": "Feature", "properties": { "nkde_score": 0.91597883999605423 }, "geometry": { "type": "Point", "coordinates": [ -73.992675, 40.758445 ] } },
{ "type": "Feature", "properties": { "nkde_score": 0.8492610664545347 }, "geometry": { "type": "Point", "coordinates": [ -74.004855, 40.751271 ] } },
{ "type": "Feature", "properties": { "nkde_score": 0.86455650917626004 }, "geometry": { "type": "Point", "coordinates": [ -73.970776, 40.783353 ] } },
{ "type": "Feature", "properties": { "nkde_score": 0.7641813798667908 }, "geometry": { "type": "Point", "coordinates": [ -73.962377, 40.794859 ] } },
{ "type": "Feature", "properties": { "nkde_score": 0.85889824315869479 }, "geometry": { "type": "Point", "coordinates": [ -73.94573, 40.773624 ] } },
{ "type": "Feature", "properties": { "nkde_score": 0.86058442330740259 }, "geometry": { "type": "Point", "coordinates": [ -73.998814, 40.74711 ] } },
{ "type": "Feature", "properties": { "nkde_score": 0.98052818082254167 }, "geometry": { "type": "Point", "coordinates": [ -73.996469, 40.752596 ] } },
{ "type": "Feature", "properties": { "nkde_score": 0.63907796658519256 }, "geometry": { "type": "Point", "coordinates": [ -73.95213, 40.808865 ] } },
{ "type": "Feature", "properties": { "nkde_score": 0.41884817385030698 }, "geometry": { "type": "Point", "coordinates": [ -73.938237, 40.827877 ] } },
{ "type": "Feature", "properties": { "nkde_score": 0.75656111992635922 }, "geometry": { "type": "Point", "coordinates": [ -74.009424, 40.724103 ] } },
{ "type": "Feature", "properties": { "nkde_score": 0.88414403963041843 }, "geometry": { "type": "Point", "coordinates": [ -74.00561, 40.73814 ] } },
{ "type": "Feature", "properties": { "nkde_score": 0.57552312607530731 }, "geometry": { "type": "Point", "coordinates": [ -73.991355, 40.711017 ] } },
{ "type": "Feature", "properties": { "nkde_score": 0.67219443438179294 }, "geometry": { "type": "Point", "coordinates": [ -73.948893, 40.795054 ] } },
{ "type": "Feature", "properties": { "nkde_score": 0.89960335329980967 }, "geometry": { "type": "Point", "coordinates": [ -73.964169, 40.755509 ] } },
{ "type": "Feature", "properties": { "nkde_score": 0.68419145063299158 }, "geometry": { "type": "Point", "coordinates": [ -73.967373, 40.806127 ] } },
{ "type": "Feature", "properties": { "nkde_score": 0.93574980778181405 }, "geometry": { "type": "Point", "coordinates": [ -73.980879, 40.75348 ] } },
{ "type": "Feature", "properties": { "nkde_score": 0.91256319995466784 }, "geometry": { "type": "Point", "coordinates": [ -73.989597, 40.741551 ] } },
{ "type": "Feature", "properties": { "nkde_score": 0.21321620150678541 }, "geometry": { "type": "Point", "coordinates": [ -73.910076, 40.87697 ] } },
{ "type": "Feature", "properties": { "nkde_score": 0.6828971021470378 }, "geometry": { "type": "Point", "coordinates": [ -73.946999, 40.788386 ] } },
{ "type": "Feature", "properties": { "nkde_score": 0.88937803397795556 }, "geometry": { "type": "Point", "coordinates": [ -73.99074, 40.729894 ] } },
{ "type": "Feature", "properties": { "nkde_score": 0.50803990621791739 }, "geometry": { "type": "Point", "coordinates": [ -73.939474, 40.8235 ] } },
{ "type": "Feature", "properties": { "nkde_score": 0.92375741180491211 }, "geometry": { "type": "Point", "coordinates": [ -73.985079, 40.758597 ] } },
{ "type": "Feature", "properties": { "nkde_score": 0.52087429414692799 }, "geometry": { "type": "Point", "coordinates": [ -73.955337, 40.82354 ] } },
{ "type": "Feature", "properties": { "nkde_score": 0.48615652248246927 }, "geometry": { "type": "Point", "coordinates": [ -73.93886, 40.837235 ] } },
{ "type": "Feature", "properties": { "nkde_score": 0.90220874317028699 }, "geometry": { "type": "Point", "coordinates": [ -73.992086, 40.724825 ] } },
{ "type": "Feature", "properties": { "nkde_score": 0.89439110439745162 }, "geometry": { "type": "Point", "coordinates": [ -73.961046, 40.767404 ] } },
{ "type": "Feature", "properties": { "nkde_score": 0.91950229928112392 }, "geometry": { "type": "Point", "coordinates": [ -73.956334, 40.773884 ] } },
{ "type": "Feature", "properties": { "nkde_score": 0.72626850384116648 }, "geometry": { "type": "Point", "coordinates": [ -73.955265, 40.788585 ] } },
{ "type": "Feature", "properties": { "nkde_score": 0.81529381041828308 }, "geometry": { "type": "Point", "coordinates": [ -73.969408, 40.790318 ] } },
{ "type": "Feature", "properties": { "nkde_score": 0.89570078325058311 }, "geometry": { "type": "Point", "coordinates": [ -73.984914, 40.725876 ] } },
{ "type": "Feature", "properties": { "nkde_score": 0.68576422343074617 }, "geometry": { "type": "Point", "coordinates": [ -73.976893, 40.722498 ] } },
{ "type": "Feature", "properties": { "nkde_score": 0.85358697919769655 }, "geometry": { "type": "Point", "coordinates": [ -74.005684, 40.745115 ] } },
{ "type": "Feature", "properties": { "nkde_score": 0.88920667265754194 }, "geometry": { "type": "Point", "coordinates": [ -73.991016, 40.765176 ] } },
{ "type": "Feature", "properties": { "nkde_score": 0.43495709805355459 }, "geometry": { "type": "Point", "coordinates": [ -73.937314, 40.814306 ] } },
{ "type": "Feature", "properties": { "nkde_score": 0.58218038767120639 }, "geometry": { "type": "Point", "coordinates": [ -73.94254, 40.803179 ] } },
{ "type": "Feature", "properties": { "nkde_score": 0.86303567195630271 }, "geometry": { "type": "Point", "coordinates": [ -73.981153, 40.733259 ] } },
{ "type": "Feature", "properties": { "nkde_score": 0.8557271694976325 }, "geometry": { "type": "Point", "coordinates": [ -73.951545, 40.782777 ] } },
{ "type": "Feature", "properties": { "nkde_score": 0.57995362071391299 }, "geometry": { "type": "Point", "coordinates": [ -73.932661, 40.795733 ] } },
{ "type": "Feature", "properties": { "nkde_score": 0.4975877192162787 }, "geometry": { "type": "Point", "coordinates": [ -73.94654, 40.826481 ] } },
{ "type": "Feature", "properties": { "nkde_score": 0.92316227418351615 }, "geometry": { "type": "Point", "coordinates": [ -73.983149, 40.738838 ] } },
{ "type": "Feature", "properties": { "nkde_score": 0.82831032591977416 }, "geometry": { "type": "Point", "coordinates": [ -74.012933, 40.716423 ] } },
{ "type": "Feature", "properties": { "nkde_score": 0.92786206811255356 }, "geometry": { "type": "Point", "coordinates": [ -73.978619, 40.745065 ] } },
{ "type": "Feature", "properties": { "nkde_score": 0.32784025836263131 }, "geometry": { "type": "Point", "coordinates": [ -73.928692, 40.853724 ] } },
{ "type": "Feature", "properties": { "nkde_score": 0.72390314586111359 }, "geometry": { "type": "Point", "coordinates": [ -74.010228, 40.732016 ] } },
{ "type": "Feature", "properties": { "nkde_score": 0.31383353711456685 }, "geometry": { "type": "Point", "coordinates": [ -73.920613, 40.86312 ] } },
{ "type": "Feature", "properties": { "nkde_score": 0.27851984386885181 }, "geometry": { "type": "Point", "coordinates": [ -73.919813, 40.869929 ] } },
{ "type": "Feature", "properties": { "nkde_score": 0.65530737161983055 }, "geometry": { "type": "Point", "coordinates": [ -73.957026, 40.814247 ] } },
{ "type": "Feature", "properties": { "nkde_score": 0.84879679996189517 }, "geometry": { "type": "Point", "coordinates": [ -73.963878, 40.774513 ] } },
{ "type": "Feature", "properties": { "nkde_score": 0.27867943012174923 }, "geometry": { "type": "Point", "coordinates": [ -73.933304, 40.847415 ] } },
{ "type": "Feature", "properties": { "nkde_score": 0.82953276269202902 }, "geometry": { "type": "Point", "coordinates": [ -73.96901, 40.767504 ] } },
{ "type": "Feature", "properties": { "nkde_score": 0.77206257936119804 }, "geometry": { "type": "Point", "coordinates": [ -73.971309, 40.744542 ] } },
{ "type": "Feature", "properties": { "nkde_score": 0.93359194384198885 }, "geometry": { "type": "Point", "coordinates": [ -73.970173, 40.762252 ] } },
{ "type": "Feature", "properties": { "nkde_score": 0.53187010821929481 }, "geometry": { "type": "Point", "coordinates": [ -73.944363, 40.841489 ] } },
{ "type": "Feature", "properties": { "nkde_score": 0.58792801819365259 }, "geometry": { "type": "Point", "coordinates": [ -73.985112, 40.71338 ] } },
{ "type": "Feature", "properties": { "nkde_score": 0.65041010965002166 }, "geometry": { "type": "Point", "coordinates": [ -73.974657, 40.73615 ] } },
{ "type": "Feature", "properties": { "nkde_score": 0.56795796194037484 }, "geometry": { "type": "Point", "coordinates": [ -73.937315, 40.807656 ] } },
{ "type": "Feature", "properties": { "nkde_score": 0.76927916552767484 }, "geometry": { "type": "Point", "coordinates": [ -73.980052, 40.720395 ] } },
{ "type": "Feature", "properties": { "nkde_score": 0.78100124977153473 }, "geometry": { "type": "Point", "coordinates": [ -73.986995, 40.780708 ] } },
{ "type": "Feature", "properties": { "nkde_score": 0.58167793637463072 }, "geometry": { "type": "Point", "coordinates": [ -73.945324, 40.833648 ] } },
{ "type": "Feature", "properties": { "nkde_score": 0.52412881759385432 }, "geometry": { "type": "Point", "coordinates": [ -73.939925, 40.849529 ] } },
{ "type": "Feature", "properties": { "nkde_score": 0.48982764129358469 }, "geometry": { "type": "Point", "coordinates": [ -73.927784, 40.86526 ] } },
{ "type": "Feature", "properties": { "nkde_score": 0.9573940956384398 }, "geometry": { "type": "Point", "coordinates": [ -73.974076, 40.75722 ] } },
{ "type": "Feature", "properties": { "nkde_score": 0.88318421534825053 }, "geometry": { "type": "Point", "coordinates": [ -73.959063, 40.780068 ] } },
{ "type": "Feature", "properties": { "nkde_score": 0.42437574248712207 }, "geometry": { "type": "Point", "coordinates": [ -73.929277, 40.78612 ] } },
{ "type": "Feature", "properties": { "nkde_score": 0.82352765429881947 }, "geometry": { "type": "Point", "coordinates": [ -73.968454, 40.79907 ] } },
{ "type": "Feature", "properties": { "nkde_score": 0.31652411617915555 }, "geometry": { "type": "Point", "coordinates": [ -73.914686, 40.870767 ] } },
{ "type": "Feature", "properties": { "nkde_score": 0.84926164317533448 }, "geometry": { "type": "Point", "coordinates": [ -73.961627, 40.760302 ] } },
{ "type": "Feature", "properties": { "nkde_score": 0.51997074990918335 }, "geometry": { "type": "Point", "coordinates": [ -73.944569, 40.813977 ] } },
{ "type": "Feature", "properties": { "nkde_score": 0.47899618554479445 }, "geometry": { "type": "Point", "coordinates": [ -73.939131, 40.819152 ] } },
{ "type": "Feature", "properties": { "nkde_score": 0.37733121756289673 }, "geometry": { "type": "Point", "coordinates": [ -73.932782, 40.782891 ] } },
{ "type": "Feature", "properties": { "nkde_score": 0.60596276541798899 }, "geometry": { "type": "Point", "coordinates": [ -73.950717, 40.800757 ] } },
{ "type": "Feature", "properties": { "nkde_score": 0.62227791576923208 }, "geometry": { "type": "Point", "coordinates": [ -73.945077, 40.808481 ] } },
{ "type": "Feature", "properties": { "nkde_score": 0.43362288393010373 }, "geometry": { "type": "Point", "coordinates": [ -73.962436, 40.813428 ] } },
{ "type": "Feature", "properties": { "nkde_score": 0.56908525170225222 }, "geometry": { "type": "Point", "coordinates": [ -74.002323, 40.706712 ] } },
{ "type": "Feature", "properties": { "nkde_score": 0.70561832870437025 }, "geometry": { "type": "Point", "coordinates": [ -73.958878, 40.809203 ] } },
{ "type": "Feature", "properties": { "nkde_score": 0.42083947814574607 }, "geometry": { "type": "Point", "coordinates": [ -73.920702, 40.798153 ] } },
{ "type": "Feature", "properties": { "nkde_score": 0.90624053882933997 }, "geometry": { "type": "Point", "coordinates": [ -73.979755, 40.749278 ] } },
{ "type": "Feature", "properties": { "nkde_score": 0.82398713386397049 }, "geometry": { "type": "Point", "coordinates": [ -74.00527, 40.718255 ] } },
{ "type": "Feature", "properties": { "nkde_score": 0.70914136370934411 }, "geometry": { "type": "Point", "coordinates": [ -74.005197, 40.712158 ] } },
{ "type": "Feature", "properties": { "nkde_score": 0.75211051388042993 }, "geometry": { "type": "Point", "coordinates": [ -73.998221, 40.713258 ] } },
{ "type": "Feature", "properties": { "nkde_score": 0.86512670236475331 }, "geometry": { "type": "Point", "coordinates": [ -74.00236, 40.728234 ] } },
{ "type": "Feature", "properties": { "nkde_score": 0.64627188364848487 }, "geometry": { "type": "Point", "coordinates": [ -73.939557, 40.796843 ] } },
{ "type": "Feature", "properties": { "nkde_score": 0.79966992916531698 }, "geometry": { "type": "Point", "coordinates": [ -73.99545, 40.716016 ] } },
{ "type": "Feature", "properties": { "nkde_score": 0.74330209916668066 }, "geometry": { "type": "Point", "coordinates": [ -73.944039, 40.783035 ] } },
{ "type": "Feature", "properties": { "nkde_score": 0.60343437660871291 }, "geometry": { "type": "Point", "coordinates": [ -73.974461, 40.727927 ] } },
{ "type": "Feature", "properties": { "nkde_score": 0.84907090045155953 }, "geometry": { "type": "Point", "coordinates": [ -73.97563, 40.740582 ] } },
{ "type": "Feature", "properties": { "nkde_score": 0.87405095928070586 }, "geometry": { "type": "Point", "coordinates": [ -73.98127, 40.773478 ] } },
{ "type": "Feature", "properties": { "nkde_score": 0.84446751782848639 }, "geometry": { "type": "Point", "coordinates": [ -73.998503, 40.764243 ] } },
{ "type": "Feature", "properties": { "nkde_score": 0.91375078040313129 }, "geometry": { "type": "Point", "coordinates": [ -73.972261, 40.751542 ] } },
{ "type": "Feature", "properties": { "nkde_score": 0.30489404549314814 }, "geometry": { "type": "Point", "coordinates": [ -73.949618, 40.834379 ] } }
]
}
