{
"type": "FeatureCollection",
"name": "manhattan_base_p100",
"crs": { "type": "name", "properties": { "name": "urn:ogc:def:crs:OGC:1.3:CRS84" } },
"features": [
{ "type": "Feature", "properties": { "nkde_score": 0.40450683548724675 }, "geometry": { "type": "Point", "coordinates": [ -73.931324, 40.859329 ] } },
{ "type": "Feature", "properties": { "nkde_score": 0.84264503633885435 }, "geometry": { "type": "Point", "coordinates": [ -73.998456, 40.733931 ] } },
{ "type": "Feature", "properties": { "nkde_score": 0.43410010181580877 }, "geometry": { "type": "Point", "coordinates": [ -74.001657, 40.709492 ] } },
{ "type": "Feature", "properties": { "nkde_score": 0.91858964025712819 }, "geometry": { "type": "Point", "coordinates": [ -73.952792, 40.768172 ] } },
{ "type": "Feature", "properties": { "nkde_score": 0.94514475890625205 }, "geometry": { "type": "Point", "coordinates": [ -73.990139, 40.737805 ] } },
{ "type": "Feature", "properties": { "nkde_score": 0.85773633902665325 }, "geometry": { "type": "Point", "coordinates": [ -73.986406, 40.759962 ] } },
{ "type": "Feature", "properties": { "nkde_score": 0.87239306517875082 }, "geometry": { "type": "Point", "coordinates": [ -73.977315, 40.789541 ] } },
{ "type": "Feature", "properties": { "nkde_score": 0.85715473847751722 }, "geometry": { "type": "Point", "coordinates": [ -73.973168, 40.795237 ] } },
{ "type": "Feature", "properties": { "nkde_score": 0.61757859879832466 }, "geometry": { "type": "Point", "coordinates": [ -73.948695, 40.829028 ] } },
{ "type": "Feature", "properties": { "nkde_score": 0.52444711316049408 }, "geometry": { "type": "Point", "coordinates": [ -73.938865, 40.844689 ] } },
{ "type": "Feature", "properties": { "nkde_score": 0.43973815482010253 }, "geometry": { "type": "Point", "coordinates": [ -73.92252, 40.867231 ] } },
{ "type": "Feature", "properties": { "nkde_score": 0.58924977760214692 }, "geometry": { "type": "Point", "coordinates": [ -73.939641, 40.81111 ] } },
{ "type": "Feature", "properties": { "nkde_score": 0.88973159593823725 }, "geometry": { "type": "Point", "coordinates": [ -73.962042, 40.772908 ] } },
{ "type": "Feature", "properties": { "nkde_score": 0.94296855314589956 }, "geometry": { "type": "Point", "coordinates": [ -73.995325, 40.743971 ] } },
{ "type": "Feature", "properties": { "nkde_score": 0.83271144170203937 }, "geometry": { "type": "Point", "coordinates": [ -74.003077, 40.728397 ] } },
{ "type": "Feature", "properties": { "nkde_score": 0.7897350486614868 }, "geometry": { "type": "Point", "coordinates": [ -73.997616, 40.757214 ] } },
{ "type": "Feature", "properties": { "nkde_score": 0.85840310552940757 }, "geometry": { "type": "Point", "coordinates": [ -73.990132, 40.769782 ] } },
{ "type": "Feature", "properties": { "nkde_score": 0.56053830068438848 }, "geometry": { "type": "Point", "coordinates": [ -73.937362, 40.850652 ] } },
{ "type": "Feature", "properties": { "nkde_score": 0.83761152489710555 }, "geometry": { "type": "Point", "coordinates": [ -73.989081, 40.773489 ] } },
{ "type": "Feature", "properties": { "nkde_score": 0.76055193533587506 }, "geometry": { "type": "Point", "coordinates": [ -73.961047, 40.801859 ] } },
{ "type": "Feature", "properties": { "nkde_score": 0.84977620832261902 }, "geometry": { "type": "Point", "coordinates": [ -74.011513, 40.702966 ] } },
{ "type": "Feature", "properties": { "nkde_score": 0.8064165243847129 }, "geometry": { "type": "Point", "coordinates": [ -73.990381, 40.723208 ] } },
{ "type": "Feature", "properties": { "nkde_score": 0.88998343358560694 }, "geometry": { "type": "Point", "coordinates": [ -73.998247, 40.722347 ] } },
{ "type": "Feature", "properties": { "nkde_score": 0.91997341050940462 }, "geometry": { "type": "Point", "coordinates": [ -73.979489, 40.755413 ] } },
{ "type": "Feature", "properties": { "nkde_score": 0.92782499302890864 }, "geometry": { "type": "Point", "coordinates": [ -73.973974, 40.762972 ] } },
{ "type": "Feature", "properties": { "nkde_score": 0.64406864005526698 }, "geometry": { "type": "Point", "coordinates": [ -73.954, 40.804728 ] } },
{ "type": "Feature", "properties": { "nkde_score": 0.61938383169952393 }, "geometry": { "type": "Point", "coordinates": [ -73.953364, 40.811975 ] } },
{ "type": "Feature", "properties": { "nkde_score": 0.54261698237257916 }, "geometry": { "type": "Point", "coordinates": [ -73.947085, 40.815851 ] } },
{ "type": "Feature", "properties": { "nkde_score": 0.79776915080037047 }, "geometry": { "type": "Point", "coordinates": [ -73.979948, 40.786389 ] } },
{ "type": "Feature", "properties": { "nkde_score": 0.90054714575664419 }, "geometry": { "type": "Point", "coordinates": [ -73.982469, 40.72561 ] } },
{ "type": "Feature", "properties": { "nkde_score": 0.54384605611193426 }, "geometry": { "type": "Point", "coordinates": [ -73.94292, 40.823263 ] } },
{ "type": "Feature", "properties": { "nkde_score": 0.83469544921763439 }, "geometry": { "type": "Point", "coordinates": [ -74.008247, 40.707088 ] } },
{ "type": "Feature", "properties": { "nkde_score": 0.9039392145933024 }, "geometry": { "type": "Point", "coordinates": [ -73.987745, 40.744067 ] } },
{ "type": "Feature", "properties": { "nkde_score": 0.85104600049684676 }, "geometry": { "type": "Point", "coordinates": [ -73.977068, 40.779239 ] } },
{ "type": "Feature", "properties": { "nkde_score": 0.86455650917626004 }, "geometry": { "type": "Point", "coordinates": [ -73.970776, 40.783353 ] } },
{ "type": "Feature", "properties": { "nkde_score": 0.7641813798667908 }, "geometry": { "type": "Point", "coordinates": [ -73.962377, 40.794859 ] } },
{ "type": "Feature", "properties": { "nkde_score": 0.8910024920999553 }, "geometry": { "type": "Point", "coordinates": [ -74.003763, 40.740267 ] } },
{ "type": "Feature", "properties": { "nkde_score": 0.89795626929944372 }, "geometry": { "type": "Point", "coordinates": [ -73.989996, 40.752418 ] } },
{ "type": "Feature", "properties": { "nkde_score": 0.95794346973015976 }, "geometry": { "type": "Point", "coordinates": [ -73.984136, 40.767247 ] } },
{ "type": "Feature", "properties": { "nkde_score": 0.41884817385030698 }, "geometry": { "type": "Point", "coordinates": [ -73.938237, 40.827877 ] } },
{ "type": "Feature", "properties": { "nkde_score": 0.75656111992635922 }, "geometry": { "type": "Point", "coordinates": [ -74.009424, 40.724103 ] } },
{ "type": "Feature", "properties": { "nkde_score": 0.33658825954334742 }, "geometry": { "type": "Point", "coordinates": [ -73.930868, 40.853008 ] } },
{ "type": "Feature", "properties": { "nkde_score": 0.57552312607530731 }, "geometry": { "type": "Point", "coordinates": [ -73.991355, 40.711017 ] } },
{ "type": "Feature", "properties": { "nkde_score": 0.89960335329980967 }, "geometry": { "type": "Point", "coordinates": [ -73.964169, 40.755509 ] } },
{ "type": "Feature", "properties": { "nkde_score": 0.66794864931193265 }, "geometry": { "type": "Point", "coordinates": [ -73.950209, 40.798932 ] } },
{ "type": "Feature", "properties": { "nkde_score": 0.48931347856196589 }, "geometry": { "type": "Point", "coordinates": [ -73.937086, 40.837356 ] } },
{ "type": "Feature", "properties": { "nkde_score": 0.78704613402154477 }, "geometry": { "type": "Point", "coordinates": [ -73.967756, 40.7686 ] } },
{ "type": "Feature", "properties": { "nkde_score": 0.84496703366231007 }, "geometry": { "type": "Point", "coordinates": [ -74.004778, 40.752056 ] } },
{ "type": "Feature", "properties": { "nkde_score": 0.49154263589777958 }, "geometry": { "type": "Point", "coordinates": [ -73.938167, 40.817937 ] } },
{ "type": "Feature", "properties": { "nkde_score": 0.42967377765022596 }, "geometry": { "type": "Point", "coordinates": [ -73.960561, 40.815902 ] } },
{ "type": "Feature", "properties": { "nkde_score": 0.60011021321393698 }, "geometry": { "type": "Point", "coordinates": [ -73.944547, 40.833929 ] } },
{ "type": "Feature", "properties": { "nkde_score": 0.88326060405934403 }, "geometry": { "type": "Point", "coordinates": [ -73.981237, 40.739714 ] } },
{ "type": "Feature", "properties": { "nkde_score": 0.86247265688760433 }, "geometry": { "type": "Point", "coordinates": [ -73.960344, 40.763835 ] } },
{ "type": "Feature", "properties": { "nkde_score": 0.81914426945458851 }, "geometry": { "type": "Point", "coordinates": [ -73.947695, 40.781161 ] } },
{ "type": "Feature", "properties": { "nkde_score": 0.81529381041828308 }, "geometry": { "type": "Point", "coordinates": [ -73.969408, 40.790318 ] } },
{ "type": "Feature", "properties": { "nkde_score": 0.80411566062336359 }, "geometry": { "type": "Point", "coordinates": [ -73.999772, 40.76316 ] } },
{ "type": "Feature", "properties": { "nkde_score": 0.63303081935926864 }, "geometry": { "type": "Point", "coordinates": [ -73.937425, 40.80438 ] } },
{ "type": "Feature", "properties": { "nkde_score": 0.85358697919769655 }, "geometry": { "type": "Point", "coordinates": [ -74.005684, 40.745115 ] } },
{ "type": "Feature", "properties": { "nkde_score": 0.88920667265754194 }, "geometry": { "type": "Point", "coordinates": [ -73.991016, 40.765176 ] } },
{ "type": "Feature", "properties": { "nkde_score": 0.64180670979319032 }, "geometry": { "type": "Point", "coordinates": [ -73.944585, 40.7857 ] } },
{ "type": "Feature", "properties": { "nkde_score": 0.55008830754758187 }, "geometry": { "type": "Point", "coordinates": [ -73.973331, 40.743712 ] } },
{ "type": "Feature", "properties": { "nkde_score": 0.88937803397795556 }, "geometry": { "type": "Point", "coordinates": [ -73.990491, 40.730576 ] } },
{ "type": "Feature", "properties": { "nkde_score": 0.90176677983594056 }, "geometry": { "type": "Point", "coordinates": [ -73.953371, 40.780273 ] } },
{ "type": "Feature", "properties": { "nkde_score": 0.8635327412180116 }, "geometry": { "type": "Point", "coordinates": [ -73.961499, 40.779441 ] } },
{ "type": "Feature", "properties": { "nkde_score": 0.86303567195630271 }, "geometry": { "type": "Point", "coordinates": [ -73.981153, 40.733259 ] } },
{ "type": "Feature", "properties": { "nkde_score": 0.93898298124331669 }, "geometry": { "type": "Point", "coordinates": [ -73.972362, 40.756498 ] } },
{ "type": "Feature", "properties": { "nkde_score": 0.67620520165158915 }, "geometry": { "type": "Point", "coordinates": [ -73.948043, 40.792105 ] } },
{ "type": "Feature", "properties": { "nkde_score": 0.74467068546155935 }, "geometry": { "type": "Point", "coordinates": [ -73.975136, 40.735456 ] } },
{ "type": "Feature", "properties": { "nkde_score": 0.82831032591977416 }, "geometry": { "type": "Point", "coordinates": [ -74.012933, 40.716423 ] } },
{ "type": "Feature", "properties": { "nkde_score": 0.68025380366859312 }, "geometry": { "type": "Point", "coordinates": [ -73.936175, 40.797214 ] } },
{ "type": "Feature", "properties": { "nkde_score": 0.84812445941086945 }, "geometry": { "type": "Point", "coordinates": [ -73.945268, 40.774252 ] } },
{ "type": "Feature", "properties": { "nkde_score": 0.77379906157202483 }, "geometry": { "type": "Point", "coordinates": [ -73.967504, 40.806733 ] } },
{ "type": "Feature", "properties": { "nkde_score": 0.31383353711456685 }, "geometry": { "type": "Point", "coordinates": [ -73.920613, 40.86312 ] } },
{ "type": "Feature", "properties": { "nkde_score": 0.89727490001077737 }, "geometry": { "type": "Point", "coordinates": [ -73.952983, 40.774194 ] } },
{ "type": "Feature", "properties": { "nkde_score": 0.75118540880648044 }, "geometry": { "type": "Point", "coordinates": [ -74.008625, 40.734774 ] } },
{ "type": "Feature", "properties": { "nkde_score": 0.75113165936338133 }, "geometry": { "type": "Point", "coordinates": [ -73.971232, 40.749418 ] } },
{ "type": "Feature", "properties": { "nkde_score": 0.88773781785199857 }, "geometry": { "type": "Point", "coordinates": [ -73.980319, 40.748336 ] } },
{ "type": "Feature", "properties": { "nkde_score": 0.53187010821929481 }, "geometry": { "type": "Point", "coordinates": [ -73.944363, 40.841489 ] } },
{ "type": "Feature", "properties": { "nkde_score": 0.88408937799453291 }, "geometry": { "type": "Point", "coordinates": [ -73.988244, 40.718482 ] } },
{ "type": "Feature", "properties": { "nkde_score": 0.65241725597849409 }, "geometry": { "type": "Point", "coordinates": [ -73.952223, 40.823853 ] } },
{ "type": "Feature", "properties": { "nkde_score": 0.58792801819365259 }, "geometry": { "type": "Point", "coordinates": [ -73.985112, 40.71338 ] } },
{ "type": "Feature", "properties": { "nkde_score": 0.76683983971726466 }, "geometry": { "type": "Point", "coordinates": [ -74.015779, 40.707746 ] } },
{ "type": "Feature", "properties": { "nkde_score": 0.76927916552767484 }, "geometry": { "type": "Point", "coordinates": [ -73.980052, 40.720395 ] } },
{ "type": "Feature", "properties": { "nkde_score": 0.78100124977153473 }, "geometry": { "type": "Point", "coordinates": [ -73.986995, 40.780708 ] } },
{ "type": "Feature", "properties": { "nkde_score": 0.85784467722658952 }, "geometry": { "type": "Point", "coordinates": [ -73.954408, 40.786449 ] } },
{ "type": "Feature", "properties": { "nkde_score": 0.5472570929684254 }, "geometry": { "type": "Point", "coordinates": [ -73.943879, 40.798671 ] } },
{ "type": "Feature", "properties": { "nkde_score": 0.42437574248712207 }, "geometry": { "type": "Point", "coordinates": [ -73.929277, 40.78612 ] } },
{ "type": "Feature", "properties": { "nkde_score": 0.82352765429881947 }, "geometry": { "type": "Point", "coordinates": [ -73.968454, 40.79907 ] } },
{ "type": "Feature", "properties": { "nkde_score": 0.31652411617915555 }, "geometry": { "type": "Point", "coordinates": [ -73.914686, 40.870767 ] } },
{ "type": "Feature", "properties": { "nkde_score": 0.59837169139684998 }, "geometry": { "type": "Point", "coordinates": [ -73.946214, 40.807198 ] } },
{ "type": "Feature", "properties": { "nkde_score": 0.70561832870437025 }, "geometry": { "type": "Point", "coordinates": [ -73.958878, 40.809203 ] } },
{ "type": "Feature", "properties": { "nkde_score": 0.42083947814574607 }, "geometry": { "type": "Point", "coordinates": [ -73.920702, 40.798153 ] } },
{ "type": "Feature", "properties": { "nkde_score": 0.82398713386397049 }, "geometry": { "type": "Point", "coordinates": [ -74.00527, 40.718255 ] } },
{ "type": "Feature", "properties": { "nkde_score": 0.70914136370934411 }, "geometry": { "type": "Point", "coordinates": [ -74.005197, 40.712158 ] } },
{ "type": "Feature", "properties": { "nkde_score": 0.60343437660871291 }, "geometry": { "type": "Point", "coordinates": [ -73.974461, 40.727927 ] } },
{ "type": "Feature", "properties": { "nkde_score": 0.796953378277243 }, "geometry": { "type": "Point", "coordinates": [ -73.996134, 40.716149 ] } },
{ "type": "Feature", "properties": { "nkde_score": 0.79508262201750191 }, "geometry": { "type": "Point", "coordinates": [ -73.998612, 40.750275 ] } },
{ "type": "Feature", "properties": { "nkde_score": 0.93306971165899999 }, "geometry": { "type": "Point", "coordinates": [ -73.965159, 40.761779 ] } },
{ "type": "Feature", "properties": { "nkde_score": 0.63185569239803163 }, "geometry": { "type": "Point", "coordinates": [ -73.955459, 40.819391 ] } },
{ "type": "Feature", "properties": { "nkde_score": 0.86675835990364891 }, "geometry": { "type": "Point", "coordinates": [ -73.980819, 40.774099 ] } }
]
}
