{
"type": "FeatureCollection",
"name": "manhattan_equity_p50",
"crs": { "type": "name", "properties": { "name": "urn:ogc:def:crs:OGC:1.3:CRS84" } },
"features": [
{ "type": "Feature", "properties": { "nkde_score": 0.84717969142135063 }, "geometry": { "type": "Point", "coordinates": [ -74.008473, 40.720615 ] } },
{ "type": "Feature", "properties": { "nkde_score": 0.92858200013470027 }, "geometry": { "type": "Point", "coordinates": [ -73.954244, 40.766183 ] } },
{ "type": "Feature", "properties": { "nkde_score": 0.84159644816287871 }, "geometry": { "type": "Point", "coordinates": [ -73.947121, 40.775932 ] } },
{ "type": "Feature", "properties": { "nkde_score": 0.84987361470820233 }, "geometry": { "type": "Point", "coordinates": [ -73.999862, 40.721794 ] } },
{ "type": "Feature", "properties": { "nkde_score": 0.91380368178540472 }, "geometry": { "type": "Point", "coordinates": [ -73.983313, 40.779322 ] } },
{ "type": "Feature", "properties": { "nkde_score": 0.81369431920726787 }, "geometry": { "type": "Point", "coordinates": [ -73.967906, 40.802252 ] } },
{ "type": "Feature", "properties": { "nkde_score": 0.61340715449552963 }, "geometry": { "type": "Point", "coordinates": [ -73.956582, 40.818229 ] } },
{ "type": "Feature", "properties": { "nkde_score": 0.90953210263021744 }, "geometry": { "type": "Point", "coordinates": [ -73.988167, 40.71863 ] } },
{ "type": "Feature", "properties": { "nkde_score": 0.86158478191527865 }, "geometry": { "type": "Point", "coordinates": [ -74.004303, 40.730447 ] } },
{ "type": "Feature", "properties": { "nkde_score": 0.84319535746712981 }, "geometry": { "type": "Point", "coordinates": [ -74.009062, 40.704047 ] } },
{ "type": "Feature", "properties": { "nkde_score": 0.88632338254414722 }, "geometry": { "type": "Point", "coordinates": [ -73.97281, 40.749212 ] } },
{ "type": "Feature", "properties": { "nkde_score": 0.79776915080037047 }, "geometry": { "type": "Point", "coordinates": [ -73.979948, 40.786389 ] } },
{ "type": "Feature", "properties": { "nkde_score": 0.8141946569678602 }, "geometry": { "type": "Point", "coordinates": [ -73.996648, 40.75522 ] } },
{ "type": "Feature", "properties": { "nkde_score": 0.5492046453234003 }, "geometry": { "type": "Point", "coordinates": [ -73.943778, 40.820294 ] } },
{ "type": "Feature", "properties": { "nkde_score": 0.41884817385030698 }, "geometry": { "type": "Point", "coordinates": [ -73.938237, 40.827877 ] } },
{ "type": "Feature", "properties": { "nkde_score": 0.66171662759914995 }, "geometry": { "type": "Point", "coordinates": [ -73.987081, 40.713634 ] } },
{ "type": "Feature", "properties": { "nkde_score": 0.88414403963041843 }, "geometry": { "type": "Point", "coordinates": [ -74.00561, 40.73814 ] } },
{ "type": "Feature", "properties": { "nkde_score": 0.90985420615950829 }, "geometry": { "type": "Point", "coordinates": [ -73.985366, 40.735799 ] } },
{ "type": "Feature", "properties": { "nkde_score": 0.88965382359406109 }, "geometry": { "type": "Point", "coordinates": [ -74.000088, 40.745988 ] } },
{ "type": "Feature", "properties": { "nkde_score": 0.4103756857809806 }, "geometry": { "type": "Point", "coordinates": [ -73.922499, 40.866065 ] } },
{ "type": "Feature", "properties": { "nkde_score": 0.60011021321393698 }, "geometry": { "type": "Point", "coordinates": [ -73.944547, 40.833929 ] } },
{ "type": "Feature", "properties": { "nkde_score": 0.78367287511095307 }, "geometry": { "type": "Point", "coordinates": [ -74.015202, 40.708492 ] } },
{ "type": "Feature", "properties": { "nkde_score": 0.67620520165158915 }, "geometry": { "type": "Point", "coordinates": [ -73.948043, 40.792105 ] } },
{ "type": "Feature", "properties": { "nkde_score": 0.88817481736495851 }, "geometry": { "type": "Point", "coordinates": [ -73.966522, 40.767262 ] } },
{ "type": "Feature", "properties": { "nkde_score": 0.4765019156205948 }, "geometry": { "type": "Point", "coordinates": [ -73.933667, 40.851615 ] } },
{ "type": "Feature", "properties": { "nkde_score": 0.61587773166313775 }, "geometry": { "type": "Point", "coordinates": [ -73.940782, 40.799163 ] } },
{ "type": "Feature", "properties": { "nkde_score": 0.57190719565446335 }, "geometry": { "type": "Point", "coordinates": [ -73.940781, 40.814081 ] } },
{ "type": "Feature", "properties": { "nkde_score": 0.90726805723033965 }, "geometry": { "type": "Point", "coordinates": [ -73.961855, 40.773661 ] } },
{ "type": "Feature", "properties": { "nkde_score": 0.94524416232763175 }, "geometry": { "type": "Point", "coordinates": [ -73.975442, 40.755347 ] } },
{ "type": "Feature", "properties": { "nkde_score": 0.85338020659985903 }, "geometry": { "type": "Point", "coordinates": [ -74.008134, 40.711988 ] } },
{ "type": "Feature", "properties": { "nkde_score": 0.64690518953584397 }, "geometry": { "type": "Point", "coordinates": [ -73.95036, 40.826403 ] } },
{ "type": "Feature", "properties": { "nkde_score": 0.89457556600487698 }, "geometry": { "type": "Point", "coordinates": [ -73.980956, 40.747798 ] } },
{ "type": "Feature", "properties": { "nkde_score": 0.6564461856057473 }, "geometry": { "type": "Point", "coordinates": [ -73.938218, 40.806409 ] } },
{ "type": "Feature", "properties": { "nkde_score": 0.96384752090913917 }, "geometry": { "type": "Point", "coordinates": [ -73.970848, 40.761652 ] } },
{ "type": "Feature", "properties": { "nkde_score": 0.88318421534825053 }, "geometry": { "type": "Point", "coordinates": [ -73.957801, 40.779535 ] } },
{ "type": "Feature", "properties": { "nkde_score": 0.86250429527283368 }, "geometry": { "type": "Point", "coordinates": [ -73.952669, 40.786603 ] } },
{ "type": "Feature", "properties": { "nkde_score": 0.84101917705264306 }, "geometry": { "type": "Point", "coordinates": [ -73.972159, 40.793931 ] } },
{ "type": "Feature", "properties": { "nkde_score": 0.82337500367615335 }, "geometry": { "type": "Point", "coordinates": [ -73.989661, 40.772096 ] } },
{ "type": "Feature", "properties": { "nkde_score": 0.77176471816991299 }, "geometry": { "type": "Point", "coordinates": [ -73.961964, 40.810499 ] } },
{ "type": "Feature", "properties": { "nkde_score": 0.90420122681447901 }, "geometry": { "type": "Point", "coordinates": [ -73.992531, 40.724197 ] } },
{ "type": "Feature", "properties": { "nkde_score": 0.61378967970984033 }, "geometry": { "type": "Point", "coordinates": [ -73.940682, 40.842261 ] } },
{ "type": "Feature", "properties": { "nkde_score": 0.65244822605466046 }, "geometry": { "type": "Point", "coordinates": [ -73.949275, 40.802737 ] } },
{ "type": "Feature", "properties": { "nkde_score": 0.72168450273370843 }, "geometry": { "type": "Point", "coordinates": [ -74.001112, 40.710193 ] } },
{ "type": "Feature", "properties": { "nkde_score": 0.79966992916531698 }, "geometry": { "type": "Point", "coordinates": [ -73.99545, 40.716016 ] } },
{ "type": "Feature", "properties": { "nkde_score": 0.95227510179867259 }, "geometry": { "type": "Point", "coordinates": [ -73.981951, 40.765436 ] } },
{ "type": "Feature", "properties": { "nkde_score": 0.92205630390697002 }, "geometry": { "type": "Point", "coordinates": [ -73.984596, 40.742743 ] } },
{ "type": "Feature", "properties": { "nkde_score": 0.63345726002203218 }, "geometry": { "type": "Point", "coordinates": [ -73.951944, 40.811376 ] } },
{ "type": "Feature", "properties": { "nkde_score": 0.85251571393670944 }, "geometry": { "type": "Point", "coordinates": [ -73.97138, 40.78704 ] } },
{ "type": "Feature", "properties": { "nkde_score": 0.87405095928070586 }, "geometry": { "type": "Point", "coordinates": [ -73.98127, 40.773478 ] } },
{ "type": "Feature", "properties": { "nkde_score": 0.7440589393986442 }, "geometry": { "type": "Point", "coordinates": [ -73.959615, 40.801204 ] } }
]
}
