{
"type": "FeatureCollection",
"name": "porto_base_p20",
"crs": { "type": "name", "properties": { "name": "urn:ogc:def:crs:OGC:1.3:CRS84" } },
"features": [
{ "type": "Feature", "properties": { "nkde_score": 0.98190178685405549 }, "geometry": { "type": "Point", "coordinates": [ -8.612235, 41.14599 ] } },
{ "type": "Feature", "properties": { "nkde_score": 0.79798400510687173 }, "geometry": { "type": "Point", "coordinates": [ -8.642058, 41.16002 ] } },
{ "type": "Feature", "properties": { "nkde_score": 0.66188947486407357 }, "geometry": { "type": "Point", "coordinates": [ -8.611777, 41.167034 ] } },
{ "type": "Feature", "properties": { "nkde_score": 0.85222609684710238 }, "geometry": { "type": "Point", "coordinates": [ -8.629998, 41.155455 ] } },
{ "type": "Feature", "properties": { "nkde_score": 0.62547825371063814 }, "geometry": { "type": "Point", "coordinates": [ -8.598457, 41.148348 ] } },
{ "type": "Feature", "properties": { "nkde_score": 0.74343344368524422 }, "geometry": { "type": "Point", "coordinates": [ -8.64918, 41.152437 ] } },
{ "type": "Feature", "properties": { "nkde_score": 0.5764358879695971 }, "geometry": { "type": "Point", "coordinates": [ -8.591912, 41.161039 ] } },
{ "type": "Feature", "properties": { "nkde_score": 0.73021050886809069 }, "geometry": { "type": "Point", "coordinates": [ -8.674166, 41.153034 ] } },
{ "type": "Feature", "properties": { "nkde_score": 0.6129950145299663 }, "geometry": { "type": "Point", "coordinates": [ -8.6231, 41.167727 ] } },
{ "type": "Feature", "properties": { "nkde_score": 0.64821191903563291 }, "geometry": { "type": "Point", "coordinates": [ -8.655308, 41.172747 ] } },
{ "type": "Feature", "properties": { "nkde_score": 0.6794718716635012 }, "geometry": { "type": "Point", "coordinates": [ -8.609941, 41.153991 ] } },
{ "type": "Feature", "properties": { "nkde_score": 0.57464172099403144 }, "geometry": { "type": "Point", "coordinates": [ -8.660419, 41.149379 ] } },
{ "type": "Feature", "properties": { "nkde_score": 0.50827987158217114 }, "geometry": { "type": "Point", "coordinates": [ -8.668331, 41.149495 ] } },
{ "type": "Feature", "properties": { "nkde_score": 0.54119703950861375 }, "geometry": { "type": "Point", "coordinates": [ -8.652798, 41.167333 ] } },
{ "type": "Feature", "properties": { "nkde_score": 0.64465917297760256 }, "geometry": { "type": "Point", "coordinates": [ -8.571861, 41.166154 ] } },
{ "type": "Feature", "properties": { "nkde_score": 0.46680458381490819 }, "geometry": { "type": "Point", "coordinates": [ -8.57978, 41.168137 ] } },
{ "type": "Feature", "properties": { "nkde_score": 0.56012837704303786 }, "geometry": { "type": "Point", "coordinates": [ -8.664456, 41.172395 ] } },
{ "type": "Feature", "properties": { "nkde_score": 0.37811757027642234 }, "geometry": { "type": "Point", "coordinates": [ -8.618807, 41.175584 ] } },
{ "type": "Feature", "properties": { "nkde_score": 0.54303848343902994 }, "geometry": { "type": "Point", "coordinates": [ -8.664095, 41.156461 ] } },
{ "type": "Feature", "properties": { "nkde_score": 0.97910021372279021 }, "geometry": { "type": "Point", "coordinates": [ -8.587053, 41.147268 ] } }
]
}
