{
"type": "FeatureCollection",
"name": "porto_base_p70",
"crs": { "type": "name", "properties": { "name": "urn:ogc:def:crs:OGC:1.3:CRS84" } },
"features": [
{ "type": "Feature", "properties": { "nkde_score": 0.73794703382472715 }, "geometry": { "type": "Point", "coordinates": [ -8.62042, 41.14722 ] } },
{ "type": "Feature", "properties": { "nkde_score": 0.55742602596963231 }, "geometry": { "type": "Point", "coordinates": [ -8.600781, 41.153273 ] } },
{ "type": "Feature", "properties": { "nkde_score": 0.60198251263468039 }, "geometry": { "type": "Point", "coordinates": [ -8.67224, 41.154935 ] } },
{ "type": "Feature", "properties": { "nkde_score": 0.55201782758179418 }, "geometry": { "type": "Point", "coordinates": [ -8.653319, 41.148558 ] } },
{ "type": "Feature", "properties": { "nkde_score": 0.63510726699178588 }, "geometry": { "type": "Point", "coordinates": [ -8.632876, 41.146954 ] } },
{ "type": "Feature", "properties": { "nkde_score": 0.85200928187225888 }, "geometry": { "type": "Point", "coordinates": [ -8.605055, 41.18411 ] } },
{ "type": "Feature", "properties": { "nkde_score": 0.52160458892152506 }, "geometry": { "type": "Point", "coordinates": [ -8.676261, 41.150652 ] } },
{ "type": "Feature", "properties": { "nkde_score": 0.57608152805540314 }, "geometry": { "type": "Point", "coordinates": [ -8.647321, 41.160836 ] } },
{ "type": "Feature", "properties": { "nkde_score": 0.73531445635791814 }, "geometry": { "type": "Point", "coordinates": [ -8.627836, 41.175893 ] } },
{ "type": "Feature", "properties": { "nkde_score": 0.66188947486407357 }, "geometry": { "type": "Point", "coordinates": [ -8.611777, 41.167034 ] } },
{ "type": "Feature", "properties": { "nkde_score": 0.41570189132529528 }, "geometry": { "type": "Point", "coordinates": [ -8.605497, 41.171796 ] } },
{ "type": "Feature", "properties": { "nkde_score": 0.51783623090463671 }, "geometry": { "type": "Point", "coordinates": [ -8.582131, 41.180316 ] } },
{ "type": "Feature", "properties": { "nkde_score": 0.8558870120822416 }, "geometry": { "type": "Point", "coordinates": [ -8.648343, 41.154166 ] } },
{ "type": "Feature", "properties": { "nkde_score": 0.50356211368217263 }, "geometry": { "type": "Point", "coordinates": [ -8.628743, 41.152478 ] } },
{ "type": "Feature", "properties": { "nkde_score": 0.72490860507726274 }, "geometry": { "type": "Point", "coordinates": [ -8.616929, 41.142482 ] } },
{ "type": "Feature", "properties": { "nkde_score": 0.58026763615260679 }, "geometry": { "type": "Point", "coordinates": [ -8.599201, 41.145872 ] } },
{ "type": "Feature", "properties": { "nkde_score": 0.55099475835359213 }, "geometry": { "type": "Point", "coordinates": [ -8.61133, 41.157211 ] } },
{ "type": "Feature", "properties": { "nkde_score": 0.53860930715399613 }, "geometry": { "type": "Point", "coordinates": [ -8.618447, 41.162538 ] } },
{ "type": "Feature", "properties": { "nkde_score": 0.4239756665253861 }, "geometry": { "type": "Point", "coordinates": [ -8.594161, 41.150829 ] } },
{ "type": "Feature", "properties": { "nkde_score": 0.56663761052616279 }, "geometry": { "type": "Point", "coordinates": [ -8.601612, 41.163793 ] } },
{ "type": "Feature", "properties": { "nkde_score": 0.41457250410135144 }, "geometry": { "type": "Point", "coordinates": [ -8.584782, 41.170068 ] } },
{ "type": "Feature", "properties": { "nkde_score": 0.55543863001815097 }, "geometry": { "type": "Point", "coordinates": [ -8.59028, 41.164662 ] } },
{ "type": "Feature", "properties": { "nkde_score": 0.59015043687111968 }, "geometry": { "type": "Point", "coordinates": [ -8.665591, 41.156219 ] } },
{ "type": "Feature", "properties": { "nkde_score": 0.54393419673892862 }, "geometry": { "type": "Point", "coordinates": [ -8.685157, 41.166132 ] } },
{ "type": "Feature", "properties": { "nkde_score": 0.48077438912627213 }, "geometry": { "type": "Point", "coordinates": [ -8.674788, 41.162838 ] } },
{ "type": "Feature", "properties": { "nkde_score": 0.6993913331799454 }, "geometry": { "type": "Point", "coordinates": [ -8.680077, 41.157917 ] } },
{ "type": "Feature", "properties": { "nkde_score": 0.56235976410412525 }, "geometry": { "type": "Point", "coordinates": [ -8.657643, 41.154086 ] } },
{ "type": "Feature", "properties": { "nkde_score": 0.4842504413430011 }, "geometry": { "type": "Point", "coordinates": [ -8.641528, 41.156857 ] } },
{ "type": "Feature", "properties": { "nkde_score": 0.49858315146855875 }, "geometry": { "type": "Point", "coordinates": [ -8.662884, 41.162013 ] } },
{ "type": "Feature", "properties": { "nkde_score": 0.66836881779038559 }, "geometry": { "type": "Point", "coordinates": [ -8.620839, 41.155937 ] } },
{ "type": "Feature", "properties": { "nkde_score": 0.469860649253655 }, "geometry": { "type": "Point", "coordinates": [ -8.637402, 41.168141 ] } },
{ "type": "Feature", "properties": { "nkde_score": 0.56839551714019931 }, "geometry": { "type": "Point", "coordinates": [ -8.630265, 41.168103 ] } },
{ "type": "Feature", "properties": { "nkde_score": 0.55815268347491254 }, "geometry": { "type": "Point", "coordinates": [ -8.622301, 41.167828 ] } },
{ "type": "Feature", "properties": { "nkde_score": 0.56659092727137295 }, "geometry": { "type": "Point", "coordinates": [ -8.598668, 41.158811 ] } },
{ "type": "Feature", "properties": { "nkde_score": 0.58689345078997335 }, "geometry": { "type": "Point", "coordinates": [ -8.600187, 41.175686 ] } },
{ "type": "Feature", "properties": { "nkde_score": 0.61618166144320186 }, "geometry": { "type": "Point", "coordinates": [ -8.578655, 41.158512 ] } },
{ "type": "Feature", "properties": { "nkde_score": 0.44325510999178258 }, "geometry": { "type": "Point", "coordinates": [ -8.653818, 41.15999 ] } },
{ "type": "Feature", "properties": { "nkde_score": 0.53783347596738762 }, "geometry": { "type": "Point", "coordinates": [ -8.646494, 41.178877 ] } },
{ "type": "Feature", "properties": { "nkde_score": 0.46608555197201945 }, "geometry": { "type": "Point", "coordinates": [ -8.647459, 41.165977 ] } },
{ "type": "Feature", "properties": { "nkde_score": 0.46571962629252811 }, "geometry": { "type": "Point", "coordinates": [ -8.659797, 41.16623 ] } },
{ "type": "Feature", "properties": { "nkde_score": 0.72333722918251953 }, "geometry": { "type": "Point", "coordinates": [ -8.655157, 41.17332 ] } },
{ "type": "Feature", "properties": { "nkde_score": 0.41331164790357394 }, "geometry": { "type": "Point", "coordinates": [ -8.619604, 41.175927 ] } },
{ "type": "Feature", "properties": { "nkde_score": 0.60404006862786175 }, "geometry": { "type": "Point", "coordinates": [ -8.588569, 41.174731 ] } },
{ "type": "Feature", "properties": { "nkde_score": 0.48326179270596509 }, "geometry": { "type": "Point", "coordinates": [ -8.613072, 41.181379 ] } },
{ "type": "Feature", "properties": { "nkde_score": 0.61119636031407953 }, "geometry": { "type": "Point", "coordinates": [ -8.606404, 41.153343 ] } },
{ "type": "Feature", "properties": { "nkde_score": 0.53939707935275139 }, "geometry": { "type": "Point", "coordinates": [ -8.627856, 41.162248 ] } },
{ "type": "Feature", "properties": { "nkde_score": 0.5934796296341569 }, "geometry": { "type": "Point", "coordinates": [ -8.660535, 41.1497 ] } },
{ "type": "Feature", "properties": { "nkde_score": 0.51690616771658182 }, "geometry": { "type": "Point", "coordinates": [ -8.667538, 41.150497 ] } },
{ "type": "Feature", "properties": { "nkde_score": 0.4506966570311744 }, "geometry": { "type": "Point", "coordinates": [ -8.669488, 41.167997 ] } },
{ "type": "Feature", "properties": { "nkde_score": 0.55345888607246485 }, "geometry": { "type": "Point", "coordinates": [ -8.653354, 41.168526 ] } },
{ "type": "Feature", "properties": { "nkde_score": 0.40472349796458623 }, "geometry": { "type": "Point", "coordinates": [ -8.566935, 41.15151 ] } },
{ "type": "Feature", "properties": { "nkde_score": 0.24500460956074235 }, "geometry": { "type": "Point", "coordinates": [ -8.636163, 41.173715 ] } },
{ "type": "Feature", "properties": { "nkde_score": 0.8592376281635169 }, "geometry": { "type": "Point", "coordinates": [ -8.612327, 41.148101 ] } },
{ "type": "Feature", "properties": { "nkde_score": 0.64465917297760256 }, "geometry": { "type": "Point", "coordinates": [ -8.571861, 41.166154 ] } },
{ "type": "Feature", "properties": { "nkde_score": 0.45487829769376265 }, "geometry": { "type": "Point", "coordinates": [ -8.576093, 41.144816 ] } },
{ "type": "Feature", "properties": { "nkde_score": 0.32073524923617719 }, "geometry": { "type": "Point", "coordinates": [ -8.579304, 41.152783 ] } },
{ "type": "Feature", "properties": { "nkde_score": 0.50324607907755403 }, "geometry": { "type": "Point", "coordinates": [ -8.570203, 41.160568 ] } },
{ "type": "Feature", "properties": { "nkde_score": 0.48610133082413221 }, "geometry": { "type": "Point", "coordinates": [ -8.578833, 41.166705 ] } },
{ "type": "Feature", "properties": { "nkde_score": 0.55899505077301037 }, "geometry": { "type": "Point", "coordinates": [ -8.634484, 41.180162 ] } },
{ "type": "Feature", "properties": { "nkde_score": 0.52611138084799058 }, "geometry": { "type": "Point", "coordinates": [ -8.573336, 41.179448 ] } },
{ "type": "Feature", "properties": { "nkde_score": 0.50324085985158939 }, "geometry": { "type": "Point", "coordinates": [ -8.662543, 41.172861 ] } },
{ "type": "Feature", "properties": { "nkde_score": 0.54995413093179779 }, "geometry": { "type": "Point", "coordinates": [ -8.59729, 41.16966 ] } },
{ "type": "Feature", "properties": { "nkde_score": 0.60797383838211383 }, "geometry": { "type": "Point", "coordinates": [ -8.607863, 41.144307 ] } },
{ "type": "Feature", "properties": { "nkde_score": 0.55297867680070412 }, "geometry": { "type": "Point", "coordinates": [ -8.591267, 41.157568 ] } },
{ "type": "Feature", "properties": { "nkde_score": 0.5151341515058947 }, "geometry": { "type": "Point", "coordinates": [ -8.637826, 41.16452 ] } },
{ "type": "Feature", "properties": { "nkde_score": 0.48307620071375362 }, "geometry": { "type": "Point", "coordinates": [ -8.666643, 41.175333 ] } },
{ "type": "Feature", "properties": { "nkde_score": 0.3803822011771974 }, "geometry": { "type": "Point", "coordinates": [ -8.582427, 41.160184 ] } },
{ "type": "Feature", "properties": { "nkde_score": 0.97910021372279021 }, "geometry": { "type": "Point", "coordinates": [ -8.587053, 41.147268 ] } },
{ "type": "Feature", "properties": { "nkde_score": 0.68639610992207745 }, "geometry": { "type": "Point", "coordinates": [ -8.633199, 41.158548 ] } },
{ "type": "Feature", "properties": { "nkde_score": 0.5193375270153282 }, "geometry": { "type": "Point", "coordinates": [ -8.611874, 41.176699 ] } }
]
}
