{
"type": "FeatureCollection",
"name": "porto_base_p55",
"crs": { "type": "name", "properties": { "name": "urn:ogc:def:crs:OGC:1.3:CRS84" } },
"features": [
{ "type": "Feature", "properties": { "nkde_score": 0.73794703382472715 }, "geometry": { "type": "Point", "coordinates": [ -8.62042, 41.14722 ] } },
{ "type": "Feature", "properties": { "nkde_score": 0.69078048133264114 }, "geometry": { "type": "Point", "coordinates": [ -8.607918, 41.153582 ] } },
{ "type": "Feature", "properties": { "nkde_score": 0.71699422160487969 }, "geometry": { "type": "Point", "coordinates": [ -8.674861, 41.152611 ] } },
{ "type": "Feature", "properties": { "nkde_score": 0.55201782758179418 }, "geometry": { "type": "Point", "coordinates": [ -8.653319, 41.148558 ] } },
{ "type": "Feature", "properties": { "nkde_score": 0.63510726699178588 }, "geometry": { "type": "Point", "coordinates": [ -8.632876, 41.146954 ] } },
{ "type": "Feature", "properties": { "nkde_score": 0.31668148003075919 }, "geometry": { "type": "Point", "coordinates": [ -8.609501, 41.183684 ] } },
{ "type": "Feature", "properties": { "nkde_score": 0.73531445635791814 }, "geometry": { "type": "Point", "coordinates": [ -8.627836, 41.175893 ] } },
{ "type": "Feature", "properties": { "nkde_score": 0.70112382973818577 }, "geometry": { "type": "Point", "coordinates": [ -8.601063, 41.159439 ] } },
{ "type": "Feature", "properties": { "nkde_score": 0.76323037358714096 }, "geometry": { "type": "Point", "coordinates": [ -8.650317, 41.153955 ] } },
{ "type": "Feature", "properties": { "nkde_score": 0.50356211368217263 }, "geometry": { "type": "Point", "coordinates": [ -8.628743, 41.152478 ] } },
{ "type": "Feature", "properties": { "nkde_score": 0.53158875901954639 }, "geometry": { "type": "Point", "coordinates": [ -8.609984, 41.157254 ] } },
{ "type": "Feature", "properties": { "nkde_score": 0.72490860507726274 }, "geometry": { "type": "Point", "coordinates": [ -8.616929, 41.142482 ] } },
{ "type": "Feature", "properties": { "nkde_score": 0.62547825371063814 }, "geometry": { "type": "Point", "coordinates": [ -8.598457, 41.148348 ] } },
{ "type": "Feature", "properties": { "nkde_score": 0.58641422711570956 }, "geometry": { "type": "Point", "coordinates": [ -8.593306, 41.158653 ] } },
{ "type": "Feature", "properties": { "nkde_score": 0.53860930715399613 }, "geometry": { "type": "Point", "coordinates": [ -8.618447, 41.162538 ] } },
{ "type": "Feature", "properties": { "nkde_score": 0.61567753913656276 }, "geometry": { "type": "Point", "coordinates": [ -8.609144, 41.175394 ] } },
{ "type": "Feature", "properties": { "nkde_score": 0.55543863001815097 }, "geometry": { "type": "Point", "coordinates": [ -8.59028, 41.164662 ] } },
{ "type": "Feature", "properties": { "nkde_score": 0.60010365664738496 }, "geometry": { "type": "Point", "coordinates": [ -8.678313, 41.158595 ] } },
{ "type": "Feature", "properties": { "nkde_score": 0.53287557881261538 }, "geometry": { "type": "Point", "coordinates": [ -8.659109, 41.155949 ] } },
{ "type": "Feature", "properties": { "nkde_score": 0.60362639774615812 }, "geometry": { "type": "Point", "coordinates": [ -8.66644, 41.1568 ] } },
{ "type": "Feature", "properties": { "nkde_score": 0.53428134306824093 }, "geometry": { "type": "Point", "coordinates": [ -8.64139, 41.15729 ] } },
{ "type": "Feature", "properties": { "nkde_score": 0.65408656017651789 }, "geometry": { "type": "Point", "coordinates": [ -8.610975, 41.167605 ] } },
{ "type": "Feature", "properties": { "nkde_score": 0.66836881779038559 }, "geometry": { "type": "Point", "coordinates": [ -8.620839, 41.155937 ] } },
{ "type": "Feature", "properties": { "nkde_score": 0.56839551714019931 }, "geometry": { "type": "Point", "coordinates": [ -8.630265, 41.168103 ] } },
{ "type": "Feature", "properties": { "nkde_score": 0.5341070805095689 }, "geometry": { "type": "Point", "coordinates": [ -8.601737, 41.166767 ] } },
{ "type": "Feature", "properties": { "nkde_score": 0.50128438615017124 }, "geometry": { "type": "Point", "coordinates": [ -8.59818, 41.172037 ] } },
{ "type": "Feature", "properties": { "nkde_score": 0.61618166144320186 }, "geometry": { "type": "Point", "coordinates": [ -8.578655, 41.158512 ] } },
{ "type": "Feature", "properties": { "nkde_score": 0.53783347596738762 }, "geometry": { "type": "Point", "coordinates": [ -8.646494, 41.178877 ] } },
{ "type": "Feature", "properties": { "nkde_score": 0.58814207727835199 }, "geometry": { "type": "Point", "coordinates": [ -8.646115, 41.167952 ] } },
{ "type": "Feature", "properties": { "nkde_score": 0.72333722918251953 }, "geometry": { "type": "Point", "coordinates": [ -8.655157, 41.17332 ] } },
{ "type": "Feature", "properties": { "nkde_score": 0.60404006862786175 }, "geometry": { "type": "Point", "coordinates": [ -8.587845, 41.176292 ] } },
{ "type": "Feature", "properties": { "nkde_score": 0.53939707935275139 }, "geometry": { "type": "Point", "coordinates": [ -8.627856, 41.162248 ] } },
{ "type": "Feature", "properties": { "nkde_score": 0.58615712240565676 }, "geometry": { "type": "Point", "coordinates": [ -8.660674, 41.15007 ] } },
{ "type": "Feature", "properties": { "nkde_score": 0.50827987158217114 }, "geometry": { "type": "Point", "coordinates": [ -8.668331, 41.149495 ] } },
{ "type": "Feature", "properties": { "nkde_score": 0.4506966570311744 }, "geometry": { "type": "Point", "coordinates": [ -8.6705, 41.167387 ] } },
{ "type": "Feature", "properties": { "nkde_score": 0.45668411542978565 }, "geometry": { "type": "Point", "coordinates": [ -8.661346, 41.166665 ] } },
{ "type": "Feature", "properties": { "nkde_score": 0.4591126738020665 }, "geometry": { "type": "Point", "coordinates": [ -8.654916, 41.167993 ] } },
{ "type": "Feature", "properties": { "nkde_score": 0.40472349796458623 }, "geometry": { "type": "Point", "coordinates": [ -8.566935, 41.15151 ] } },
{ "type": "Feature", "properties": { "nkde_score": 0.58555579620249676 }, "geometry": { "type": "Point", "coordinates": [ -8.585413, 41.170244 ] } },
{ "type": "Feature", "properties": { "nkde_score": 0.57333636880997163 }, "geometry": { "type": "Point", "coordinates": [ -8.620566, 41.167676 ] } },
{ "type": "Feature", "properties": { "nkde_score": 0.24500460956074235 }, "geometry": { "type": "Point", "coordinates": [ -8.636163, 41.173715 ] } },
{ "type": "Feature", "properties": { "nkde_score": 0.8592376281635169 }, "geometry": { "type": "Point", "coordinates": [ -8.612327, 41.148101 ] } },
{ "type": "Feature", "properties": { "nkde_score": 0.64465917297760256 }, "geometry": { "type": "Point", "coordinates": [ -8.571861, 41.166154 ] } },
{ "type": "Feature", "properties": { "nkde_score": 0.45487829769376265 }, "geometry": { "type": "Point", "coordinates": [ -8.576093, 41.144816 ] } },
{ "type": "Feature", "properties": { "nkde_score": 0.50324607907755403 }, "geometry": { "type": "Point", "coordinates": [ -8.570203, 41.160568 ] } },
{ "type": "Feature", "properties": { "nkde_score": 0.48610133082413221 }, "geometry": { "type": "Point", "coordinates": [ -8.578833, 41.166705 ] } },
{ "type": "Feature", "properties": { "nkde_score": 0.55899505077301037 }, "geometry": { "type": "Point", "coordinates": [ -8.634484, 41.180162 ] } },
{ "type": "Feature", "properties": { "nkde_score": 0.39528791605235897 }, "geometry": { "type": "Point", "coordinates": [ -8.664847, 41.173513 ] } },
{ "type": "Feature", "properties": { "nkde_score": 0.53246250379964821 }, "geometry": { "type": "Point", "coordinates": [ -8.65117, 41.161557 ] } },
{ "type": "Feature", "properties": { "nkde_score": 0.37811757027642234 }, "geometry": { "type": "Point", "coordinates": [ -8.618807, 41.175584 ] } },
{ "type": "Feature", "properties": { "nkde_score": 0.60797383838211383 }, "geometry": { "type": "Point", "coordinates": [ -8.607863, 41.144307 ] } },
{ "type": "Feature", "properties": { "nkde_score": 0.5151341515058947 }, "geometry": { "type": "Point", "coordinates": [ -8.637826, 41.16452 ] } },
{ "type": "Feature", "properties": { "nkde_score": 0.62364378376501695 }, "geometry": { "type": "Point", "coordinates": [ -8.631761, 41.158442 ] } },
{ "type": "Feature", "properties": { "nkde_score": 0.40890036021725107 }, "geometry": { "type": "Point", "coordinates": [ -8.596255, 41.15353 ] } },
{ "type": "Feature", "properties": { "nkde_score": 0.97910021372279021 }, "geometry": { "type": "Point", "coordinates": [ -8.587053, 41.147268 ] } }
]
}
