{
"type": "FeatureCollection",
"name": "porto_base_p40",
"crs": { "type": "name", "properties": { "name": "urn:ogc:def:crs:OGC:1.3:CRS84" } },
"features": [
{ "type": "Feature", "properties": { "nkde_score": 0.55201782758179418 }, "geometry": { "type": "Point", "coordinates": [ -8.653319, 41.148558 ] } },
{ "type": "Feature", "properties": { "nkde_score": 0.31668148003075919 }, "geometry": { "type": "Point", "coordinates": [ -8.609501, 41.183684 ] } },
{ "type": "Feature", "properties": { "nkde_score": 0.73531445635791814 }, "geometry": { "type": "Point", "coordinates": [ -8.627836, 41.175893 ] } },
{ "type": "Feature", "properties": { "nkde_score": 0.70112382973818577 }, "geometry": { "type": "Point", "coordinates": [ -8.601063, 41.159439 ] } },
{ "type": "Feature", "properties": { "nkde_score": 0.6977350003235534 }, "geometry": { "type": "Point", "coordinates": [ -8.61158, 41.160686 ] } },
{ "type": "Feature", "properties": { "nkde_score": 0.51181883937178452 }, "geometry": { "type": "Point", "coordinates": [ -8.594975, 41.155764 ] } },
{ "type": "Feature", "properties": { "nkde_score": 0.76323037358714096 }, "geometry": { "type": "Point", "coordinates": [ -8.650317, 41.153955 ] } },
{ "type": "Feature", "properties": { "nkde_score": 0.50356211368217263 }, "geometry": { "type": "Point", "coordinates": [ -8.628743, 41.152478 ] } },
{ "type": "Feature", "properties": { "nkde_score": 0.96895464731606373 }, "geometry": { "type": "Point", "coordinates": [ -8.610549, 41.146114 ] } },
{ "type": "Feature", "properties": { "nkde_score": 0.62547825371063814 }, "geometry": { "type": "Point", "coordinates": [ -8.598457, 41.148348 ] } },
{ "type": "Feature", "properties": { "nkde_score": 0.61567753913656276 }, "geometry": { "type": "Point", "coordinates": [ -8.609144, 41.175394 ] } },
{ "type": "Feature", "properties": { "nkde_score": 0.64165706098717579 }, "geometry": { "type": "Point", "coordinates": [ -8.58643, 41.174867 ] } },
{ "type": "Feature", "properties": { "nkde_score": 0.49458381424185693 }, "geometry": { "type": "Point", "coordinates": [ -8.589575, 41.163902 ] } },
{ "type": "Feature", "properties": { "nkde_score": 0.59015043687111968 }, "geometry": { "type": "Point", "coordinates": [ -8.665591, 41.156219 ] } },
{ "type": "Feature", "properties": { "nkde_score": 0.73021050886809069 }, "geometry": { "type": "Point", "coordinates": [ -8.674166, 41.153034 ] } },
{ "type": "Feature", "properties": { "nkde_score": 0.53428134306824093 }, "geometry": { "type": "Point", "coordinates": [ -8.641191, 41.157938 ] } },
{ "type": "Feature", "properties": { "nkde_score": 0.65408656017651789 }, "geometry": { "type": "Point", "coordinates": [ -8.610975, 41.167605 ] } },
{ "type": "Feature", "properties": { "nkde_score": 0.56839551714019931 }, "geometry": { "type": "Point", "coordinates": [ -8.630265, 41.168103 ] } },
{ "type": "Feature", "properties": { "nkde_score": 0.56477133667296675 }, "geometry": { "type": "Point", "coordinates": [ -8.597334, 41.166809 ] } },
{ "type": "Feature", "properties": { "nkde_score": 0.64821191903563291 }, "geometry": { "type": "Point", "coordinates": [ -8.655308, 41.172747 ] } },
{ "type": "Feature", "properties": { "nkde_score": 0.49389798172337918 }, "geometry": { "type": "Point", "coordinates": [ -8.599754, 41.17468 ] } },
{ "type": "Feature", "properties": { "nkde_score": 0.61618166144320186 }, "geometry": { "type": "Point", "coordinates": [ -8.578655, 41.158512 ] } },
{ "type": "Feature", "properties": { "nkde_score": 0.4877660289358744 }, "geometry": { "type": "Point", "coordinates": [ -8.660081, 41.166369 ] } },
{ "type": "Feature", "properties": { "nkde_score": 0.66861469568162979 }, "geometry": { "type": "Point", "coordinates": [ -8.617645, 41.142267 ] } },
{ "type": "Feature", "properties": { "nkde_score": 0.58615712240565676 }, "geometry": { "type": "Point", "coordinates": [ -8.660674, 41.15007 ] } },
{ "type": "Feature", "properties": { "nkde_score": 0.50827987158217114 }, "geometry": { "type": "Point", "coordinates": [ -8.668331, 41.149495 ] } },
{ "type": "Feature", "properties": { "nkde_score": 0.54119703950861375 }, "geometry": { "type": "Point", "coordinates": [ -8.652798, 41.167333 ] } },
{ "type": "Feature", "properties": { "nkde_score": 0.40472349796458623 }, "geometry": { "type": "Point", "coordinates": [ -8.566935, 41.15151 ] } },
{ "type": "Feature", "properties": { "nkde_score": 0.71940343316851041 }, "geometry": { "type": "Point", "coordinates": [ -8.609608, 41.153616 ] } },
{ "type": "Feature", "properties": { "nkde_score": 0.68479595509821489 }, "geometry": { "type": "Point", "coordinates": [ -8.621802, 41.160404 ] } },
{ "type": "Feature", "properties": { "nkde_score": 0.57333636880997163 }, "geometry": { "type": "Point", "coordinates": [ -8.620566, 41.167676 ] } },
{ "type": "Feature", "properties": { "nkde_score": 0.24500460956074235 }, "geometry": { "type": "Point", "coordinates": [ -8.636163, 41.173715 ] } },
{ "type": "Feature", "properties": { "nkde_score": 0.64465917297760256 }, "geometry": { "type": "Point", "coordinates": [ -8.571861, 41.166154 ] } },
{ "type": "Feature", "properties": { "nkde_score": 0.46680458381490819 }, "geometry": { "type": "Point", "coordinates": [ -8.57978, 41.168137 ] } },
{ "type": "Feature", "properties": { "nkde_score": 0.56012837704303786 }, "geometry": { "type": "Point", "coordinates": [ -8.664456, 41.172395 ] } },
{ "type": "Feature", "properties": { "nkde_score": 0.53246250379964821 }, "geometry": { "type": "Point", "coordinates": [ -8.65117, 41.161557 ] } },
{ "type": "Feature", "properties": { "nkde_score": 0.51692193782310025 }, "geometry": { "type": "Point", "coordinates": [ -8.630889, 41.159498 ] } },
{ "type": "Feature", "properties": { "nkde_score": 0.37811757027642234 }, "geometry": { "type": "Point", "coordinates": [ -8.618807, 41.175584 ] } },
{ "type": "Feature", "properties": { "nkde_score": 0.5174747114772843 }, "geometry": { "type": "Point", "coordinates": [ -8.639407, 41.164638 ] } },
{ "type": "Feature", "properties": { "nkde_score": 0.97910021372279021 }, "geometry": { "type": "Point", "coordinates": [ -8.587053, 41.147268 ] } }
]
}
