{
"type": "FeatureCollection",
"name": "porto_base_p100",
"crs": { "type": "name", "properties": { "name": "urn:ogc:def:crs:OGC:1.3:CRS84" } },
"features": [
{ "type": "Feature", "properties": { "nkde_score": 0.75434676749735619 }, "geometry": { "type": "Point", "coordinates": [ -8.609645, 41.151662 ] } },
{ "type": "Feature", "properties": { "nkde_score": 0.47729005107232741 }, "geometry": { "type": "Point", "coordinates": [ -8.597447, 41.152575 ] } },
{ "type": "Feature", "properties": { "nkde_score": 0.30186438554936429 }, "geometry": { "type": "Point", "coordinates": [ -8.593475, 41.180951 ] } },
{ "type": "Feature", "properties": { "nkde_score": 0.71699422160487969 }, "geometry": { "type": "Point", "coordinates": [ -8.674861, 41.152611 ] } },
{ "type": "Feature", "properties": { "nkde_score": 0.63510726699178588 }, "geometry": { "type": "Point", "coordinates": [ -8.632876, 41.146954 ] } },
{ "type": "Feature", "properties": { "nkde_score": 0.85260486894657961 }, "geometry": { "type": "Point", "coordinates": [ -8.683802, 41.173473 ] } },
{ "type": "Feature", "properties": { "nkde_score": 0.52493603911935072 }, "geometry": { "type": "Point", "coordinates": [ -8.654189, 41.178353 ] } },
{ "type": "Feature", "properties": { "nkde_score": 0.85200928187225888 }, "geometry": { "type": "Point", "coordinates": [ -8.605055, 41.18411 ] } },
{ "type": "Feature", "properties": { "nkde_score": 0.31928156130103985 }, "geometry": { "type": "Point", "coordinates": [ -8.569442, 41.170489 ] } },
{ "type": "Feature", "properties": { "nkde_score": 0.67657546048671346 }, "geometry": { "type": "Point", "coordinates": [ -8.586649, 41.143126 ] } },
{ "type": "Feature", "properties": { "nkde_score": 0.54202452441241 }, "geometry": { "type": "Point", "coordinates": [ -8.635093, 41.162977 ] } },
{ "type": "Feature", "properties": { "nkde_score": 0.61815607676829543 }, "geometry": { "type": "Point", "coordinates": [ -8.620702, 41.163905 ] } },
{ "type": "Feature", "properties": { "nkde_score": 0.73531445635791814 }, "geometry": { "type": "Point", "coordinates": [ -8.627836, 41.175893 ] } },
{ "type": "Feature", "properties": { "nkde_score": 0.59513682244360655 }, "geometry": { "type": "Point", "coordinates": [ -8.616467, 41.162364 ] } },
{ "type": "Feature", "properties": { "nkde_score": 0.80029802368794156 }, "geometry": { "type": "Point", "coordinates": [ -8.605211, 41.160589 ] } },
{ "type": "Feature", "properties": { "nkde_score": 0.72536084358416753 }, "geometry": { "type": "Point", "coordinates": [ -8.612742, 41.157178 ] } },
{ "type": "Feature", "properties": { "nkde_score": 0.69200091824819177 }, "geometry": { "type": "Point", "coordinates": [ -8.611565, 41.166506 ] } },
{ "type": "Feature", "properties": { "nkde_score": 0.5979287751361585 }, "geometry": { "type": "Point", "coordinates": [ -8.613476, 41.174243 ] } },
{ "type": "Feature", "properties": { "nkde_score": 0.51783623090463671 }, "geometry": { "type": "Point", "coordinates": [ -8.582131, 41.180316 ] } },
{ "type": "Feature", "properties": { "nkde_score": 0.65659831211779607 }, "geometry": { "type": "Point", "coordinates": [ -8.582137, 41.158721 ] } },
{ "type": "Feature", "properties": { "nkde_score": 0.72959062453481038 }, "geometry": { "type": "Point", "coordinates": [ -8.625498, 41.148836 ] } },
{ "type": "Feature", "properties": { "nkde_score": 0.59016978590100155 }, "geometry": { "type": "Point", "coordinates": [ -8.602621, 41.147289 ] } },
{ "type": "Feature", "properties": { "nkde_score": 0.96895464731606373 }, "geometry": { "type": "Point", "coordinates": [ -8.610549, 41.146114 ] } },
{ "type": "Feature", "properties": { "nkde_score": 0.39477037702505863 }, "geometry": { "type": "Point", "coordinates": [ -8.640572, 41.151783 ] } },
{ "type": "Feature", "properties": { "nkde_score": 0.84446584435038519 }, "geometry": { "type": "Point", "coordinates": [ -8.605454, 41.142942 ] } },
{ "type": "Feature", "properties": { "nkde_score": 0.52298606531179503 }, "geometry": { "type": "Point", "coordinates": [ -8.598618, 41.144659 ] } },
{ "type": "Feature", "properties": { "nkde_score": 0.60366161040591115 }, "geometry": { "type": "Point", "coordinates": [ -8.619565, 41.155322 ] } },
{ "type": "Feature", "properties": { "nkde_score": 0.52094552530743565 }, "geometry": { "type": "Point", "coordinates": [ -8.607544, 41.175254 ] } },
{ "type": "Feature", "properties": { "nkde_score": 0.68947390628332117 }, "geometry": { "type": "Point", "coordinates": [ -8.588432, 41.171096 ] } },
{ "type": "Feature", "properties": { "nkde_score": 0.45013723738891331 }, "geometry": { "type": "Point", "coordinates": [ -8.619885, 41.176877 ] } },
{ "type": "Feature", "properties": { "nkde_score": 0.74343344368524422 }, "geometry": { "type": "Point", "coordinates": [ -8.648709, 41.152631 ] } },
{ "type": "Feature", "properties": { "nkde_score": 0.49698005997253686 }, "geometry": { "type": "Point", "coordinates": [ -8.583487, 41.174023 ] } },
{ "type": "Feature", "properties": { "nkde_score": 0.49458381424185693 }, "geometry": { "type": "Point", "coordinates": [ -8.589575, 41.163902 ] } },
{ "type": "Feature", "properties": { "nkde_score": 0.59015043687111968 }, "geometry": { "type": "Point", "coordinates": [ -8.665129, 41.156067 ] } },
{ "type": "Feature", "properties": { "nkde_score": 0.54393419673892862 }, "geometry": { "type": "Point", "coordinates": [ -8.685157, 41.166132 ] } },
{ "type": "Feature", "properties": { "nkde_score": 0.5245703187010331 }, "geometry": { "type": "Point", "coordinates": [ -8.676427, 41.162708 ] } },
{ "type": "Feature", "properties": { "nkde_score": 0.61907305820303404 }, "geometry": { "type": "Point", "coordinates": [ -8.657031, 41.153928 ] } },
{ "type": "Feature", "properties": { "nkde_score": 0.4842504413430011 }, "geometry": { "type": "Point", "coordinates": [ -8.641528, 41.156857 ] } },
{ "type": "Feature", "properties": { "nkde_score": 0.49771949849892522 }, "geometry": { "type": "Point", "coordinates": [ -8.672092, 41.163348 ] } },
{ "type": "Feature", "properties": { "nkde_score": 0.53196449831685744 }, "geometry": { "type": "Point", "coordinates": [ -8.668923, 41.156763 ] } },
{ "type": "Feature", "properties": { "nkde_score": 0.49858315146855875 }, "geometry": { "type": "Point", "coordinates": [ -8.662884, 41.162013 ] } },
{ "type": "Feature", "properties": { "nkde_score": 0.69105713578174599 }, "geometry": { "type": "Point", "coordinates": [ -8.67926, 41.156928 ] } },
{ "type": "Feature", "properties": { "nkde_score": 0.61733520592215552 }, "geometry": { "type": "Point", "coordinates": [ -8.625368, 41.155613 ] } },
{ "type": "Feature", "properties": { "nkde_score": 0.66167298333098357 }, "geometry": { "type": "Point", "coordinates": [ -8.633093, 41.152631 ] } },
{ "type": "Feature", "properties": { "nkde_score": 0.53371010537163344 }, "geometry": { "type": "Point", "coordinates": [ -8.636171, 41.168814 ] } },
{ "type": "Feature", "properties": { "nkde_score": 0.77667127502100608 }, "geometry": { "type": "Point", "coordinates": [ -8.584049, 41.163146 ] } },
{ "type": "Feature", "properties": { "nkde_score": 0.55187250334750204 }, "geometry": { "type": "Point", "coordinates": [ -8.602733, 41.165477 ] } },
{ "type": "Feature", "properties": { "nkde_score": 0.5314303692863136 }, "geometry": { "type": "Point", "coordinates": [ -8.621148, 41.17021 ] } },
{ "type": "Feature", "properties": { "nkde_score": 0.56659092727137295 }, "geometry": { "type": "Point", "coordinates": [ -8.598668, 41.158811 ] } },
{ "type": "Feature", "properties": { "nkde_score": 0.43785075461302703 }, "geometry": { "type": "Point", "coordinates": [ -8.594231, 41.164957 ] } },
{ "type": "Feature", "properties": { "nkde_score": 0.54749926842363705 }, "geometry": { "type": "Point", "coordinates": [ -8.597292, 41.170029 ] } },
{ "type": "Feature", "properties": { "nkde_score": 0.58689345078997335 }, "geometry": { "type": "Point", "coordinates": [ -8.600187, 41.175686 ] } },
{ "type": "Feature", "properties": { "nkde_score": 0.53001359639167667 }, "geometry": { "type": "Point", "coordinates": [ -8.593568, 41.150973 ] } },
{ "type": "Feature", "properties": { "nkde_score": 0.32452120588608169 }, "geometry": { "type": "Point", "coordinates": [ -8.580394, 41.152602 ] } },
{ "type": "Feature", "properties": { "nkde_score": 0.54057019708418586 }, "geometry": { "type": "Point", "coordinates": [ -8.607978, 41.170038 ] } },
{ "type": "Feature", "properties": { "nkde_score": 0.45557879972602361 }, "geometry": { "type": "Point", "coordinates": [ -8.651569, 41.161487 ] } },
{ "type": "Feature", "properties": { "nkde_score": 0.54121398094843276 }, "geometry": { "type": "Point", "coordinates": [ -8.667297, 41.151416 ] } },
{ "type": "Feature", "properties": { "nkde_score": 0.45532529240995523 }, "geometry": { "type": "Point", "coordinates": [ -8.671215, 41.170863 ] } },
{ "type": "Feature", "properties": { "nkde_score": 0.63394925187589368 }, "geometry": { "type": "Point", "coordinates": [ -8.649812, 41.166317 ] } },
{ "type": "Feature", "properties": { "nkde_score": 0.72333722918251953 }, "geometry": { "type": "Point", "coordinates": [ -8.655157, 41.17332 ] } },
{ "type": "Feature", "properties": { "nkde_score": 0.44680185474901141 }, "geometry": { "type": "Point", "coordinates": [ -8.662477, 41.173183 ] } },
{ "type": "Feature", "properties": { "nkde_score": 0.48326179270596509 }, "geometry": { "type": "Point", "coordinates": [ -8.613072, 41.181379 ] } },
{ "type": "Feature", "properties": { "nkde_score": 0.53939707935275139 }, "geometry": { "type": "Point", "coordinates": [ -8.627856, 41.162248 ] } },
{ "type": "Feature", "properties": { "nkde_score": 0.66861469568162979 }, "geometry": { "type": "Point", "coordinates": [ -8.617645, 41.142267 ] } },
{ "type": "Feature", "properties": { "nkde_score": 0.79842786457617088 }, "geometry": { "type": "Point", "coordinates": [ -8.62012, 41.145656 ] } },
{ "type": "Feature", "properties": { "nkde_score": 0.2841267239760652 }, "geometry": { "type": "Point", "coordinates": [ -8.637888, 41.149139 ] } },
{ "type": "Feature", "properties": { "nkde_score": 0.5934796296341569 }, "geometry": { "type": "Point", "coordinates": [ -8.660535, 41.1497 ] } },
{ "type": "Feature", "properties": { "nkde_score": 0.47539989478186456 }, "geometry": { "type": "Point", "coordinates": [ -8.669573, 41.14851 ] } },
{ "type": "Feature", "properties": { "nkde_score": 0.5298355248005413 }, "geometry": { "type": "Point", "coordinates": [ -8.645512, 41.168833 ] } },
{ "type": "Feature", "properties": { "nkde_score": 0.54973158190204274 }, "geometry": { "type": "Point", "coordinates": [ -8.655285, 41.170241 ] } },
{ "type": "Feature", "properties": { "nkde_score": 0.63848358231657298 }, "geometry": { "type": "Point", "coordinates": [ -8.605334, 41.155728 ] } },
{ "type": "Feature", "properties": { "nkde_score": 0.49860502946667173 }, "geometry": { "type": "Point", "coordinates": [ -8.646007, 41.162616 ] } },
{ "type": "Feature", "properties": { "nkde_score": 0.56405567441008964 }, "geometry": { "type": "Point", "coordinates": [ -8.559426, 41.155519 ] } },
{ "type": "Feature", "properties": { "nkde_score": 0.67507040232614723 }, "geometry": { "type": "Point", "coordinates": [ -8.612992, 41.15003 ] } },
{ "type": "Feature", "properties": { "nkde_score": 0.35567838587426276 }, "geometry": { "type": "Point", "coordinates": [ -8.5757, 41.156449 ] } },
{ "type": "Feature", "properties": { "nkde_score": 0.20409885934834829 }, "geometry": { "type": "Point", "coordinates": [ -8.571769, 41.15626 ] } },
{ "type": "Feature", "properties": { "nkde_score": 0.54251763274933074 }, "geometry": { "type": "Point", "coordinates": [ -8.566459, 41.151539 ] } },
{ "type": "Feature", "properties": { "nkde_score": 0.52207316028904205 }, "geometry": { "type": "Point", "coordinates": [ -8.650115, 41.157246 ] } },
{ "type": "Feature", "properties": { "nkde_score": 0.4736525656851493 }, "geometry": { "type": "Point", "coordinates": [ -8.591698, 41.177131 ] } },
{ "type": "Feature", "properties": { "nkde_score": 0.24500460956074235 }, "geometry": { "type": "Point", "coordinates": [ -8.636163, 41.173715 ] } },
{ "type": "Feature", "properties": { "nkde_score": 0.62411646744429849 }, "geometry": { "type": "Point", "coordinates": [ -8.57231, 41.166225 ] } },
{ "type": "Feature", "properties": { "nkde_score": 0.46695019951455141 }, "geometry": { "type": "Point", "coordinates": [ -8.657674, 41.165363 ] } },
{ "type": "Feature", "properties": { "nkde_score": 0.45487829769376265 }, "geometry": { "type": "Point", "coordinates": [ -8.576093, 41.144816 ] } },
{ "type": "Feature", "properties": { "nkde_score": 0.33457319219263987 }, "geometry": { "type": "Point", "coordinates": [ -8.572194, 41.150806 ] } },
{ "type": "Feature", "properties": { "nkde_score": 0.46911327191935143 }, "geometry": { "type": "Point", "coordinates": [ -8.567194, 41.16086 ] } },
{ "type": "Feature", "properties": { "nkde_score": 0.36903964411344192 }, "geometry": { "type": "Point", "coordinates": [ -8.575541, 41.163217 ] } },
{ "type": "Feature", "properties": { "nkde_score": 0.46680458381490819 }, "geometry": { "type": "Point", "coordinates": [ -8.57978, 41.168137 ] } },
{ "type": "Feature", "properties": { "nkde_score": 0.55899505077301037 }, "geometry": { "type": "Point", "coordinates": [ -8.634484, 41.180162 ] } },
{ "type": "Feature", "properties": { "nkde_score": 0.2318872441443473 }, "geometry": { "type": "Point", "coordinates": [ -8.572168, 41.174452 ] } },
{ "type": "Feature", "properties": { "nkde_score": 0.52611138084799058 }, "geometry": { "type": "Point", "coordinates": [ -8.573336, 41.179448 ] } },
{ "type": "Feature", "properties": { "nkde_score": 0.67859554633293817 }, "geometry": { "type": "Point", "coordinates": [ -8.632998, 41.158343 ] } },
{ "type": "Feature", "properties": { "nkde_score": 0.52695625074163399 }, "geometry": { "type": "Point", "coordinates": [ -8.64607, 41.179419 ] } },
{ "type": "Feature", "properties": { "nkde_score": 0.69641651728283849 }, "geometry": { "type": "Point", "coordinates": [ -8.627495, 41.168471 ] } },
{ "type": "Feature", "properties": { "nkde_score": 0.42363192389747178 }, "geometry": { "type": "Point", "coordinates": [ -8.641248, 41.17409 ] } },
{ "type": "Feature", "properties": { "nkde_score": 0.55297867680070412 }, "geometry": { "type": "Point", "coordinates": [ -8.591267, 41.157568 ] } },
{ "type": "Feature", "properties": { "nkde_score": 0.52118550340828362 }, "geometry": { "type": "Point", "coordinates": [ -8.666741, 41.175438 ] } },
{ "type": "Feature", "properties": { "nkde_score": 0.23666374727946221 }, "geometry": { "type": "Point", "coordinates": [ -8.664907, 41.167879 ] } },
{ "type": "Feature", "properties": { "nkde_score": 0.35573551190543967 }, "geometry": { "type": "Point", "coordinates": [ -8.653032, 41.148307 ] } },
{ "type": "Feature", "properties": { "nkde_score": 0.51335662784266944 }, "geometry": { "type": "Point", "coordinates": [ -8.638868, 41.166132 ] } },
{ "type": "Feature", "properties": { "nkde_score": 0.97910021372279021 }, "geometry": { "type": "Point", "coordinates": [ -8.587053, 41.147268 ] } }
]
}
