{
"type": "FeatureCollection",
"name": "porto_base_p85",
"crs": { "type": "name", "properties": { "name": "urn:ogc:def:crs:OGC:1.3:CRS84" } },
"features": [
{ "type": "Feature", "properties": { "nkde_score": 0.87635510501678049 }, "geometry": { "type": "Point", "coordinates": [ -8.614397, 41.14826 ] } },
{ "type": "Feature", "properties": { "nkde_score": 0.76095157950719428 }, "geometry": { "type": "Point", "coordinates": [ -8.622664, 41.14777 ] } },
{ "type": "Feature", "properties": { "nkde_score": 0.89357202612644959 }, "geometry": { "type": "Point", "coordinates": [ -8.60718, 41.150101 ] } },
{ "type": "Feature", "properties": { "nkde_score": 0.44135312305443736 }, "geometry": { "type": "Point", "coordinates": [ -8.599715, 41.153293 ] } },
{ "type": "Feature", "properties": { "nkde_score": 0.82011857537119481 }, "geometry": { "type": "Point", "coordinates": [ -8.628563, 41.159956 ] } },
{ "type": "Feature", "properties": { "nkde_score": 0.63510726699178588 }, "geometry": { "type": "Point", "coordinates": [ -8.632876, 41.146954 ] } },
{ "type": "Feature", "properties": { "nkde_score": 0.52493603911935072 }, "geometry": { "type": "Point", "coordinates": [ -8.654189, 41.178353 ] } },
{ "type": "Feature", "properties": { "nkde_score": 0.54084265792024122 }, "geometry": { "type": "Point", "coordinates": [ -8.646565, 41.160902 ] } },
{ "type": "Feature", "properties": { "nkde_score": 0.46172244538329449 }, "geometry": { "type": "Point", "coordinates": [ -8.607355, 41.184597 ] } },
{ "type": "Feature", "properties": { "nkde_score": 0.62316537604555422 }, "geometry": { "type": "Point", "coordinates": [ -8.570238, 41.167504 ] } },
{ "type": "Feature", "properties": { "nkde_score": 0.52627983045197835 }, "geometry": { "type": "Point", "coordinates": [ -8.633493, 41.163239 ] } },
{ "type": "Feature", "properties": { "nkde_score": 0.657719673411434 }, "geometry": { "type": "Point", "coordinates": [ -8.62086, 41.162731 ] } },
{ "type": "Feature", "properties": { "nkde_score": 0.52160458892152506 }, "geometry": { "type": "Point", "coordinates": [ -8.676261, 41.150652 ] } },
{ "type": "Feature", "properties": { "nkde_score": 0.73531445635791814 }, "geometry": { "type": "Point", "coordinates": [ -8.627823, 41.175815 ] } },
{ "type": "Feature", "properties": { "nkde_score": 0.74850557365992587 }, "geometry": { "type": "Point", "coordinates": [ -8.608748, 41.161291 ] } },
{ "type": "Feature", "properties": { "nkde_score": 0.72536084358416753 }, "geometry": { "type": "Point", "coordinates": [ -8.612742, 41.157178 ] } },
{ "type": "Feature", "properties": { "nkde_score": 0.6662167462933043 }, "geometry": { "type": "Point", "coordinates": [ -8.613195, 41.176506 ] } },
{ "type": "Feature", "properties": { "nkde_score": 0.51233536656968082 }, "geometry": { "type": "Point", "coordinates": [ -8.605706, 41.173257 ] } },
{ "type": "Feature", "properties": { "nkde_score": 0.51783623090463671 }, "geometry": { "type": "Point", "coordinates": [ -8.582131, 41.180316 ] } },
{ "type": "Feature", "properties": { "nkde_score": 0.55320946089888712 }, "geometry": { "type": "Point", "coordinates": [ -8.660946, 41.15048 ] } },
{ "type": "Feature", "properties": { "nkde_score": 0.50356211368217263 }, "geometry": { "type": "Point", "coordinates": [ -8.628743, 41.152478 ] } },
{ "type": "Feature", "properties": { "nkde_score": 0.69078048133264114 }, "geometry": { "type": "Point", "coordinates": [ -8.607762, 41.154022 ] } },
{ "type": "Feature", "properties": { "nkde_score": 0.58026763615260679 }, "geometry": { "type": "Point", "coordinates": [ -8.599201, 41.145872 ] } },
{ "type": "Feature", "properties": { "nkde_score": 0.53173692242680004 }, "geometry": { "type": "Point", "coordinates": [ -8.598136, 41.157919 ] } },
{ "type": "Feature", "properties": { "nkde_score": 0.40768200750328187 }, "geometry": { "type": "Point", "coordinates": [ -8.594246, 41.151073 ] } },
{ "type": "Feature", "properties": { "nkde_score": 0.68947390628332117 }, "geometry": { "type": "Point", "coordinates": [ -8.588432, 41.171096 ] } },
{ "type": "Feature", "properties": { "nkde_score": 0.45013723738891331 }, "geometry": { "type": "Point", "coordinates": [ -8.619885, 41.176877 ] } },
{ "type": "Feature", "properties": { "nkde_score": 0.58404187623433645 }, "geometry": { "type": "Point", "coordinates": [ -8.649807, 41.151158 ] } },
{ "type": "Feature", "properties": { "nkde_score": 0.45014703770315068 }, "geometry": { "type": "Point", "coordinates": [ -8.637034, 41.149913 ] } },
{ "type": "Feature", "properties": { "nkde_score": 0.49698005997253686 }, "geometry": { "type": "Point", "coordinates": [ -8.583487, 41.174023 ] } },
{ "type": "Feature", "properties": { "nkde_score": 0.55543863001815097 }, "geometry": { "type": "Point", "coordinates": [ -8.589267, 41.164258 ] } },
{ "type": "Feature", "properties": { "nkde_score": 0.558183285933322 }, "geometry": { "type": "Point", "coordinates": [ -8.598011, 41.162459 ] } },
{ "type": "Feature", "properties": { "nkde_score": 0.59015043687111968 }, "geometry": { "type": "Point", "coordinates": [ -8.665591, 41.156219 ] } },
{ "type": "Feature", "properties": { "nkde_score": 0.54393419673892862 }, "geometry": { "type": "Point", "coordinates": [ -8.685157, 41.166132 ] } },
{ "type": "Feature", "properties": { "nkde_score": 0.5245703187010331 }, "geometry": { "type": "Point", "coordinates": [ -8.676427, 41.162708 ] } },
{ "type": "Feature", "properties": { "nkde_score": 0.6993913331799454 }, "geometry": { "type": "Point", "coordinates": [ -8.680077, 41.157917 ] } },
{ "type": "Feature", "properties": { "nkde_score": 0.56235976410412525 }, "geometry": { "type": "Point", "coordinates": [ -8.657643, 41.154086 ] } },
{ "type": "Feature", "properties": { "nkde_score": 0.4842504413430011 }, "geometry": { "type": "Point", "coordinates": [ -8.641528, 41.156857 ] } },
{ "type": "Feature", "properties": { "nkde_score": 0.49771949849892522 }, "geometry": { "type": "Point", "coordinates": [ -8.672092, 41.163348 ] } },
{ "type": "Feature", "properties": { "nkde_score": 0.65361720576750115 }, "geometry": { "type": "Point", "coordinates": [ -8.672847, 41.155589 ] } },
{ "type": "Feature", "properties": { "nkde_score": 0.49858315146855875 }, "geometry": { "type": "Point", "coordinates": [ -8.662884, 41.162013 ] } },
{ "type": "Feature", "properties": { "nkde_score": 0.66836881779038559 }, "geometry": { "type": "Point", "coordinates": [ -8.620839, 41.155937 ] } },
{ "type": "Feature", "properties": { "nkde_score": 0.53371010537163344 }, "geometry": { "type": "Point", "coordinates": [ -8.636171, 41.168814 ] } },
{ "type": "Feature", "properties": { "nkde_score": 0.52992513469155333 }, "geometry": { "type": "Point", "coordinates": [ -8.59604, 41.169605 ] } },
{ "type": "Feature", "properties": { "nkde_score": 0.55187250334750204 }, "geometry": { "type": "Point", "coordinates": [ -8.602733, 41.165477 ] } },
{ "type": "Feature", "properties": { "nkde_score": 0.55815268347491254 }, "geometry": { "type": "Point", "coordinates": [ -8.622301, 41.167828 ] } },
{ "type": "Feature", "properties": { "nkde_score": 0.4315633739736458 }, "geometry": { "type": "Point", "coordinates": [ -8.654549, 41.172394 ] } },
{ "type": "Feature", "properties": { "nkde_score": 0.49389798172337918 }, "geometry": { "type": "Point", "coordinates": [ -8.599754, 41.17468 ] } },
{ "type": "Feature", "properties": { "nkde_score": 0.32452120588608169 }, "geometry": { "type": "Point", "coordinates": [ -8.580394, 41.152602 ] } },
{ "type": "Feature", "properties": { "nkde_score": 0.63317576194749237 }, "geometry": { "type": "Point", "coordinates": [ -8.597062, 41.182289 ] } },
{ "type": "Feature", "properties": { "nkde_score": 0.58623995219955827 }, "geometry": { "type": "Point", "coordinates": [ -8.611945, 41.167458 ] } },
{ "type": "Feature", "properties": { "nkde_score": 0.44325510999178258 }, "geometry": { "type": "Point", "coordinates": [ -8.653818, 41.15999 ] } },
{ "type": "Feature", "properties": { "nkde_score": 0.46571962629252811 }, "geometry": { "type": "Point", "coordinates": [ -8.659797, 41.16623 ] } },
{ "type": "Feature", "properties": { "nkde_score": 0.4959060215826358 }, "geometry": { "type": "Point", "coordinates": [ -8.668413, 41.168741 ] } },
{ "type": "Feature", "properties": { "nkde_score": 0.58224349908653672 }, "geometry": { "type": "Point", "coordinates": [ -8.613677, 41.181385 ] } },
{ "type": "Feature", "properties": { "nkde_score": 0.66861469568162979 }, "geometry": { "type": "Point", "coordinates": [ -8.617645, 41.142267 ] } },
{ "type": "Feature", "properties": { "nkde_score": 0.77313784339260905 }, "geometry": { "type": "Point", "coordinates": [ -8.648067, 41.154263 ] } },
{ "type": "Feature", "properties": { "nkde_score": 0.53430322369303473 }, "geometry": { "type": "Point", "coordinates": [ -8.657711, 41.150987 ] } },
{ "type": "Feature", "properties": { "nkde_score": 0.50827987158217114 }, "geometry": { "type": "Point", "coordinates": [ -8.667928, 41.149719 ] } },
{ "type": "Feature", "properties": { "nkde_score": 0.5298355248005413 }, "geometry": { "type": "Point", "coordinates": [ -8.645512, 41.168833 ] } },
{ "type": "Feature", "properties": { "nkde_score": 0.54119703950861375 }, "geometry": { "type": "Point", "coordinates": [ -8.652798, 41.167333 ] } },
{ "type": "Feature", "properties": { "nkde_score": 0.35567838587426276 }, "geometry": { "type": "Point", "coordinates": [ -8.5757, 41.156449 ] } },
{ "type": "Feature", "properties": { "nkde_score": 0.20409885934834829 }, "geometry": { "type": "Point", "coordinates": [ -8.571769, 41.15626 ] } },
{ "type": "Feature", "properties": { "nkde_score": 0.4736525656851493 }, "geometry": { "type": "Point", "coordinates": [ -8.591698, 41.177131 ] } },
{ "type": "Feature", "properties": { "nkde_score": 0.74830574766248803 }, "geometry": { "type": "Point", "coordinates": [ -8.627163, 41.166966 ] } },
{ "type": "Feature", "properties": { "nkde_score": 0.24500460956074235 }, "geometry": { "type": "Point", "coordinates": [ -8.636163, 41.173715 ] } },
{ "type": "Feature", "properties": { "nkde_score": 0.43663080453617825 }, "geometry": { "type": "Point", "coordinates": [ -8.576747, 41.165326 ] } },
{ "type": "Feature", "properties": { "nkde_score": 0.50921912013274095 }, "geometry": { "type": "Point", "coordinates": [ -8.576714, 41.144658 ] } },
{ "type": "Feature", "properties": { "nkde_score": 0.38968532778735643 }, "geometry": { "type": "Point", "coordinates": [ -8.570825, 41.149857 ] } },
{ "type": "Feature", "properties": { "nkde_score": 0.39162627573637104 }, "geometry": { "type": "Point", "coordinates": [ -8.563505, 41.152311 ] } },
{ "type": "Feature", "properties": { "nkde_score": 0.46911327191935143 }, "geometry": { "type": "Point", "coordinates": [ -8.567194, 41.16086 ] } },
{ "type": "Feature", "properties": { "nkde_score": 0.53269140758971523 }, "geometry": { "type": "Point", "coordinates": [ -8.575005, 41.162157 ] } },
{ "type": "Feature", "properties": { "nkde_score": 0.46680458381490819 }, "geometry": { "type": "Point", "coordinates": [ -8.57978, 41.168137 ] } },
{ "type": "Feature", "properties": { "nkde_score": 0.55899505077301037 }, "geometry": { "type": "Point", "coordinates": [ -8.634484, 41.180162 ] } },
{ "type": "Feature", "properties": { "nkde_score": 0.48156738991074277 }, "geometry": { "type": "Point", "coordinates": [ -8.667541, 41.175616 ] } },
{ "type": "Feature", "properties": { "nkde_score": 0.2318872441443473 }, "geometry": { "type": "Point", "coordinates": [ -8.572168, 41.174452 ] } },
{ "type": "Feature", "properties": { "nkde_score": 0.52611138084799058 }, "geometry": { "type": "Point", "coordinates": [ -8.573336, 41.179448 ] } },
{ "type": "Feature", "properties": { "nkde_score": 0.50324085985158939 }, "geometry": { "type": "Point", "coordinates": [ -8.662543, 41.172861 ] } },
{ "type": "Feature", "properties": { "nkde_score": 0.52695625074163399 }, "geometry": { "type": "Point", "coordinates": [ -8.64607, 41.179419 ] } },
{ "type": "Feature", "properties": { "nkde_score": 0.60797383838211383 }, "geometry": { "type": "Point", "coordinates": [ -8.607863, 41.144307 ] } },
{ "type": "Feature", "properties": { "nkde_score": 0.68574428589225667 }, "geometry": { "type": "Point", "coordinates": [ -8.633255, 41.158644 ] } },
{ "type": "Feature", "properties": { "nkde_score": 0.55297867680070412 }, "geometry": { "type": "Point", "coordinates": [ -8.591267, 41.157568 ] } },
{ "type": "Feature", "properties": { "nkde_score": 0.5174747114772843 }, "geometry": { "type": "Point", "coordinates": [ -8.639407, 41.164638 ] } },
{ "type": "Feature", "properties": { "nkde_score": 0.3803822011771974 }, "geometry": { "type": "Point", "coordinates": [ -8.582427, 41.160184 ] } },
{ "type": "Feature", "properties": { "nkde_score": 0.97910021372279021 }, "geometry": { "type": "Point", "coordinates": [ -8.587053, 41.147268 ] } }
]
}
